id,name,org,tel,addr,lat,lon
20617,두산2리 새마을회관,남부지방산림청 영주국유림관리소,054-630-4062,경상북도 영주시 봉현면 두산리 313-1 과,36.86803095,128.4961017
20329,성주생활문화센터,경상북도 성주군,054-930-6521,경상북도 성주군 금수강산면 광산리 125 대,35.91888211,128.177334
20328,성주별고을체육관,경상북도 성주군,054-930-6521,경상북도 성주군 성주읍 대흥리 905-3 체,35.91322101,128.2563852
4648,상리2리경로당,경상북도 봉화군,054-679-5723,경상북도 봉화군 재산면 상리  401-1대,36.832887,128.94696
16289,은척면복지회관,경상북도 상주시,054-537-8447,경상북도 상주시 은척면 봉중리  329-4답,36.530701,128.07053
88,내서면복지회관,경상북도 상주시,054-537-8237,경상북도 상주시 내서면 낙서리  126-1 대,36.399466,128.02994
786,평온1리마을회관,경상북도 상주시,054-537-8537,경상북도 상주시 화남면 평온리  196-5대,36.450658,127.9065
4680,의양3리경로당,경상북도 봉화군,054-679-5422,경상북도 봉화군 춘양면 의양리  292-3 대,36.939889,128.91301
4589,화천리경로당,경상북도 봉화군,054-679-5024,경상북도 봉화군 봉화읍 화천리  388임,36.906214,128.66747
18313,내성3리마을회관,경상북도 봉화군,054-679-5024,경상북도 봉화군 봉화읍 내성리 201-14 대,36.88636377,128.7416949
20330,용암중학교,경상북도 성주군,054-930-6521,경상북도 성주군 용암면 본리리 724학,35.84108629,128.3144673
454,우래1리마을회관,경상북도 예천군,054-650-6579,경상북도 예천군 보문면 우래리  539대,36.692766,128.57115
11418,유1리마을회관,경상북도 예천군,054-650-6579,경상북도 예천군 감천면 유리  390-11대,36.760235,128.54701
17220,금당실북촌경로당,경상북도 예천군,054-650-6579,경상북도 예천군 용문면 상금곡리  650대,36.69308,128.40711
17241,석정리경로당,경상북도 예천군,054-650-6579,경상북도 예천군 예천읍 석정리  689-1 구,36.651114,128.41924
17513,상금3리경로당,경상북도 예천군,054-650-6579,경상북도 예천군 용문면 상금곡리  563-2대,36.688951,128.41207
17512,상금2리마을회관,경상북도 예천군,054-650-6579,경상북도 예천군 용문면 상금곡리  633-5 전,36.69027,128.4064
17511,상금곡1리경로당,경상북도 예천군,054-650-6579,경상북도 예천군 용문면 상금곡리  526대,36.691159,128.40987
258,용유1리마을회관,경상북도 상주시,054-537-8391,경상북도 상주시 화북면 용유리  347-4대,36.560372,127.92126
18111,소지리경로당,경상북도 봉화군,054-679-5344,경상북도 봉화군 법전면 소지리  215-9대,36.924032,128.88994
20619,두음경로당,남부지방산림청 영주국유림관리소,054-630-4062,경상북도 봉화군 소천면 두음리 765-5전,36.90398522,129.0124971
20333,기양2리노인회,남부지방산림청 울진국유림관리소,054-780-3941,경상북도 울진군 매화면 기양리 1195-3전,36.89795789,129.3697939
20331,월항초등학교 지방분교,경상북도 성주군,054-930-6521,경상북도 성주군 월항면 지방리 536학,35.98678794,128.2893403
530,효자면행정복지센터,경상북도 예천군,054-650-6579,경상북도 예천군 효자면 도촌리  544-2대,36.771347,128.41888
11419,용두호두작업장사무실,경상북도 예천군,054-650-6579,경상북도 예천군 효자면 용두리  299-1대,36.794264,128.39159
459,광전리마을회관,경상북도 예천군,054-650-6579,경상북도 예천군 유천면 광전리  240-2 대,36.649603,128.38857
17212,감천행복문화센터,경상북도 예천군,054-650-6579,경상북도 예천군 감천면 포리  388-2대,36.721636,128.52828
17256,진평3리노인회관,경상북도 예천군,054-650-6579,경상북도 예천군 감천면 진평리  120대,36.745933,128.50388
17232,대심3리노인회관,경상북도 예천군,054-650-6579,경상북도 예천군 예천읍 대심리  58-6대,36.650506,128.44411
4679,애당경로당,경상북도 봉화군,054-679-5422,경상북도 봉화군 춘양면 애당리  177-1 대,36.98574,128.87326
20620,현동3리경로당,남부지방산림청 영주국유림관리소,054-630-4062,경상북도 봉화군 소천면 현동리 430-3 전,36.93723129,129.0114125
20332,사동보건진료소,남부지방산림청 울진국유림관리소,054-780-3941,경상북도 울진군 기성면 사동리  695-9잡,36.828908,129.43674
449,매창2리경로당,경상북도 예천군,054-650-6579,경상북도 예천군 지보면 매창리  479-3대,36.545149,128.35956
11415,밭들경로당,경상북도 예천군,054-650-6579,경상북도 예천군 지보면 소화리  266-4 답,36.562927,128.40005
17221,낙상2리경로당,경상북도 예천군,054-650-6579,경상북도 예천군 풍양면 낙상리  163-18대,36.510247,128.29902
17255,지보2리경로당,경상북도 예천군,054-650-6579,경상북도 예천군 지보면 지보리  492-21 대,36.517116,128.38217
17459,만화1리경로당,경상북도 예천군,054-650-6579,경상북도 예천군 지보면 만화리  172잡,36.568237,128.39072
534,기곡1리경로당,경상북도 예천군,054-650-6579,경상북도 예천군 보문면 기곡리  463-1대,36.706403,128.57121
435,직리마을회관,경상북도 예천군,054-650-6579,경상북도 예천군 용문면 직리  264-2대,36.694125,128.37096
444,유2리경로당,경상북도 예천군,054-650-6579,경상북도 예천군 감천면 유리  649-10 대,36.746743,128.53112
20625,월곡초등학교삼계분교장,남부지방산림청 영주국유림관리소,054-630-4062,경상북도 안동시 예안면 삼계리 873구,36.7196084,128.9253454
20622,예천초등학교,남부지방산림청 영주국유림관리소,054-630-4062,경상북도 예천군 예천읍 서본리 49-6 학,36.65619981,128.4490263
20621,배점보건진료소,남부지방산림청 영주국유림관리소,054-630-4062,경상북도 영주시 순흥면 배점리 202-1과,36.9310576,128.5545233
20336,삼근초등학교 옥방분교장,남부지방산림청 울진국유림관리소,054-780-3941,경상북도 울진군 금강송면 광회리 169-1학,36.92419541,129.13812
20335,부구초등학교 삼당분교,남부지방산림청 울진국유림관리소,054-780-3941,경상북도 울진군 북면 하당리 287학,37.04064154,129.322192
20334,하당보건진료소,남부지방산림청 울진국유림관리소,054-780-3941,경상북도 울진군 북면 하당리 138-4대,37.03866112,129.31852
11428,생천리경로당,경상북도 예천군,054-650-6579,경상북도 예천군 예천읍 생천리  321 대,36.67813,128.45393
450,예천곤충연구소,경상북도 예천군,054-650-6579,경상북도 예천군 효자면 고항리  577대,36.824286,128.45849
501,마산리경로당,경상북도 예천군,054-650-6579,경상북도 예천군 지보면 마산리  536-2대,36.560611,128.3305
466,원곡리마을회관,경상북도 예천군,054-650-6579,경상북도 예천군 호명면 원곡리  200-1대,36.595368,128.43894
20627,위1리마을회관,남부지방산림청 영주국유림관리소,054-630-4062,경상북도 안동시 임동면 위리 471 유,36.61526746,128.9486166
20626,석포2리 노인회관,남부지방산림청 영주국유림관리소,054-630-4062,경상북도 영주시 이산면 석포리 산164임,36.83133633,128.6837363
20623,달지1리경로당,남부지방산림청 영주국유림관리소,054-630-4062,경상북도 문경시 영순면 달지리 723-1임,36.57189568,128.2760609
20338,금강송면보건지소,남부지방산림청 울진국유림관리소,054-780-3944,경상북도 울진군 금강송면 삼근리 376-1 대,36.93428403,129.2471434
10891,평기2리마을회관,경상북도 경산시,053-804-7592,경상북도 경산시 남산면 평기리  463-1 대,35.753774,128.84955
10918,소월1리회관,경상북도 경산시,053-804-7491,경상북도 경산시 와촌면 소월리  1075-3대,35.954296,128.81816
10922,강학1리회관,경상북도 경산시,053-804-7491,경상북도 경산시 와촌면 강학리  581-7 대,35.957419,128.77314
10953,남천면행정복지센터,경상북도 경산시,053-804-7670,경상북도 경산시 남천면 삼성리  93-4대,35.766713,128.72697
17573,대한리마을회관,경상북도 경산시,053-804-7491,경상북도 경산시 와촌면 대한리  37대,35.962369,128.79194
10994,청천리마을회관,경상북도 경산시,053-804-7386,경상북도 경산시 하양읍 청천리  374-1대,35.879559,128.76294
20634,단곡1리마을회관,남부지방산림청 영주국유림관리소,054-630-4062,경상북도 영주시 단산면 단곡리 400-7 대,36.94965672,128.59846
20632,예천곤충연구소,남부지방산림청 영주국유림관리소,054-630-4062,경상북도 예천군 효자면 고항리 577대,36.82466388,128.4585329
20631,두성리마을노인복지회관,남부지방산림청 영주국유림관리소,054-630-4062,경상북도 예천군 효자면 두성리 158-1대,36.78442056,128.41417
20630,어담리마을회관,남부지방산림청 영주국유림관리소,054-630-4062,경상북도 안동시 풍천면 어담리 846-3전,36.4943058,128.5650629
20629,강동1리경로당,남부지방산림청 영주국유림관리소,054-630-4062,경상북도 영주시 평은면 강동리 791대,36.70284907,128.6845602
20628,사촌3리마을회관,남부지방산림청 영주국유림관리소,054-630-4062,경상북도 의성군 점곡면 사촌리 183대,36.42607587,128.7618787
19195,청도국민체육센터,경상북도 청도군,054-370-6175,경상북도 청도군 화양읍 동천리 457 체,35.6487671,128.7176784
18659,칠성2리꽃밭마을회관,경상북도 영덕군,054-730-6325,경상북도 영덕군 축산면 칠성리 583전,36.50084396,129.3453661
10886,사림리마을회관,경상북도 경산시,053-804-7592,경상북도 경산시 남산면 사림리  352대,35.754379,128.81938
10892,점촌동마을회관,경상북도 경산시,053-804-7592,경상북도 경산시 점촌동  161-3대,35.802848,128.77196
20640,신흥2리경로당,남부지방산림청 영주국유림관리소,054-630-4062,경상북도 의성군 춘산면 신흥리 1115-1 대,36.23477412,128.843412
20639,구룡리마을회관,남부지방산림청 영주국유림관리소,054-630-4062,경상북도 안동시 예안면 구룡리 701-1 대,36.64771089,128.9184244
20638,구룡리장따리경로당,남부지방산림청 영주국유림관리소,054-630-4062,경상북도 안동시 예안면 구룡리 458 대,36.65071051,128.9280882
20637,중율2리경로당,남부지방산림청 영주국유림관리소,054-630-4062,경상북도 의성군 신평면 중율리 579 대,36.49661098,128.5094677
20636,금계2리 노인회관,남부지방산림청 영주국유림관리소,054-630-4062,경상북도 영주시 풍기읍 금계리 215-3 대,36.89129619,128.5271254
20635,석항2리마을회관,남부지방산림청 영주국유림관리소,054-630-4062,경상북도 문경시 동로면 석항리 632 대,36.78494978,128.3441854
20618,콩세계과학관,남부지방산림청 영주국유림관리소,054-630-4062,경상북도 영주시 부석면 임곡리  123-2 답,36.993961,128.6633
17050,진전리경로당,경상북도 포항시,054-270-6355,경상북도 포항시 남구 오천읍 진전리  158대,35.884329,129.39936
18661,용덕1리마을회관,경상북도 영덕군,054-730-6325,경상북도 영덕군 지품면 용덕리 36-3대,36.42119523,129.2793845
18660,오천2리마을회관,경상북도 영덕군,054-730-6325,경상북도 영덕군 지품면 오천리 428-6 대,36.43243648,129.3228889
19200,유호출장소,경상북도 청도군,054-370-6175,경상북도 청도군 청도읍 유호리 528-3 대,35.57182878,128.7689856
19198,모계중고등학교,경상북도 청도군,054-370-6175,경상북도 청도군 화양읍 범곡리 117학,35.64954625,128.7352194
19196,서상1리 마을회관,경상북도 청도군,054-370-6175,경상북도 청도군 화양읍 동상리 163-6 대,35.64756738,128.7061686
19194,남성현출장소,경상북도 청도군,054-370-6175,경북 청도군 화양읍 남성현로 473-5,35.69595186,128.7176064
18752,대각2리마을회관,경상북도 포항시,054-270-6355,경상북도 포항시 남구 대송면 대각리 72-6 대,35.94833724,129.367829
18749,포항시노인복지회관,경상북도 포항시,054-240-7353,경상북도 포항시 북구 두호동 238-1전,36.06769739,129.3875494
18748,용흥동복지회관,경상북도 포항시,054-240-7353,경상북도 포항시 북구 용흥동 335-22대,36.03686457,129.3526186
18747,냉수1리마을회관,경상북도 포항시,054-240-7353,경상북도 포항시 북구 신광면 냉수리 192-9 전,36.08992172,129.2562542
18746,우각2리마을회관,경상북도 포항시,054-240-7353,경상북도 포항시 북구 신광면 우각리 513대,36.11499602,129.2574667
18745,인비리마을회관,경상북도 포항시,054-270-6355,경상북도 포항시 북구 기계면 인비리 1083-1대,36.08787231,129.1536858
19206,경북드론고등학교,경상북도 청도군,054-370-6175,경상북도 청도군 풍각면 송서리 553-6학,35.64114258,128.6204914
19205,금곡리경로당,경상북도 청도군,054-370-6175,경상북도 청도군 풍각면 금곡리 260-1대,35.63712629,128.5530493
19204,각남초등학교 교내 ,경상북도 청도군,054-370-6175,경상북도 청도군 각남면 예리리 498학,35.64277541,128.6569603
19199,화양초등학교 ,경상북도 청도군,054-370-6175,경상북도 청도군 화양읍 동상리 163-7학,35.647574,128.7064936
19197,남성현초등학교 교실동 ,경상북도 청도군,054-370-6175,경상북도 청도군 화양읍 삼신리 257학,35.69628512,128.7161496
18751,성곡3리새마을복지관,경상북도 포항시,054-240-7353,경상북도 포항시 북구 흥해읍 성곡리 349-1대,36.08052482,129.3487239
18750,일광리마을회관,경상북도 포항시,054-240-7353,경상북도 포항시 북구 죽장면 일광리 240 대,36.1471974,129.0799769
18508,독양2들미고개노인회,경상북도 예천군,054-650-6579,경상북도 예천군 보문면 독양리 542-1 대,36.72600865,128.5616625
18507,오암1리마을회관,경상북도 예천군,054-650-6579,경상북도 예천군 보문면 오암리 425-5대,36.65755977,128.5329765
18504,노사1리경로당,경상북도 예천군,054-650-6579,경상북도 예천군 용문면 노사리 149대,36.68375728,128.371429
20361,실내체육관,경상북도 상주시,054-537-7304,경상북도 상주시 계산동  447답,36.431464,128.1649
19207,풍각초등학교 ,경상북도 청도군,054-370-6175,경상북도 청도군 풍각면 봉기리 699학,35.64356971,128.6159501
19203,청도중앙초등학교 ,경상북도 청도군,054-370-6175,경상북도 청도군 청도읍 중앙로 81,35.64729712,128.7518938
19202,고수7리 마을회관,경상북도 청도군,054-370-6175,경상북도 청도군 청도읍 고수리 914-2 전,35.63786139,128.7461926
19201,청도군장애인복지관 ,경상북도 청도군,054-370-6175,경상북도 청도군 청도읍 월곡리 480 대,35.63349295,128.7563679
18754,두원리마을회관,경상북도 포항시,054-270-6355,경상북도 포항시 남구 장기면 두원리 131-2답,35.84476761,129.5161583
18753,영암3리마을회관,경상북도 포항시,054-270-6355,경상북도 포항시 남구 장기면 영암리 375대,35.91164316,129.5239537
18511,선2리경로당,경상북도 예천군,054-650-6579,경상북도 예천군 용문면 선리 229-1 대,36.72421046,128.4033629
18510,제곡리경로당,경상북도 예천군,054-650-6579,경상북도 예천군 용문면 제곡리 420-2대,36.70452931,128.43812
18509,우곡1리여성노인회관,경상북도 예천군,054-650-6579,경상북도 예천군 은풍면 우곡리 135-8답,36.74409025,128.4423084
19217,관하2리경로당 ,경상북도 청도군,054-370-6175,경상북도 청도군 매전면 관하리 1423답,35.71353643,128.8048298
19212,대천리경로당 ,경상북도 청도군,054-370-6175,경상북도 청도군 운문면 대천리 1462-76대,35.71651642,128.9129943
19211,이서초등학교 교내 ,경상북도 청도군,054-370-6175,경상북도 청도군 이서면 학산리 170학,35.66333682,128.6692153
19210,이서중고등학교,경상북도 청도군,054-370-6175,경상북도 청도군 이서면 서원리 331-3학,35.66282165,128.6695452
19209,청도칠곡교회 ,경상북도 청도군,054-370-6175,경상북도 청도군 이서면 칠곡리 658 종,35.69367978,128.6890513
19208,덕산초등학교 교내 ,경상북도 청도군,054-370-6175,경상북도 청도군 각북면 덕촌리 553-1학,35.70526777,128.5835654
18781,벌밭경로당,경상북도 청송군,054-870-6312,경상북도 청송군 현서면 사촌리  410-6 대,36.19980868,128.9086392
18780,금곡3리마을회관,경상북도 청송군,054-870-6312,경상북도 청송군 청송읍 금곡리 671-5대,36.41906061,129.0661443
18512,부초리마을회관,경상북도 예천군,054-650-6579,경상북도 예천군 은풍면 부초리 340-1대,36.7216415,128.4480276
18505,능천리노인회관,경상북도 예천군,054-650-6579,경상북도 예천군 용문면 능천리 331-1대,36.69759411,128.4232693
19220,청도국민체육센터,경상북도 청도군,054-370-2183,경상북도 청도군 화양읍 동천리 457 체,35.64837227,128.717799
19219,매전중학교 ,경상북도 청도군,054-370-6175,경상북도 청도군 매전면 동산리 445-4학,35.66803957,128.8527279
19218,동산초등학교 강당 ,경상북도 청도군,054-370-6175,경상북도 청도군 매전면 동산리 233-5학,35.66741049,128.8547413
19216,금천중고등학교 ,경상북도 청도군,054-370-6175,경상북도 청도군 금천면 동곡리 1120대,35.68796117,128.8947782
19215,임당2리경로당 ,경상북도 청도군,054-370-6175,경상북도 청도군 금천면 임당리 1670대,35.69037557,128.9080458
19214,신원리 마을회관 ,경상북도 청도군,054-370-6175,경상북도 청도군 운문면 신원리 1916-8대,35.68416801,128.9608902
19213,오진리경로당 ,경상북도 청도군,054-370-6175,경상북도 청도군 운문면 방지리 518-2 차,35.71466723,128.9099782
18794,압동1리경로당,경상북도 봉화군,054-679-5123,경상북도 봉화군 물야면 압동리 504잡,36.98595454,128.7010299
18792,삼동경로당,경상북도 봉화군,054-679-5824,경상북도 봉화군 명호면 삼동리 649-8대,36.87864457,128.9328774
18790,가평2리경로당,경상북도 봉화군,054-679-5123,경상북도 봉화군 물야면 가평리 100-2 대,36.95944609,128.7387901
20376,분천3리경로당,경상북도 봉화군,054-679-5523,경상북도 봉화군 소천면 분천리 544-3 대,36.93650022,129.0708502
20375,창평리경로당,경상북도 봉화군,054-679-5223,경상북도 봉화군 봉성면 창평리 229-2대,36.91521909,128.8056495
18870,남사2리 마을회관,경상북도 경주시,054-779-6344,경상북도 경주시 현곡면 남사리 569대,35.90785868,129.1337431
18866,암곡동 왕산노인정,경상북도 경주시,054-779-6344,경상북도 경주시 암곡동 357 대,35.8750218,129.3213008
18865,노설경로당,경상북도 경주시,054-779-6344,경상북도 경주시 안강읍 하곡리 81대,35.99383886,129.1375334
18849,구정상동마을회관,경상북도 경주시,054-779-6344,경상북도 경주시 구정동 616-67대,35.78282292,129.3053669
18847,화천3리회관,경상북도 경주시,054-779-6344,경상북도 경주시 건천읍 화천리 2028-1 대,35.787145,129.1278996
18844,대곡2리 마을회관,경상북도 경주시,054-779-6344,경상북도 경주시 건천읍 대곡리 465-1 대,35.85396175,129.1220197
18796,풍정2리경로당,경상북도 봉화군,054-679-5344,경상북도 봉화군 법전면 풍정리 91대,36.89434281,128.8661722
18795,토일리경로당,경상북도 봉화군,054-679-5923,경상북도 봉화군 상운면 토일리 605-14 대,36.81154183,128.7706708
18872,신원2리 경로회관,경상북도 경주시,054-779-6344,경상북도 경주시 산내면 신원리 1118-1대,35.76145987,128.9945393
18867,석계2리마을회관,경상북도 경주시,054-779-6344,경상북도 경주시 외동읍 석계리 1880-62대,35.66937677,129.2914466
18862,운대2리마을회관,경상북도 경주시,054-779-6344,경상북도 경주시 서면 운대리 202-1전,35.88835551,129.0772791
18860,외칠리방동경로회관,경상북도 경주시,054-779-6344,경상북도 경주시 산내면 외칠리 902-9대,35.76032454,129.0211698
18859,외칠2리 새마을회관,경상북도 경주시,054-779-6344,경상북도 경주시 산내면 외칠리 1296대,35.75380295,129.0123414
18854,도지앞마을 경로당,경상북도 경주시,054-779-6344,경상북도 경주시 도지동 126-1대,35.79398953,129.2749325
18853,화곡1리경로당,경상북도 경주시,054-779-6344,경상북도 경주시 내남면 화곡리 482-1대,35.7761339,129.1695817
18846,용명2리동회관,경상북도 경주시,054-779-6344,경상북도 경주시 건천읍 용명리 1539 대,35.8723357,129.0947248
18845,방내리상부노인정,경상북도 경주시,054-779-6344,경상북도 경주시 건천읍 방내리 1299-1 천,35.82256602,129.1029065
18797,서벽2리경로당,경상북도 봉화군,054-679-5422,경상북도 봉화군 춘양면 서벽리 678-1대,37.0150099,128.8243713
20377,법전2리경로당,경상북도 봉화군,054-679-52324,경상북도 봉화군 법전면 법전리 781-3잡,36.92426189,128.8634806
18867,석계2리마을회관,경상북도 경주시,054-779-6344,경상북도 경주시 외동읍 석계리 1880-62대,35.66937677,129.2914466
18864,옥산4리마을회관,경상북도 경주시,054-779-6344,경상북도 경주시 안강읍 옥산리 1185-1대,35.99165996,129.1696816
18862,운대2리마을회관,경상북도 경주시,054-779-6344,경상북도 경주시 서면 운대리 202-1전,35.88835551,129.0772791
18855,북군 마을회관,경상북도 경주시,054-779-6344,경상북도 경주시 북군동 252-4대,35.85277786,129.2641689
18852,월산1리회관,경상북도 경주시,054-779-6344,경상북도 경주시 내남면 월산리 580 대,35.73319754,129.1915008
18850,상신3리마을회관,경상북도 경주시,054-779-6344,경상북도 경주시 내남면 상신리 966 대,35.7400987,129.1728373
18123,동면1리소내골경로당,경상북도 봉화군,054-679-5723,경상북도 봉화군 재산면 동면리  2028-19전,36.797193,128.99184
18802,중기1리경로당,경상북도 청송군,054-870-6312,경상북도 청송군 부남면 중기리 640-3 임,36.27724564,129.1644754
18801,문거교회,경상북도 청송군,054-870-6312,경상북도 청송군 안덕면 문거리 258-7대,36.27801001,129.0047834
20380,봉양2리할아버지경로당,경상북도 봉화군,054-679-5123,경상북도 봉화군 봉성면 봉양리 610-11 대,36.86669308,128.8117394
20379,도천1리경로당,경상북도 봉화군,054-679-5823,경상북도 봉화군 명호면 도천리 189-7 대,36.85868217,128.9008384
20378,어지2리경로당,경상북도 봉화군,054-679-5324,경상북도 봉화군 법전면 어지리  908-12 대,36.918555,128.94912
18871,천군동마을회관,경상북도 경주시,054-779-6344,경상북도 경주시 천군동 1617-41대,35.82915924,129.2834132
18869,조양마을회관,경상북도 경주시,054-779-6344,경상북도 경주시 조양동 447-3대,35.77939358,129.2824759
18868,용강상리회관,경상북도 경주시,054-779-6344,경상북도 경주시 용강동 1049-6대,35.86342521,129.2259835
18861,우라2리 경로당,경상북도 경주시,054-779-6344,경상북도 경주시 산내면 우라리 310-1대,35.8379859,129.031679
18856,대현1리회관,경상북도 경주시,054-779-6344,경상북도 경주시 산내면 대현리 1532 대,35.72778049,129.0573765
18851,용장4리새마을회관,경상북도 경주시,054-779-6344,경상북도 경주시 내남면 용장리  137-9대,35.782517,129.20354
15986,후평1리마을회관,경상북도 성주군,054-930-7752,경상북도 성주군 금수면 후평리 982-3답,35.93599752,128.1457048
20394,상정2리마을회관,경상북도 포항시,054-270-6355,경상북도 포항시 남구 동해면 상정리 339-1대,35.98312243,129.4965906
19254,예천육상실내훈련장,경상북도 예천군,054-650-6579,경상북도 예천군 예천읍 동본리 484 체,36.65926486,128.4633369
19253,예천군문화회관,경상북도 예천군,054-650-6579,경상북도 예천군 예천읍 서본리 240대,36.65127883,128.4457462
19252,예천군문화체육센터,경상북도 예천군,054-650-6579,경상북도 예천군 예천읍 청복리 150체,36.63432463,128.4694686
18878,본리3리경로당,경상북도 성주군,054-930-7602,경상북도 성주군 용암면 본리리  36 대,35.848083,128.3235
18875,용신1리마을회관,경상북도 성주군,054-930-7552,경상북도 성주군 선남면 용신리  137-9답,35.912153,128.3943
18876,용신2리마을회관,경상북도 성주군,054-930-7552,경상북도 성주군 선남면 용신리  728대,35.922646,128.39127
18877,관화2리마을회관,경상북도 성주군,054-930-7552,경상북도 성주군 선남면 관화리  944-8 대,35.907172,128.34878
18791,부산2리경로당(신녕면 부산리 716),경상북도 영천시,054-339-7231,경상북도 영천시 신녕면 부산리  716 대,36.068361,128.73709
12731,차당리노인회관(고경면 차당리 293-2),경상북도 영천시,054-339-7836,경상북도 영천시 고경면 차당리  293-2대,35.983255,129.06341
19267,보문면 복지회관,경상북도 예천군,054-650-6579,경상북도 예천군 보문면 미호리 111-4대,36.66373826,128.512466
19265,증거리경로당,경상북도 예천군,054-650-6579,경상북도 예천군 감천면 증거리 267-1대,36.74113162,128.5180943
19261,성현리경로당,경상북도 예천군,054-650-6579,경상북도 예천군 용문면 성현리 326-2 대,36.68095029,128.4086234
19259,경북일고등학교,경상북도 예천군,054-650-6579,경상북도 예천군 호명읍 산합리 1395 학,36.57900139,128.4850455
19257,예천초등학교,경상북도 예천군,054-650-6579,경상북도 예천군 예천읍 서본리 49-6 학,36.6558211,128.4490263
19256,예천동부초등학교,경상북도 예천군,054-650-6579,경상북도 예천군 예천읍 백전리 88 학,36.66141531,128.4592136
19255,대창고등학교 체육관,경상북도 예천군,054-650-6579,경상북도 예천군 예천읍 노상리 1 학,36.66005592,128.4543909
18260,대구카톨릭청소년회 무학연수원,남부지방산림청 구미국유림관리소,054-712-4141,경상북도 성주군 금수강산면 무학리  780-2대,35.928173,128.10744
4963,용전리마을회관,남부지방산림청 구미국유림관리소,054-712-4141,경상북도 경산시 용성면 용전리  47-3대,35.773195,128.92386
5430,강곡2리회관,남부지방산림청 구미국유림관리소,054-712-4141,경상북도 김천시 조마면 강곡리  750대,36.028722,128.08444
19284,은풍중학교,경상북도 예천군,054-650-6579,경상북도 예천군 은풍면 우곡리 456학,36.75056952,128.4376561
19276,수월2리잿마경로당,경상북도 예천군,054-650-6579,경상북도 예천군 지보면 수월리 319 대,36.58371623,128.391687
19275,풍정리경로당,경상북도 예천군,054-650-6579,경상북도 예천군 개포면 풍정리 337-8 대,36.6425036,128.3288107
19274,용궁초등학교,경상북도 예천군,054-650-6579,경상북도 예천군 용궁면 읍부리 213-3학,36.60921278,128.2769917
19272,무지리경로당,경상북도 예천군,054-650-6579,경상북도 예천군 용궁면 무지리 64잡,36.60696014,128.3177303
19271,유천초등학교,경상북도 예천군,054-650-6579,경상북도 예천군 유천면 가리 746 학,36.63780787,128.3787815
19270,율현밤고개경로당,경상북도 예천군,054-650-6579,경상북도 예천군 유천면 율현리 365-7 대,36.63862927,128.3628173
19268,송지리솔안경로당,경상북도 예천군,054-650-6579,경상북도 예천군 유천면 용암리 56-1 대,36.62032834,128.3575253
19264,미석3리경로당,경상북도 예천군,054-650-6579,경상북도 예천군 감천면 미석리 36대,36.7308668,128.575197
19258,예천초등학교 본관교사동,경상북도 예천군,054-650-6579,경상북도 예천군 예천읍 서본리 49-6 학,36.65604273,128.4496405
19279,지보초등학교,경상북도 예천군,054-650-6579,경상북도 예천군 지보면 소화리  520-2학,36.547542,128.38935
19286,유천면 종합복지회관,경상북도 예천군,054-650-6579,경상북도 예천군 유천면 가리 321-1 대,36.63509368,128.3890683
19281,우망2리경로당,경상북도 예천군,054-650-6579,경상북도 예천군 풍양면 우망리 320-1 대,36.53589512,128.3160397
19280,와룡1리경로당,경상북도 예천군,054-650-6579,경상북도 예천군 풍양면 와룡리 658-2 대,36.51888085,128.2853733
19278,지보중학교,경상북도 예천군,054-650-6579,경상북도 예천군 지보면 마전리  142-1 학,36.54478605,128.3888213
19277,지보종합복지회관,경상북도 예천군,054-650-6579,경상북도 예천군 지보면 소화리 509대,36.54669439,128.3865392
19273,용궁중학교,경상북도 예천군,054-650-6579,경상북도 예천군 용궁면 읍부리 251-3학,36.60946725,128.2759182
19263,죽림리야당경로당,경상북도 예천군,054-650-6579,경상북도 예천군 용문면 죽림리 40창,36.69162682,128.4029576
19262,예천국민체육센터,경상북도 예천군,054-650-6579,경상북도 예천군 예천읍 대심리 353 대,36.64682472,128.4363371
19260,호명초등학교,경상북도 예천군,054-650-6579,경상북도 예천군 호명읍 산합리 1119 학,36.5789947,128.4792416
20666,야정2리 마을회관,경상북도 고령군,054-950-7404,경상북도 고령군 우곡면 야정리 635-2,35.6786475,128.3286674
1930,아곡리박실경로당,경상북도 칠곡군,054-979-6652,경상북도 칠곡군 왜관읍 아곡리  238 대,36.017127,128.42921
17373,대천2리마을회관,경상북도 영양군,054-680-6622,경상북도 영양군 영양읍 대천리  933-10대,36.656765,129.14222
17394,일월면사무소,경상북도 영양군,054-680-6622,경상북도 영양군 일월면 도계리  653-2대,36.702291,129.12881
19360,가은읍노인회분회관,경상북도 문경시,054-550-6322,경상북도 문경시 가은읍 왕능리 346-1대,36.6435751,128.0637529
19303,송지 솔안경로당,경상북도 예천군,054-650-6579,경상북도 예천군 유천면 송지리 605-3 대,36.63880234,128.3341478
19299,원류리문촌경로당,경상북도 예천군,054-650-6579,경상북도 예천군 용문면 원류리 267-1 전,36.70157239,128.3878259
19287,감천면행정복지센터,경상북도 예천군,054-650-6579,경상북도 예천군 감천면 포리 418-2대,36.72113358,128.5264198
19285,은풍초등학교,경상북도 예천군,054-650-6579,경상북도 예천군 은풍면 우곡리 214학,36.74745018,128.4423141
19283,상리초등학교,경상북도 예천군,054-650-6579,경상북도 예천군 효자면 도촌리 385-1 학,36.77747499,128.4204441
20679,우현경로당,남부지방산림청 영덕국유림관리소,054-730-8152,경상북도 포항시 북구 우현동 94-15대,36.04933175,129.361955
19671,학상리회관,경상북도 칠곡군,054-979-5422,경상북도 칠곡군 가산면 학상리  449-2 대,36.094896,128.49999
19672,영1리마을회관,경상북도 칠곡군,054-979-5476,경상북도 칠곡군 기산면 영리  498-1 대,35.975152,128.36694
19368,산양면 노인회분 회관,경상북도 문경시,054-550-6322,경상북도 문경시 산양면 불암리 2-7 대,36.61339149,128.2585936
19367,산북면노인회분회관,경상북도 문경시,054-550-6322,경상북도 문경시 산북면 대상리  68-13대,36.65612,128.25759
19365,모전 경로당,경상북도 문경시,054-550-6322,경상북도 문경시 모전동  384-4대,36.590907,128.18782
19364,마성면 노인회분회관,경상북도 문경시,054-550-6322,경상북도 문경시 마성면 오천리 824-2대,36.69275827,128.1212616
19363,두성경로당,경상북도 문경시,054-550-6322,경상북도 문경시 점촌동 435-21대,36.59762431,128.1948776
19362,동로면 노인회분회관,경상북도 문경시,054-550-6322,경상북도 문경시 동로면 노은리 156-3대,36.77185752,128.3152312
19361,농암면노인회분회관,경상북도 문경시,054-550-6322,경상북도 문경시 농암면 농암리 195-23대,36.60161153,128.0057943
20681,반곡리마을회관,남부지방산림청 영덕국유림관리소,054-730-8152,경상북도 포항시 북구 신광면 반곡리 389-5대,36.17026012,129.2708967
20676,합덕보건진료소,남부지방산림청 영덕국유림관리소,054-730-8152,경상북도 포항시 북구 죽장면 합덕리 272-11 대,36.20166779,129.0962845
20675,상사리마을회관,남부지방산림청 영덕국유림관리소,054-730-8152,경상북도 포항시 북구 죽장면 상사리  626-1 대,36.253202,129.10874
19375,호계면노인분회관,경상북도 문경시,054-550-6322,경상북도 문경시 호계면 막곡리 173-11 답,36.63270015,128.206586
19374,율곡2리마을회관,경상북도 문경시,054-550-6322,경상북도 문경시 영순면 율곡리  456-1 대,36.539687,128.23356
19373,우지경로당,경상북도 문경시,054-550-6322,경상북도 문경시 우지동 324대,36.6185789,128.1974389
19372,영신경로당,경상북도 문경시,054-550-6322,경상북도 문경시 영신동 518-4대,36.58985992,128.2109128
19370,영순면노인회분회관,경상북도 문경시,054-550-6322,경상북도 문경시 영순면 의곡리 40-2 대,36.58103407,128.2366822
19369,애향경로당,경상북도 문경시,054-550-6322,경상북도 문경시 공평동 344-5대,36.60555249,128.1837673
19366,문경읍 노인회분회관,경상북도 문경시,054-550-6322,경상북도 문경시 문경읍 하리 86-23 대,36.73624537,128.1067812
20688,진전리경로당,남부지방산림청 영덕국유림관리소,054-730-8152,경상북도 포항시 남구 오천읍 진전리 158대,35.88436355,129.39936
20684,대각사,남부지방산림청 영덕국유림관리소,054-730-8152,경상북도 포항시 남구 대송면 대각리 47대,35.94686454,129.3682624
20680,상옥2리마을회관,남부지방산림청 영덕국유림관리소,054-730-8152,경상북도 포항시 북구 죽장면 상옥리 312-9대,36.24967615,129.2151275
20677,북송리마을회관,남부지방산림청 영덕국유림관리소,054-730-8152,경상북도 포항시 북구 흥해읍 북송리 294-6대,36.11259976,129.322105
19438,점곡초등학교,경상북도 의성군,054-830-6521,경상북도 의성군 점곡면 사촌리 191-3학,36.42527441,128.7612353
19433,서변1리경로당,경상북도 의성군,054-830-6521,경상북도 의성군 점곡면 서변리  108-1,36.42355861,128.76649
19419,단촌면분회경로당,경상북도 의성군,054-830-6521,경상북도 의성군 단촌면 세촌리 822-3 대,36.42455589,128.6700432
19408,의성유니텍고등학교,경상북도 의성군,054-830-6521,경상북도 의성군 의성읍 중리리 720학,36.35492802,128.7003526
19397,의성노인복지회관,경상북도 의성군,054-830-6521,경상북도 의성군 의성읍 도동리 731-2대,36.3470685,128.7041702
19384,의성고등학교,경상북도 의성군,054-830-6521,경상북도 의성군 의성읍 중리리 710-1학,36.35279084,128.6998862
20692,개일노인회관,남부지방산림청 영덕국유림관리소,054-730-8152,경상북도 청송군 현동면 개일리 246 대,36.25576996,129.0232795
20689,상사리마을회관,남부지방산림청 영덕국유림관리소,054-730-8152,경상북도 포항시 북구 죽장면 상사리 626-1 대,36.25321067,129.108745
20686,임중1리마을회관,남부지방산림청 영덕국유림관리소,054-730-8152,경상북도 포항시 남구 장기면 임중리 378-9 대,35.88776566,129.4938139
20683,용흥동행정복지센터,남부지방산림청 영덕국유림관리소,054-730-8152,경상북도 포항시 북구 용흥동 57-175대,36.03836796,129.3576571
20682,정자리마을회관,남부지방산림청 영덕국유림관리소,054-730-8152,경상북도 포항시 북구 죽장면 정자리 425-1대,36.13112533,129.1022374
19459,정자리경로당,경상북도 의성군,054-830-6521,경상북도 의성군 옥산면 정자리 114대,36.39394404,128.8058977
19436,서변2리경로당,경상북도 의성군,054-830-6521,경상북도 의성군 점곡면 서변리 186대,36.42517846,128.7649715
19394,의성군청소년센터,경상북도 의성군,054-830-6521,경상북도 의성군 의성읍 상리리 637 대,36.35481008,128.7047764
19387,의성군게이트볼장,경상북도 의성군,054-830-6521,경상북도 의성군 의성읍 중리리 546-1 체,36.35841111,128.7020313
19385,의성교육지원청,경상북도 의성군,054-830-6521,경상북도 의성군 의성읍 도동리 643-1학,36.34087844,128.7010697
20695,중기1리경로당,남부지방산림청 영덕국유림관리소,054-730-8152,경상북도 청송군 부남면 중기리 640-3 임,36.27722573,129.1644633
20694,현동중학교,남부지방산림청 영덕국유림관리소,054-730-8152,경상북도 청송군 현동면 도평리 729학,36.28938095,129.0211157
20693,부곡1리마을회관,남부지방산림청 영덕국유림관리소,054-730-8152,경상북도 청송군 청송읍 부곡리 387-7전,36.44224385,129.0775822
20691,지소보건진료소,남부지방산림청 영덕국유림관리소,054-730-8152,경상북도 청송군 안덕면 지소리 387-2대,36.35351095,128.9949562
20687,산서리마을회관,남부지방산림청 영덕국유림관리소,054-730-8152,경상북도 포항시 남구 장기면 산서리 1266-11대,35.89132175,129.4621416
19418,의성초등학교,경상북도 의성군,054-830-6521,경상북도 의성군 의성읍 후죽리 531 학,36.35227873,128.6956452
19415,의성자혜원,경상북도 의성군,054-830-6521,경상북도 의성군 의성읍 후죽리 136-1대,36.36260219,128.699065
19406,의성여자중학교,경상북도 의성군,054-830-6521,경상북도 의성군 의성읍 상리리 670 학,36.35265394,128.7028151
19404,의성여자고등학교,경상북도 의성군,054-830-6521,경상북도 의성군 의성읍 후죽리 415-1 학,36.36143189,128.6960572
19401,의성군종합지원센터,경상북도 의성군,054-830-6521,경상북도 의성군 의성읍 후죽리 431-11 대,36.35999182,128.6975334
20720,죽파리장파경로당,남부지방산림청 영덕국유림관리소,054-730-8152,경상북도 영양군 수비면 죽파리 417-7 전,36.72607666,129.2250306
20709,요원2리경로회관,남부지방산림청 영덕국유림관리소,054-730-8152,경상북도 영양군 석보면 요원리 67-2 대,36.57861833,129.2053105
20708,금곡3리경로당,남부지방산림청 영덕국유림관리소,054-730-8152,경상북도 청송군 청송읍 금곡리 626-1 대,36.41928385,129.0616106
20707,현동복지회관,남부지방산림청 영덕국유림관리소,054-730-8152,경상북도 청송군 현동면 도평리 789 대,36.28887163,129.0170085
20706,하노래노인회관,남부지방산림청 영덕국유림관리소,054-730-8152,경상북도 청송군 안덕면 노래리 94-1 대,36.34963306,129.021582
20697,성재리새마을회관,남부지방산림청 영덕국유림관리소,054-730-8152,경상북도 청송군 안덕면 성재리 519-1대,36.25271067,128.960454
20696,한국수자원공사,남부지방산림청 영덕국유림관리소,054-730-8152,경상북도 청송군 안덕면 성재리 125-10 임,36.24008214,128.9648375
20439,묵어2리마을회관,남부지방산림청 구미국유림관리소,054-712-4141,경상북도 구미시 장천면 묵어리 산50-1 임,36.14448942,128.5220866
19425,사촌3리경로당,경상북도 의성군,054-830-6521,경상북도 의성군 점곡면 사촌리 748-1천,36.40773676,128.7565375
19420,후평리경로당,경상북도 의성군,054-830-6521,경상북도 의성군 단촌면 후평리 333 대,36.4380965,128.7158455
20739,류천교회,남부지방산림청 영덕국유림관리소,054-730-8152,경상북도 영덕군 지품면 낙평리 112대,36.44669525,129.2441875
20738,창수면사무소,남부지방산림청 영덕국유림관리소,054-730-8152,경상북도 영덕군 창수면 신기리 56-21 대,36.54620828,129.3483973
20736,화천리마을회관,남부지방산림청 영덕국유림관리소,054-730-8152,경상북도 영덕군 영덕읍 화천리 545-1대,36.45985555,129.3528196
20728,화천2리경로당,남부지방산림청 영덕국유림관리소,054-730-8152,경상북도 영양군 영양읍 화천리 622-1대,36.63656561,129.1771815
20727,무창보건진료소,남부지방산림청 영덕국유림관리소,054-730-8152,경상북도 영양군 영양읍 무창리 584 대,36.6315094,129.2006854
20710,오기2리마을회관,남부지방산림청 영덕국유림관리소,054-730-8152,경상북도 영양군 수비면 오기리 352-3 대,36.73860023,129.2040853
20442,득명리경로당,남부지방산림청 구미국유림관리소,054-712-4141,경상북도 칠곡군 동명면 득명리 272 대,36.01008093,128.6025105
19439,감계1리경로당,경상북도 의성군,054-830-6521,경상북도 의성군 옥산면 감계리 829답,36.3690287,128.7966106
19437,송내2리경로당,경상북도 의성군,054-830-6521,경상북도 의성군 점곡면 송내리 201대,36.42849758,128.7449385
18929,기양1리마을회관,남부지방산림청 울진국유림관리소,054-780-3942,경상북도 울진군 매화면 기양리  979답,36.906414,129.37511
19495,토종마늘정보화센터,경상북도 의성군,054-830-6521,경상북도 의성군 춘산면 사미리 332학,36.25047401,128.7582892
19484,의성창의인성교육관,경상북도 의성군,054-830-6521,경상북도 의성군 사곡면 양지리 550학,36.30735072,128.7870733
19456,전흥1리경로당,경상북도 의성군,054-830-6521,경상북도 의성군 옥산면 전흥리 901-1대,36.38449757,128.8316836
18939,호월2리마을회관,남부지방산림청 울진국유림관리소,054-780-3942,경상북도 울진군 울진읍 호월리 712-1잡,37.01999758,129.3638361
18938,호월1리마을회관,남부지방산림청 울진국유림관리소,054-780-3942,경상북도 울진군 울진읍 호월리 224-1대,37.01204032,129.379872
18937,정림1리마을회관,남부지방산림청 울진국유림관리소,054-780-3942,경상북도 울진군 울진읍 정림리 610대,37.02536577,129.3506733
18936,온양2리마을회관,남부지방산림청 울진국유림관리소,054-780-3942,경상북도 울진군 울진읍 온양리 86대,37.0273632,129.4088676
18935,온양1리마을회관,남부지방산림청 울진국유림관리소,054-780-3942,경상북도 울진군 울진읍 온양리 337-4대,37.01510865,129.4132576
18934,신흥2리마을회관,남부지방산림청 울진국유림관리소,054-780-3942,경상북도 울진군 매화면 신흥리 799대,36.87833464,129.3841595
18933,덕신1리마을회관,남부지방산림청 울진국유림관리소,054-780-3942,경상북도 울진군 매화면 덕신리 411-4 대,36.88387732,129.4155194
20735,중화리마을회관,남부지방산림청 영덕국유림관리소,054-730-8152,경상북도 영덕군 남정면 중화리 39-2대,36.35395466,129.3463231
20734,영1리경로당,남부지방산림청 영덕국유림관리소,054-730-8152,경상북도 영덕군 병곡면 영리 558 임,36.60451317,129.4020629
20713,수하2리경로당,남부지방산림청 영덕국유림관리소,054-730-8152,경상북도 영양군 수비면 수하리 401-1 대,36.82494845,129.2598104
20712,발리1리마을회관,남부지방산림청 영덕국유림관리소,054-730-8152,경상북도 영양군 수비면 발리리 300대,36.76700908,129.1964475
20711,본신리노인회관,남부지방산림청 영덕국유림관리소,054-730-8152,경상북도 영양군 수비면 본신리 76 대,36.7650484,129.274231
19510,대리2리경로당,경상북도 의성군,054-830-6521,경상북도 의성군 금성면 대리리 718대,36.26461743,128.6771101
19509,금성중고등학교,경상북도 의성군,054-830-6521,경상북도 의성군 금성면 탑리리 582학,36.25450256,128.6894863
19488,사미리경로당,경상북도 의성군,054-830-6521,경상북도 의성군 춘산면 사미리 261 대,36.2465077,128.756573
19475,양지3리경로당,경상북도 의성군,054-830-6521,경상북도 의성군 사곡면 양지리 99답,36.30521139,128.7968538
19450,입암3리경로당,경상북도 의성군,054-830-6521,경상북도 의성군 옥산면 입암리 1105-176 잡,36.38701862,128.8340159
20730,용화2리경로당,남부지방산림청 영덕국유림관리소,054-730-8152,경상북도 영양군 일월면 용화리 364-1도,36.81233941,129.12991
20725,홍계리경로회관,남부지방산림청 영덕국유림관리소,054-730-8152,경상북도 영양군 석보면 홍계리 174-5 대,36.58881263,129.1714057
20722,요원2리경로회관,남부지방산림청 영덕국유림관리소,054-730-8152,경상북도 영양군 석보면 요원리 67-2 대,36.57862267,129.2053276
20721,신원리마을회관,남부지방산림청 영덕국유림관리소,054-730-8152,경상북도 영양군 수비면 신원리 165 대,36.75474496,129.2213589
20719,계리마을회관,남부지방산림청 영덕국유림관리소,054-730-8152,경상북도 영양군 수비면 계리 887-4천,36.7711098,129.1733932
20718,가천리 새마을회관,남부지방산림청 영덕국유림관리소,054-730-8152,경상북도 영양군 일월면 가천리 406-3대,36.71327279,129.1599164
20717,산불관리사,남부지방산림청 영덕국유림관리소,054-730-8152,경상북도 영양군 수비면 신원리 산 26 임,36.76226742,129.2554143
20716,수하보건진료소,남부지방산림청 영덕국유림관리소,054-730-8152,경상북도 영양군 수비면 수하리 388-1전,36.82764487,129.2590535
20715,오리리새마을회관,남부지방산림청 영덕국유림관리소,054-730-8152,경상북도 영양군 일월면 오리리 111-3 전,36.74298852,129.1369658
20714,요원2리경로회관,남부지방산림청 영덕국유림관리소,054-730-8152,경상북도 영양군 석보면 요원리 67-2 대,36.57862372,129.205332
20740,신리보건진료소,남부지방산림청 영덕국유림관리소,054-730-8152,경상북도 영덕군 창수면 신리리 319-33 대,36.57667707,129.2764546
20737,수리마을회관,남부지방산림청 영덕국유림관리소,054-730-8152,경상북도 영덕군 창수면 수리 225 대,36.64419809,129.3069525
20731,원구교회,남부지방산림청 영덕국유림관리소,054-730-8152,경상북도 영덕군 영해면 원구리 142-1종,36.53937887,129.3792234
20729,금학리새마을회관,남부지방산림청 영덕국유림관리소,054-730-8152,경상북도 영양군 입암면 금학리 240-2 대,36.6302293,129.0256068
20726,용화1리경로당,남부지방산림청 영덕국유림관리소,054-730-8152,경상북도 영양군 일월면 용화리 542-3천,36.79206133,129.1528187
20724,신원2리마을회관,남부지방산림청 영덕국유림관리소,054-730-8152,경상북도 영양군 수비면 신원리 165 대,36.75478835,129.2213576
20723,용화리보건진료소,남부지방산림청 영덕국유림관리소,054-730-8152,경상북도 영양군 일월면 용화리 225-1 대,36.78902748,129.1503232
19508,장2리경로당,경상북도 의성군,054-830-6521,경상북도 의성군 가음면 장리 909대,36.24337682,128.7225899
19498,상가산경로당,경상북도 의성군,054-830-6521,경상북도 의성군 가음면 가산리 741대,36.22913885,128.7301863
19496,가산3리경로당,경상북도 의성군,054-830-6521,경상북도 의성군 가음면 가산리 866-3 임,36.23262473,128.728911
20748,두류1리마을회관,남부지방산림청 영덕국유림관리소,054-730-8152,경상북도 경주시 안강읍 두류리 1685 대,35.99126323,129.1614829
20744,오촌보건진료소,남부지방산림청 영덕국유림관리소,054-730-8152,경상북도 영덕군 창수면 오촌리 242-10 대,36.61254612,129.3214795
20743,삼성인력개발원 영덕연수원,남부지방산림청 영덕국유림관리소,054-730-8152,경상북도 영덕군 병곡면 영리 1133-2대,36.62496594,129.373656
20742,창수초등학교,남부지방산림청 영덕국유림관리소,054-730-8152,경상북도 영덕군 창수면 신기리 106학,36.54550926,129.3421816
20741,삼계2리노인정,남부지방산림청 영덕국유림관리소,054-730-8152,경상북도 영덕군 창수면 삼계리 262-14대,36.63027419,129.3105397
20733,인천2리마을회관,남부지방산림청 영덕국유림관리소,054-730-8152,경상북도 영덕군 창수면 인천리 213-9 대,36.63803615,129.283726
20732,신안주민회관,남부지방산림청 영덕국유림관리소,054-730-8152,경상북도 영덕군 지품면 신안리 94-16 대,36.44883846,129.2827783
19859,운남1리회관,경상북도 김천시,054-421-2068,경상북도 김천시 남면 운남리 381-1대,36.12536707,128.2037457
19507,장1리경로당,경상북도 의성군,054-830-6521,경상북도 의성군 가음면 장리 109대,36.24161372,128.7368188
19492,춘산면분회경로당,경상북도 의성군,054-830-6521,경상북도 의성군 춘산면 옥정리 403-1 대,36.23881982,128.8153957
20752,와읍리마을회관,남부지방산림청 영덕국유림관리소,054-730-8152,경상북도 경주시 문무대왕면 와읍리 451-4 대,35.80503133,129.4330263
20751,상라리마을회관,남부지방산림청 영덕국유림관리소,054-730-8152,경상북도 경주시 양남면 상라리 212-1 대,35.73938937,129.4380469
20750,기림사,남부지방산림청 영덕국유림관리소,054-730-8152,경상북도 경주시 문무대왕면 호암리 산1-1임,35.83832131,129.3991962
20749,감포읍 행정복지센터,남부지방산림청 영덕국유림관리소,054-730-8152,경상북도 경주시 감포읍 감포리 56-1 대,35.80734473,129.5016604
20747,석촌리마을회관,남부지방산림청 영덕국유림관리소,054-730-8152,경상북도 경주시 양남면 석촌리 216 대,35.7085842,129.4147168
20746,칠보산청소년수련원,남부지방산림청 영덕국유림관리소,054-730-8152,경상북도 영덕군 병곡면 금곡리 269-1 학,36.63993235,129.4136926
20745,신리1리경로당,남부지방산림청 영덕국유림관리소,054-730-8152,경상북도 영덕군 창수면 신리리 121-4대,36.58035838,129.3123264
19519,서제2리경로당,경상북도 의성군,054-830-6521,경상북도 의성군 단밀면 서제리 419-2 대,36.38373119,128.3668993
19516,내산1리경로당,경상북도 의성군,054-830-6521,경상북도 의성군 구천면 내산리 375대,36.35914498,128.4229085
19511,운곡경로당,경상북도 의성군,054-830-6521,경상북도 의성군 금성면 운곡리 266 장,36.28632629,128.7184163
19856,금송3리마을회관,경상북도 김천시,054-421-2174,경상북도 김천시 감천면 금송리 720대,36.09851741,128.1333538
19530,수정1리경로당,경상북도 의성군,054-830-6521,경상북도 의성군 금성면 수정리 714-1대,36.24779116,128.7068655
19525,교촌농촌체험휴양마을,경상북도 의성군,054-830-6521,경상북도 의성군 안계면 교촌리 350잡,36.36963291,128.4707736
19524,주선1리경로당,경상북도 의성군,054-830-6521,경상북도 의성군 단밀면 주선리 134-3대,36.37050183,128.3832919
19522,용곡2리경로당,경상북도 의성군,054-830-6521,경상북도 의성군 단밀면 용곡리 1230-5 잡,36.35007255,128.3917235
19520,속암1리경로당,경상북도 의성군,054-830-6521,경상북도 의성군 단밀면 속암리 121-1대,36.37765535,128.3828826
19517,내산2리경로당,경상북도 의성군,054-830-6521,경상북도 의성군 구천면 내산리 276-3대,36.35567784,128.4250834
19515,경북중부중학교,경상북도 의성군,054-830-6521,경상북도 의성군 비안면 이두리 341학,36.33825554,128.4909773
19513,봉양중학교,경상북도 의성군,054-830-6521,경상북도 의성군 봉양면 화전리 75-1학,36.30298679,128.5852463
19512,조문국박물관,경상북도 의성군,054-830-6521,경상북도 의성군 금성면 초전리 223-7 대,36.27664897,128.6692306
19866,하강1리마을회관,경상북도 김천시,054-421-2217,경상북도 김천시 구성면 하강리 270-1잡,36.0800173,128.0916776
19864,은림리마을회관,경상북도 김천시,054-421-2093,경상북도 김천시 감문면 은림리 351 답,36.19831757,128.1450214
19861,용암1리마을회관,경상북도 김천시,054-421-2034,경상북도 김천시 농소면 용암리 379대,36.08043785,128.171189
19529,만천1리경로당,경상북도 의성군,054-830-6521,경상북도 의성군 금성면 만천리 206-4 대,36.297799,128.7208094
19528,가원1리경로당,경상북도 의성군,054-830-6521,경상북도 의성군 다인면 가원리 1220-1대,36.42932609,128.3468
19527,용기4리경로당,경상북도 의성군,054-830-6521,경상북도 의성군 안계면 용기리 469-61답,36.38475502,128.4389625
19526,시안1리경로당,경상북도 의성군,054-830-6521,경상북도 의성군 안계면 시안리 205-4대,36.40632326,128.4273952
19523,의성국민체육센터,경상북도 의성군,054-830-6521,경상북도 의성군 단북면 노연리 1114 체,36.39217444,128.4287655
19521,용곡1리경로당,경상북도 의성군,054-830-6521,경상북도 의성군 단밀면 용곡리 813-1대,36.35727162,128.3971808
19518,만경촌농촌체험휴양마을,경상북도 의성군,054-830-6521,경상북도 의성군 단밀면 위중리 577-2 대,36.36203297,128.3890215
20755,나정1리 회관,경상북도 고령군,054-950-7404,경상북도 고령군 다산면 나정리 351-1,35.82682801,128.4043662
20754,삼대1리 마을회관,경상북도 고령군,054-950-7404,경상북도 고령군 성산면 삼대리 464-1,35.74016867,128.3845045
20471,연조1리 마을회관,경상북도 고령군,054-950-7404,경상북도 고령군 대가야읍 연조리  583 -2,35.730686,128.26391
19877,김천시 새마을회,경상북도 김천시,054-421-2356,경상북도 김천시 양천동 1774-20 대,36.09806391,128.1171586
19875,복전2리경로당,경상북도 김천시,054-4212156,경상북도 김천시 대항면 복전리 190-36 대,36.13119419,128.0279054
19873,무실마을회관,경상북도 김천시,054-421-2440,경상북도 김천시 덕곡동 852-7대,36.1090809,128.1524605
19871,이로리마을회관,경상북도 김천시,054-421-2404,경상북도 김천시 다수동 540-3대,36.12155069,128.0606364
19865,부거리회관,경상북도 김천시,054-421-2391,경상북도 김천시 신음동 1091대,36.13405425,128.1107106
10556,봉남2리마을회관,경상북도 구미시,054-480-5892,경상북도 구미시 선산읍 봉남리  645 대,36.21688452,128.2377582
16468,당포2리마을회관,경상북도 문경시,054-550-6322,경상북도 문경시 문경읍 당포리  622-4대,36.75094471,128.1547134
20082,일월면분회경로당,경상북도 영양군,054-680-6622,경상북도 영양군 일월면 도계리 653-25 대,36.70194385,129.1287167
20023,서부경로당,경상북도 영양군,054-680-6622,경상북도 영양군 영양읍 서부리 197대,36.66469181,129.113145
20021,서부1리마을회관,경상북도 영양군,054-680-6622,경상북도 영양군 영양읍 서부리 2-23대,36.66350332,129.1170355
20018,영의33경로당,경상북도 영양군,054-680-6622,경상북도 영양군 영양읍 동부리 194-3 대,36.665154,129.1167027
20015,영양군 보건소,경상북도 영양군,054-680-6622,경상북도 영양군 영양읍 동부리 164-1,36.66194482,129.1180629
20011,영양중앙초등학교,경상북도 영양군,054-680-6622,경상북도 영양군 영양읍 동부리  128 학,36.66400181,129.1200129
20010,바들양지경로당,경상북도 영양군,054-680-6622,경상북도 영양군 영양읍 동부리 127-1 대,36.66448848,129.1204223
20009,산촌문화누림센터,경상북도 영양군,054-680-6622,경상북도 영양군 영양읍 동부리 110-1 전,36.66607676,129.122058
20008,LH아파트경로당,경상북도 영양군,054-680-6622,경상북도 영양군 영양읍 동부리 94 대,36.66289147,129.1239673
20007,영양여자고등학교,경상북도 영양군,054-680-6622,경상북도 영양군 영양읍 동부리 5,36.66197023,129.1306038
20198,갈전1리마을회관,경상북도 문경시,054-550-6322,경상북도 문경시 가은읍 갈전리 499-7 대,36.63796481,128.0686093
20197,우곡2리마을회관,경상북도 문경시,054-550-6322,경상북도 문경시 산북면 우곡리 231-7대,36.70403188,128.2430586
20161,도리1리 마을회관,경상북도 경주시,054-779-6347,경상북도 경주시 서면 도리 980-9답,35.92223196,129.075447
20146,대평리마을회관,경상북도 영주시,639-7571,경상북도 영주시 안정면 대평리  179 대,36.887328,128.5658
20145,백신1리마을회관,경상북도 영주시,639-7419,경상북도 영주시 풍기읍 백신리 113-3 대,36.8819689,128.4997774
20090,칠성리마을회관,경상북도 영양군,054-680-6622,경상북도 영양군 일월면 칠성리 269-1대,36.73913111,129.1529271
20085,일월면보건지소,경상북도 영양군,054-680-6622,경상북도 영양군 일월면 도계리 667-17 전,36.7024443,129.126501
20084,도계1리 할아버지 경로당,경상북도 영양군,054-680-6622,경상북도 영양군 일월면 도계리 667-11대,36.70253732,129.1272574
20083,도계1리마을회관,경상북도 영양군,054-680-6622,경상북도 영양군 일월면 도계리 667-6대,36.70220516,129.126056
20020,영양읍사무소,경상북도 영양군,054-680-6622,경상북도 영양군 영양읍 동부리  550-10대,36.667079,129.11425
20199,달지1리경로당,경상북도 문경시,054-550-6322,경상북도 문경시 영순면 달지리 718-3대,36.57141316,128.2761467
20163,박달3리마을회관,경상북도 경주시,054-779-6347,경상북도 경주시 내남면 박달리 1006-2대,35.72006148,129.1065656
20148,용암1리마을회관,경상북도 영주시,639-7712,경상북도 영주시 부석면 용암리 372 대,36.9672784,128.6806277
20147,배점보건진료소,경상북도 영주시,639-7641,경상북도 영주시 순흥면 배점리 222-3 대,36.93064595,128.5545233
20087,일월초등학교,경상북도 영양군,054-680-6622,경상북도 영양군 일월면 도계리 719-2 학,36.70171676,129.1278495
20086,일월다목적복지회관,경상북도 영양군,054-680-6622,경상북도 영양군 일월면 도계리 702-1 대,36.70204478,129.1261583
20034,상원3리마을회관,경상북도 영양군,054-680-6622,경상북도 영양군 영양읍 상원리 808-4 대,36.6872439,129.1387968
20022,영양군민회관,경상북도 영양군,054-680-6622,경상북도 영양군 영양읍 서부리 141-1 대,36.66011142,129.1174131
20019,동부1리마을회관,경상북도 영양군,054-680-6622,경상북도 영양군 영양읍 동부리 508-4대,36.6672091,129.1153271
20017,영양종합복지회관,경상북도 영양군,054-680-6622,경상북도 영양군 영양읍 동부리  174-21 대,36.66193,129.11868
20756,사계1리마을회관,경상북도 울진군,054-789-6843,경상북도 울진군 북면 사계리 96 대,37.04412219,129.3522902
20201,거산리 경로당,경상북도 문경시,054-550-6322,경상북도 문경시 산북면 거산리 268-14 대,36.72369599,128.2427622
20150,지동2리마을회관,경상북도 영주시,639-7454,경상북도 영주시 이산면 지동리 957-1 대,36.85240459,128.7077959
20149,구구1리마을회관,경상북도 영주시,639-7672,경상북도 영주시 단산면 구구리 577-8 대,36.91226558,128.6106933
20089,가천리경로당,경상북도 영양군,054-680-6622,경상북도 영양군 일월면 가천리 406-2대,36.71339926,129.1598757
20088,가두들경로당,경상북도 영양군,054-680-6622,경상북도 영양군 일월면 가천리 53-14 대,36.70803247,129.1821506
20037,무창보건진료소,경상북도 영양군,054-680-6622,경상북도 영양군 영양읍 무창리 584 대,36.6315222,129.2006533
20027,서부LH아파트경로당,경상북도 영양군,054-680-6622,경상북도 영양군 영양읍 서부리 497 대,36.66273962,129.11206
20025,서부3리마을회관,경상북도 영양군,054-680-6622,경상북도 영양군 영양읍 서부리 386-8대,36.66575923,129.1104289
20024,서부4리마을회관,경상북도 영양군,054-680-6622,경상북도 영양군 영양읍 서부리 336-2 대,36.6654822,129.1131592
20121,홍계리 마을회관,경상북도 영양군,054-680-6622,경상북도 영양군 석보면 홍계리 174-5 대,36.58881916,129.1714106
20115,화매2리마을회관,경상북도 영양군,054-680-6622,경상북도 영양군 석보면 화매리 547-5대,36.5155596,129.1798675
20110,주남리주사골경로당,경상북도 영양군,054-680-6622,경상북도 영양군 석보면 주남리 275-5 대,36.57407803,129.158676
20108,옥계2리마을회관,경상북도 영양군,054-680-6622,경상북도 영양군 석보면 옥계리 235대,36.58398408,129.1389497
20106,원리2리마을회관,경상북도 영양군,054-680-6622,경상북도 영양군 석보면 원리리 351-1 대,36.55876468,129.1256331
20104,원리1리마을회관,경상북도 영양군,054-680-6622,경상북도 영양군 석보면 원리리 291-10 대,36.55824029,129.1246078
20102,원리3리마을회관,경상북도 영양군,054-680-6622,경상북도 영양군 석보면 원리리 72-5 대,36.5510012,129.1393235
20097,오기1리마을회관,경상북도 영양군,054-680-6622,경상북도 영양군 수비면 오기리 165-9 대,36.75362285,129.2065175
20091,생태공원사업소,경상북도 영양군,054-680-6622,경상북도 영양군 수비면 수하리 241-1잡,36.83775001,129.2693977
20026,영양할머니경로당,경상북도 영양군,054-680-6622,경상북도 영양군 영양읍 서부리 469-5 대,36.66395525,129.1121705
20757,나곡4리마을회관,경상북도 울진군,054-789-6843,경상북도 울진군 북면 나곡리 936-1 대,37.13092141,129.3598169
20093,수비고등학교,경상북도 영양군,054-680-6622,경상북도 영양군 수비면 발리리 500학,36.76571473,129.2040152
20092,발리2리마을회관,경상북도 영양군,054-680-6622,경상북도 영양군 수비면 발리리 469-6 대,36.76538125,129.2050709
20036,무창1리마을회관,경상북도 영양군,054-680-6622,경상북도 영양군 영양읍 무창리 581-1 대,36.63193213,129.2005529
20032,현2리경로당,경상북도 영양군,054-680-6622,경상북도 영양군 영양읍 현리 653-11 대,36.64815152,129.1067642
20031,삼지2리마을회관,경상북도 영양군,054-680-6622,경상북도 영양군 영양읍 삼지리 49-15 대,36.67374333,129.1328608
20030,감천리경로당,경상북도 영양군,054-680-6622,경상북도 영양군 영양읍 감천리 826-11 대,36.63314117,129.0887953
20029,서부2리마을회관,경상북도 영양군,054-680-6622,경상북도 영양군 영양읍 서부리 534-4 대,36.6615264,129.1116777
20028,서부2리경로당,경상북도 영양군,054-680-6622,경상북도 영양군 영양읍 서부리 534-1 대,36.66172943,129.1118687
17097,상흥부동회관,경상북도 울진군,054-789-6843,경상북도 울진군 북면 부구리  863-6대,37.09779,129.3544
20100,송하보건진료소,경상북도 영양군,054-680-6622,경상북도 영양군 수비면 송하리 369-11 대,36.70100553,129.1938787
20098,우천경로당,경상북도 영양군,054-680-6622,경상북도 영양군 수비면 오기리 967-2 대,36.74156964,129.185038
20096,수비면분회경로당,경상북도 영양군,054-680-6622,경상북도 영양군 수비면 발리리 541-1대,36.76543141,129.1996315
20095,수비면종합복지회관,경상북도 영양군,054-680-6622,경상북도 영양군 수비면 발리리 517-1 답,36.76600577,129.1998698
20094,수비면사무소,경상북도 영양군,054-680-6622,경상북도 영양군 수비면 발리리  503-1 대,36.765136,129.20253
20041,입암초등학교,경상북도 영양군,054-680-6622,경상북도 영양군 입암면 신구리 272학,36.59973632,129.0875828
20040,기산리마을회관,경상북도 영양군,054-680-6622,경상북도 영양군 영양읍 기산리 16-3 대,36.67698879,129.2586721
20039,영양군립전문요양원,경상북도 영양군,054-680-6622,경상북도 영양군 영양읍 화천리  763 대,36.63972147,129.1742178
20038,화천2리마을회관,경상북도 영양군,054-680-6622,경상북도 영양군 영양읍 화천리 622-1대,36.6365867,129.1771732
20033,상원1리마을회관,경상북도 영양군,054-680-6622,경상북도 영양군 영양읍 상원리 405-5 대,36.67811067,129.1475807
20113,포산리마을회관,경상북도 영양군,054-680-6622,경상북도 영양군 석보면 포산리 280대,36.50501532,129.2101555
20109,주남리남곡경로당,경상북도 영양군,054-680-6622,경상북도 영양군 석보면 주남리 152-1 대,36.56657015,129.165061
20107,석보면종합복지회관,경상북도 영양군,054-680-6622,경상북도 영양군 석보면 원리리 478 대,36.55845686,129.1222326
20105,석보면사무소,경상북도 영양군,054-680-6622,경상북도 영양군 석보면 원리리 292대,36.55802636,129.1246871
20103,석보중학교,경상북도 영양군,054-680-6622,경상북도 영양군 석보면 원리리 142-1학,36.55268137,129.1355016
20101,가구경로당,경상북도 영양군,054-680-6622,경상북도 영양군 석보면 원리리 19-12 대,36.55151861,129.14204
20099,계수경로당,경상북도 영양군,054-680-6622,경상북도 영양군 수비면 계리 658 대,36.77421329,129.1724239
20045,입암면분회경로당,경상북도 영양군,054-680-6622,경상북도 영양군 입암면 신구리 533-2답,36.59275152,129.0892848
20043,입암면종합복지회관,경상북도 영양군,054-680-6622,경상북도 영양군 입암면 신구리 480-3 창,36.59423592,129.0903697
20042,신구1리 할머니경로당,경상북도 영양군,054-680-6622,경상북도 영양군 입암면 신구리 451 대,36.59538571,129.0893763
20122,지경리단계경로당,경상북도 영양군,054-680-6622,경상북도 영양군 석보면 지경리 566 대,36.55516623,129.0994866
20120,답곡1리마을회관,경상북도 영양군,054-680-6622,경상북도 영양군 석보면 답곡리  600대,36.544309,129.13976
20119,답곡2리마을회관,경상북도 영양군,054-680-6622,경상북도 영양군 석보면 답곡리 525대,36.52782492,129.1368497
20117,화매1리마을회관,경상북도 영양군,054-680-6622,경상북도 영양군 석보면 화매리 597대,36.51893483,129.1794054
20114,소계리마을회관,경상북도 영양군,054-680-6622,경상북도 영양군 석보면 소계리 350-2 대,36.60096952,129.1499777
20112,택전2리마을회관,경상북도 영양군,054-680-6622,경상북도 영양군 석보면 택전리 817-4대,36.52791073,129.1741009
20111,요원1리마을회관,경상북도 영양군,054-680-6622,경상북도 영양군 석보면 요원리 358-7대,36.56714836,129.1779928
20050,대천보건진료소,경상북도 영양군,054-680-6622,경상북도 영양군 입암면 대천리 194-3 전,36.62196154,129.0420382
20047,교리마을회관,경상북도 영양군,054-680-6622,경상북도 영양군 입암면 교리 329-1대,36.5750146,129.061535
20044,입암면사무소,경상북도 영양군,054-680-6622,경상북도 영양군 입암면 신구리  481-1 대,36.593319,129.09038
20116,화매2리할머니경로당,경상북도 영양군,054-680-6622,경상북도 영양군 석보면 화매리 559-10대,36.51449185,129.1826921
20056,방전리마을회관,경상북도 영양군,054-680-6622,경상북도 영양군 입암면 방전리 511-4 대,36.55631312,129.0825172
20055,노달리마을회관,경상북도 영양군,054-680-6622,경상북도 영양군 입암면 노달리 300-4대,36.57441552,129.0901543
20054,산해3리마을회관,경상북도 영양군,054-680-6622,경상북도 영양군 입암면 산해리 680-2대,36.60240942,129.0599661
20053,문해경로당,경상북도 영양군,054-680-6622,경상북도 영양군 입암면 산해리 520-1 대,36.59242753,129.06729
20052,산해1리마을회관,경상북도 영양군,054-680-6622,경상북도 영양군 입암면 산해리 60 대,36.59052946,129.0878669
20051,영양초등학교,경상북도 영양군,054-680-6622,경상북도 영양군 입암면 산해리 48 학,36.59085667,129.0868926
20049,신사1리마을회관,경상북도 영양군,054-680-6622,경상북도 영양군 입암면 신사리 45대,36.59655429,129.0818478
20048,고구령경로당,경상북도 영양군,054-680-6622,경상북도 영양군 입암면 삼산리 21-13 대,36.58581782,129.0860681
15727,쌍림면노인회관,경상북도 고령군,054-950-7404,경상북도 고령군 쌍림면 귀원리  269-5대,35.679557,128.24341
20140,선바위경로당,경상북도 영양군,054-680-6622,경상북도 영양군 입암면 연당리 174-2 대,36.60697157,129.0749991
20073,상청1리마을회관,경상북도 영양군,054-680-6622,경상북도 영양군 청기면 상청리 309-3대,36.63694426,129.0668994
20069,당리경로당,경상북도 영양군,054-680-6622,경상북도 영양군 청기면 당리 649-15 대,36.75570878,129.0525562
20063,청기할머니경로당,경상북도 영양군,054-680-6622,경상북도 영양군 청기면 청기리 796-1 대,36.66096695,129.0622343
20062,청기면분회경로당,경상북도 영양군,054-680-6622,경상북도 영양군 청기면 청기리 792-1대,36.66154672,129.062628
20061,청기면사무소,경상북도 영양군,054-680-6622,경상북도 영양군 청기면 청기리  791-1 대,36.661255,129.06245
20060,청기1리마을회관,경상북도 영양군,054-680-6622,경상북도 영양군 청기면 청기리 715-3 대,36.66471582,129.0669998
20059,나방경로당,경상북도 영양군,054-680-6622,경상북도 영양군 청기면 정족리 609-3 대,36.69093883,129.0821887
20058,흥구리마을회관,경상북도 영양군,054-680-6622,경상북도 영양군 입암면 흥구리 234 대,36.54851359,129.071052
20057,흥구리마을회관,경상북도 영양군,054-680-6622,경상북도 영양군 입암면 흥구리 41-9대,36.54885624,129.0786669
20281,음양2리새마을회관,경상북도 경산시,053-804-7491,경상북도 경산시 와촌면 음양리 7-5대,35.96066821,128.7681763
20225,안곡1리노인회관,경상북도 구미시,054-480-7267,경상북도 구미시 무을면 안곡리  553 대,36.271711,128.14512
20074,골기포경로당,경상북도 영양군,054-680-6622,경상북도 영양군 청기면 기포리 124-2 대,36.73526991,129.0491158
20072,상청경로당(할아버지),경상북도 영양군,054-680-6622,경상북도 영양군 청기면 상청리 281대,36.63672985,129.0662492
20070,당리할머니경로당,경상북도 영양군,054-680-6622,경상북도 영양군 청기면 당리 650-1대,36.75507416,129.0527003
20068,행전경로당,경상북도 영양군,054-680-6622,경상북도 영양군 청기면 행화리 418-6 대,36.75733008,128.9959529
20067,행화리마을회관,경상북도 영양군,054-680-6622,경상북도 영양군 청기면 행화리 194-5 대,36.76785011,129.031163
20066,무진리마을회관,경상북도 영양군,054-680-6622,경상북도 영양군 청기면 무진리 146 대,36.75060662,129.0296305
20065,저리마을회관,경상북도 영양군,054-680-6622,경상북도 영양군 청기면 저리 283-3 대,36.62833467,129.0631699
20064,구매1리마을회관,경상북도 영양군,054-680-6622,경상북도 영양군 청기면 구매리 73-1대,36.65296533,129.034863
20575,용흥초등학교,남부지방산림청 영주국유림관리소,054-630-4062,경상북도 문경시 문경읍 갈평리 564-1 학,36.7878447,128.1585093
20574,미잠경로당,남부지방산림청 영주국유림관리소,054-630-4062,경상북도 봉화군 재산면 갈산리 587-2 답,36.85799006,129.006335
20081,도계2리마을회관,경상북도 영양군,054-680-6622,경상북도 영양군 일월면 도계리 221-12대,36.72509623,129.1281823
20080,용화2리마을회관,경상북도 영양군,054-680-6622,경상북도 영양군 일월면 용화리 372-14 대,36.81227392,129.1298631
20079,용화보건진료소,경상북도 영양군,054-680-6622,경상북도 영양군 일월면 용화리 225-1 대,36.78902533,129.1503259
20078,오리리마을회관,경상북도 영양군,054-680-6622,경상북도 영양군 일월면 오리리 72 대,36.74314247,129.1349589
20077,문암홈거리경로당,경상북도 영양군,054-680-6622,경상북도 영양군 일월면 문암리  439대,36.771307,129.14383
20076,곡강리마을회관,경상북도 영양군,054-680-6622,경상북도 영양군 일월면 곡강리 125-4 대,36.68773092,129.1227793
20075,포두경로당,경상북도 영양군,054-680-6622,경상북도 영양군 청기면 기포리 434대,36.72961325,129.0319513
20071,관동경로당,경상북도 영양군,054-680-6622,경상북도 영양군 청기면 당리 917-3 대,36.76046191,129.0414731
20835,평지리마을회관,경상북도 고령군,054-950-7404,경상북도 고령군 쌍림면 평지리 857,35.66398673,128.2764329
20597,전흥2리마을회관,남부지방산림청 영주국유림관리소,054-630-4062,경상북도 의성군 옥산면 전흥리 190-5대,36.36978711,128.8390913
20593,대촌1리경로당,남부지방산림청 영주국유림관리소,054-630-4062,경상북도 영주시 봉현면 대촌리 283대,36.84599926,128.5210827
20592,서벽4리경로당,남부지방산림청 영주국유림관리소,054-630-4062,경상북도 봉화군 춘양면 서벽리 1520-23임,37.00231472,128.8431167
20591,누운돌경로당,남부지방산림청 영주국유림관리소,054-630-4062,경상북도 봉화군 물야면 개단리 564대,36.95322291,128.7713011
20590,다슬기체험마을,남부지방산림청 영주국유림관리소,054-630-4062,경상북도 봉화군 재산면 갈산리 1844-4답,36.83666342,128.9723461
18800,성재리경로당,경상북도 청송군,054-870-6312,경상북도 청송군 안덕면 성재리  519-1대,36.25271375,128.9604907
4209,자암경로당,경상북도 청송군,870-6312,경상북도 청송군 안덕면 지소리  272-5 대,36.34804124,128.9930401
4060,내룡설티경로당,경상북도 청송군,870-6312,경상북도 청송군 주왕산면 내룡리  390 대,36.33236052,129.208048
4206,지소리마을회관,경상북도 청송군,870-6312,경상북도 청송군 안덕면 지소리  383-1대,36.35358638,128.9947394
20609,궁기1리마을회관,남부지방산림청 영주국유림관리소,054-630-4062,경상북도 문경시 농암면 궁기리 276 답,36.61636323,127.9564908
20607,내서1리마을회관,남부지방산림청 영주국유림관리소,054-630-4062,경상북도 문경시 농암면 내서리 200-3대,36.57157459,127.9825871
20604,묵계1리마을회관,남부지방산림청 영주국유림관리소,054-630-4062,경상북도 안동시 길안면 묵계리 721-20 임,36.41643842,128.9137673
20603,금곡리마을회관,남부지방산림청 영주국유림관리소,054-630-4062,경상북도 안동시 길안면 금곡리 375-3 대,36.38581048,128.8920013
20602,만음1리마을회관,남부지방산림청 영주국유림관리소,054-630-4062,경상북도 안동시 길안면 만음리 844-3전,36.43424042,128.8949614
20601,죽문1리마을회관,남부지방산림청 영주국유림관리소,054-630-4062,경상북도 문경시 가은읍 죽문리 75-6 대,36.66396736,128.003225
20600,완장1리회관,남부지방산림청 영주국유림관리소,054-630-4062,경상북도 문경시 가은읍 완장리 127-3 답,36.67507398,127.989377
20599,두전4리가천경로당,남부지방산림청 영주국유림관리소,054-630-4062,경상북도 영주시 장수면 두전리 산49임,36.80181607,128.5871334
20598,승부리마을회관,남부지방산림청 영주국유림관리소,054-630-4062,경상북도 봉화군 석포면 승부리 92전,37.00053628,129.0770529
18117,고선2리경로당,경상북도 봉화군,054-679-5523,경상북도 봉화군 소천면 고선리  238-3 대,36.956725,128.99368
20861,수식1리마을회관,경상북도 봉화군,054-679-5123,경상북도 봉화군 물야면 수식리 364-3대,36.93979746,128.6787139
9940,영안중학교(북안면 임포리 311),경상북도 영천시,054-339-7935,경상북도 영천시 북안면 임포리  311 학,35.917985,129.00765
9944,용호리경로당(대창면 용호리 536),경상북도 영천시,054-339-7987,경상북도 영천시 대창면 용호리  536대,35.848977,128.93802
9937,원곡노인회관(북안면 명주리 375),경상북도 영천시,054-339-7935,경상북도 영천시 북안면 명주리  375대,35.873728,128.99691
9902,구전리마을회관(화남면 구전리 121-3),경상북도 영천시,054-339-7531,경상북도 영천시 화남면 구전리  121-3 대,36.10238,128.8654
9950,선천1리경로당(화남면 선천리 703),경상북도 영천시,054-339-7531,경상북도 영천시 화남면 선천리  703 대,36.059573,128.89558
9925,사1리노인정(임고면 사리 968-9),경상북도 영천시,010-4670-1397,경상북도 영천시 임고면 사리  968-9대,36.046147,129.05384
16802,수성경로당(임고면 수성리 916-5),경상북도 영천시,054-4670-1397,경상북도 영천시 임고면 수성리  916-5대,36.057057,129.11174
9882,화서리경로당(신녕면 화서리 731-4),경상북도 영천시,054-339-7231,경상북도 영천시 신녕면 화서리  731-4대,36.090823,128.72999
16773,당1리경로당(북안면 당리 210-2),경상북도 영천시,054-339-7935,경상북도 영천시 북안면 당리  210-1답,35.860695,128.99635
20605,안동청소년수련원,남부지방산림청 영주국유림관리소,054-630-4062,경상북도 안동시 남후면 하아리 379-54과,36.55747422,128.5585123
9873,청통중학교(청통면 원촌리220),경상북도 영천시,054-339-7133,경상북도 영천시 청통면 원촌리  220학,35.990931,128.82545
18784,착골경로당(임고면 사리 683),경상북도 영천시,010-4670-1397,경상북도 영천시 임고면 사리  683대,36.034407,129.06997
18783,평천1리회관(임고면 평천리 611),경상북도 영천시,010-4670-1397,경상북도 영천시 임고면 평천리  611대,36.039907,128.98232
16781,치일1리새마을회관(청통면 치일리 590-2),경상북도 영천시,054-339-7133,경상북도 영천시 청통면 치일리  590-2 잡,35.990941,128.79851
9933,운산동마을회관(고경면 도암리 502-3),경상북도 영천시,054-339-7836,경상북도 영천시 고경면 도암리  502-3답,35.993916,129.00633
9935,창상리마을회관(고경면 창상리 225-1),경상북도 영천시,054-339-7836,경상북도 영천시 고경면 창상리  225-1답,35.99464,128.98564
9951,사2리회관(임고면 사리 415),경상북도 영천시,010-4670-1397,경상북도 영천시 임고면 사리  415전,36.04568,129.0813
16775,매양1리노인정(신녕면 매양리 286-2),경상북도 영천시,054-339-7231,경상북도 영천시 신녕면 매양리  286-2 대,36.041826,128.78154
12733,오룡1리경로당(고경면 오룡리 1229-2),경상북도 영천시,054-339-7836,경상북도 영천시 고경면 오룡리  1229-2대,36.02313,129.12472
20608,선곡2리마을회관,남부지방산림청 영주국유림관리소,054-630-4062,경상북도 문경시 농암면 선곡리 118-4대,36.54700315,128.0471086
18789,개포리경로당(청통면 계포리 13),경상북도 영천시,054-339-7133,경상북도 영천시 청통면 계포리  13대,36.006201,128.81219
18782,운천2리복지회관(대창면 운천리 861-1),경상북도 영천시,054-339-7987,경상북도 영천시 대창면 운천리  861-1 대,35.86324,128.94737
9946,구지리 마을회관(대창면 구지리 561-5),경상북도 영천시,054-339-7987,경상북도 영천시 대창면 구지리  561-5 전,35.854988,128.8905
10064,상리회관(북안면 상리 350-1),경상북도 영천시,054-339-7935,경상북도 영천시 북안면 상리  350-1 대,35.851247,128.99181
9936,유상2리노인회관(북안면 유상리 142),경상북도 영천시,054-339-7935,경상북도 영천시 북안면 유상리  142전,35.908237,128.97744
9872,신덕2리경로회관(청통면 신덕리 729-2),경상북도 영천시,054-339-7133,경상북도 영천시 청통면 신덕리  729-2 대,35.972543,128.85488
9932,삼포리새마을회관(고경면 삼포리 740-4),경상북도 영천시,054-339-7836,경상북도 영천시 고경면 삼포리  740-4 대,36.014798,129.1038
9934,파계리마을회관(고경면 파계리 239),경상북도 영천시,054-339-7836,경상북도 영천시 고경면 파계리  239대,35.961113,129.11074
10369,북리노인회관(북안면 북리 324),경상북도 영천시,054-339-7935,경상북도 영천시 북안면 북리  324대,35.862562,128.98606
20616,눌산리새터경로당,남부지방산림청 영주국유림관리소,054-630-4062,경상북도 봉화군 법전면 눌산리 1396-2전,36.89498526,128.9478173
20615,당포2리마을회관,남부지방산림청 영주국유림관리소,054-630-4062,경상북도 문경시 문경읍 당포리 632-2대,36.75132295,128.1547563
20614,외어2리마을회관,남부지방산림청 영주국유림관리소,054-630-4062,경상북도 문경시 마성면 외어리 268 목,36.69912831,128.1430772
20613,명전보건진료소,남부지방산림청 영주국유림관리소,054-630-4062,경상북도 문경시 동로면 명전리 9-1답,36.85480776,128.2817791
20612,노은2리마을회관,남부지방산림청 영주국유림관리소,054-630-4062,경상북도 문경시 동로면 노은리 168-1전,36.76927926,128.3141154
20611,옥대4리마을회관,남부지방산림청 영주국유림관리소,054-630-4062,경상북도 영주시 단산면 옥대리 1093 도,36.96592047,128.6157742
20610,동원1리구미마을회관,남부지방산림청 영주국유림관리소,054-630-4062,경상북도 영주시 단산면 동원리 산 99 임,36.88187958,128.6136665
4658,두음경로당,경상북도 봉화군,054-679-5523,경상북도 봉화군 소천면 두음리  765대,36.903745,129.01254
18114,현동1리경로당,경상북도 봉화군,054-679-5523,경상북도 봉화군 소천면 현동리  639-9 대,36.93893565,129.0010994
4661,분천2리경로당,경상북도 봉화군,054-679-5523,경상북도 봉화군 소천면 분천리  935-61 대,36.931108,129.05657
20869,정천2리마을회관,경상북도 포항시,054-270-6355,경상북도 포항시 남구 장기면 정천리 159-7 대,35.95165956,129.4641721
20868,양포리어촌계,경상북도 포항시,054-270-6355,경상북도 포항시 남구 장기면 양포리  9-38 잡,35.882133,129.52049
18788,소일경로당(화북면 죽전리 1039),경상북도 영천시,054-339-7435,경상북도 영천시 화북면 죽전리  1039대,36.15021,128.89786
16809,가천리마을회관(신녕면 가천리183-1),경상북도 영천시,054-339-7231,경상북도 영천시 신녕면 가천리  183-1 대,36.054372,128.79143
9897,상송리마을회관(화북면 상송리 108),경상북도 영천시,054-339-7435,경상북도 영천시 화북면 상송리  108대,36.152402,128.91721
16780,화북면행정복지센터(화북면 자천리 1470),경상북도 영천시,054-339-7435,경상북도 영천시 화북면 자천리  1470대,36.108283,128.91939
9890,연지마을회관(화북면 죽전리 142),경상북도 영천시,054-339-7435,경상북도 영천시 화북면 죽전리  142대,36.150237,128.91695
9891,옥계리마을회관(화북면 옥계리 352),경상북도 영천시,054-339-7435,경상북도 영천시 화북면 옥계리  352 대,36.118532,128.93532
10372,삼호1리회관(금호읍 원기리 682),경상북도 영천시,010-5631-4416,경상북도 영천시 금호읍 원기리  682 대,35.909017,128.87929
4661,분천2리경로당,경상북도 봉화군,054-679-5523,경상북도 봉화군 소천면 분천리  935-61 대,36.931108,129.05657
21011,왕피2리경로당,경상북도 울진군,054-789-6843,경상북도 울진군 금강송면 왕피리 382-11 대,36.89318755,129.2875475
20993,대두서리마을회관,경상북도 안동시,054-840-4153,경상북도 안동시 서후면 대두서리 398-1대,36.61897393,128.6187814
20992,원림1리마을회관,경상북도 안동시,054-840-4361,경상북도 안동시 남선면 원림리 655-1대,36.52150567,128.7008243
20991,현내2리경로당,경상북도 안동시,054-840-4364,경상북도 안동시 남선면 현내리 353 대,36.5188435,128.7378308
20986,현내리마을회관,경상북도 포항시,054-240-7353,경상북도 포항시 북구 죽장면 현내리 247-1대,36.18307332,129.0819522
20960,두마리마을회관,경상북도 포항시,054-240-7353,경상북도 포항시 북구 죽장면 두마리 885대,36.16819233,129.0255676
20959,칠포1리마을회관,경상북도 포항시,054-240-7353,경상북도 포항시 북구 흥해읍 칠포리 143-1대,36.14387701,129.3954463
12726,당지2리경로당(화산면 당지리 517-2),경상북도 영천시,054-339-7331,경상북도 영천시 화산면 당지리  517-2 대,36.072893,128.8369
9884,연정1리새마을회관(신녕면 연정리 345),경상북도 영천시,054-339-7231,경상북도 영천시 신녕면 연정리  345대,36.051775,128.8142
15768,내고1리마을회관,경상북도 구미시,054-480-5892,경상북도 구미시 선산읍 내고리  820-14대,36.22816875,128.2642885
11427,대심2리마을회관,경상북도 예천군,054-650-6579,경상북도 예천군 예천읍 대심리  793-1대,36.645357,128.42959
11425,갈구1리마을회관,경상북도 예천군,054-650-6579,경상북도 예천군 예천읍 갈구리  40 과,36.692817,128.48894
18283,고상보건진료소,경상북도 안동시,054-840-4335,경상북도 안동시 남후면 고상리 70-1 대,36.51574974,128.6179206
18282,수상경로당,경상북도 안동시,054-840-4985,경상북도 안동시 수상동 643-1대,36.54151308,128.6970293
18281,수상1동경로당,경상북도 안동시,054-840-4985,경상북도 안동시 수상동 102-2대,36.54116502,128.7118528
152,봉강2리경로당,경상북도 상주시,054-537-8419,경상북도 상주시 외서면 봉강리  1036대,36.459708,128.13041
15772,대원1리마을회관,경상북도 구미시,054-480-5892,경상북도 구미시 옥성면 대원리  658대,36.28322741,128.233659
15771,농소1리마을회관,경상북도 구미시,054-480-5892,경상북도 구미시 옥성면 농소리  642-1 대,36.29932391,128.2839491
15770,낙산리노인회관,경상북도 구미시,054-480-7365,경상북도 구미시 해평면 낙산리  303-6 대,36.25351189,128.3505644
15773,도문리마을회관,경상북도 구미시,054-480-7365,경상북도 구미시 해평면 도문리 146대,36.21814713,128.4184096
11431,대제마을회관,경상북도 예천군,054-650-6579,경상북도 예천군 용문면 대제리  212-3대,36.706317,128.4484
11422,관현1리마을회관,경상북도 예천군,054-650-6579,경상북도 예천군 감천면 관현리  227-4 대,36.720079,128.49444
18284,안동청소년수련원,경상북도 안동시,054-840-4335,경상북도 안동시 남후면 하아리 379-56임,36.55702608,128.558641
15780,신장2리회관,경상북도 구미시,054-480-5892,경상북도 구미시 장천면 신장리  803-1대,36.12037801,128.4810459
15779,구봉노인회관,경상북도 구미시,054-480-7233,경상북도 구미시 옥성면 구봉리  142-10대,36.34717059,128.2774018
15781,평은면 행정복지센터,경상북도 영주시,639-7480,경상북도 영주시 평은면 평은리  1527 대,36.758399,128.68853
15774,금계2리 노인회관,경상북도 영주시,639-7419,경상북도 영주시 풍기읍 금계리  215-3 대,36.891249,128.52712
15785,일선리회관,경상북도 구미시,054-480-7365,경상북도 구미시 해평면 일선리  1-46대,36.2697367,128.350205
15775,여남리마을회관,경상북도 구미시,054-480-7389,경상북도 구미시 장천면 여남리  510대,36.12448693,128.5248839
15778,한천리 경로당,경상북도 영주시,639-7611,경상북도 영주시 봉현면 한천리 282대,36.82861881,128.51191
10893,여천동마을회관,경상북도 경산시,053-804-7592,경상북도 경산시 여천동  353대,35.791134,128.78876
15784,지암노인정,경상북도 구미시,054-480-5892,경상북도 구미시 지산동  879-2도,36.13424867,128.3445939
15783,용정마을회관,경상북도 구미시,010-3531-7994,경상북도 구미시 도개면 동산리  228대,36.32771034,128.3262985
15786,초곡리마을회관,경상북도 구미시,054-480-7389,경상북도 구미시 옥성면 초곡리  660-1 대,36.29614724,128.3023383
15789,오현3리 마을회관,경상북도 영주시,639-7611,경상북도 영주시 봉현면 오현리  582-5대,36.85812,128.51758
15794,오운2리마을회관,경상북도 영주시,639-7480,경상북도 영주시 평은면 오운리  195-9대,36.759465,128.73053
15788,여륵복지회관,경상북도 영주시,639-7571,경상북도 영주시 안정면 여륵리  400-1 대,36.799011,128.53235
15782,원1리송죽경로당,경상북도 구미시,054-480-7041,경상북도 구미시 선산읍 원리  33대,36.22659576,128.3392858
147,백전1리마을회관,경상북도 상주시,054-537-8419,경상북도 상주시 외서면 백전리  476 대,36.4645523,128.1054936
15790,용상2리마을회관,경상북도 영주시,639-7454,경상북도 영주시 이산면 용상리 756 잡,36.79443847,128.6774768
10888,연하리회관,경상북도 경산시,053-804-7592,경상북도 경산시 남산면 연하리  243대,35.764154,128.82901
10890,조곡리마을회관,경상북도 경산시,053-804-7592,경상북도 경산시 남산면 조곡리  673창,35.769275,128.81237
18287,고천2리경로당,경상북도 안동시,054-840-4533,경상북도 안동시 임동면 고천리 124-7 대,36.54824995,128.968635
15796,향교마을경로당,경상북도 영주시,639-7419,경상북도 영주시 풍기읍 교촌리  156-2 대,36.881289,128.52778
15812,내림2리 마을회관,경상북도 영주시,639-7454,경상북도 영주시 이산면 내림리 352대,36.82236146,128.6977716
15810,노좌2리경로당,경상북도 영주시,639-7611,경상북도 영주시 봉현면 노좌리 306-2 대,36.79921309,128.4973433
15809,소천6리새마을회관,경상북도 영주시,639-7712,경상북도 영주시 부석면 소천리 330-4 대,36.98769759,128.6615715
15806,용산1리마을회관,경상북도 영주시,639-7571,경상북도 영주시 안정면 용산리 389-3대,36.81803925,128.5465502
15797,하촌1리동회관,경상북도 영주시,639-7611,경상북도 영주시 봉현면 하촌리 701대,36.7856199,128.4949897
15792,상망동웃무리경로당,경상북도 영주시,639-7808,경상북도 영주시 상망동 567-3 대,36.82599854,128.6376142
10911,마곡리회관,경상북도 경산시,053-804-7450,경상북도 경산시 진량읍 마곡리  242-4대,35.843877,128.84599
9952,오룡2리마을회관(고경면 오룡리 877-1),경상북도 영천시,054-339-7836,경상북도 영천시 고경면 오룡리  877-1대,36.015211,129.13094
15801,진우노인회관,경상북도 영주시,639-7808,경상북도 영주시 조와동  231-4 대,36.86742,128.63635
10328,덕천1리(용배) 마을회관,경상북도 김천시,054-421-2143,경상북도 김천시 봉산면 덕천리  540-9대,36.139445,128.03958
10333,태화3리(평촌) 마을회관,경상북도 김천시,054-421-2143,경상북도 김천시 봉산면 태화리  404-11 잡,36.152131,128.02755
15803,단촌1리 마을회관,경상북도 영주시,639-7571,경상북도 영주시 안정면 단촌리 100-2대,36.87809278,128.5683488
15802,교촌2리 마을회관,경상북도 영주시,639-7419,경상북도 영주시 풍기읍 교촌리 200 대,36.88454775,128.5273337
15800,부석119지역대,경상북도 영주시,639-7712,경상북도 영주시 부석면 소천리 489-4 대,36.9753851,128.6511078
10750,칠성2리경로회관,경상북도 청도군,054-370-2471,경상북도 청도군 각남면 칠성리 942-3대,35.64112795,128.6890468
10748,원정1리새마을회관,경상북도 청도군,054-370-2437,경상북도 청도군 청도읍 원정리 836-2 대,35.6523421,128.7648786
10900,가척리마을회관,경상북도 경산시,053-804-7567,경상북도 경산시 용성면 가척리  287-4대,35.771044,128.90415
10913,현내리회관,경상북도 경산시,053-804-7450,경상북도 경산시 진량읍 현내리  541대,35.850243,128.85739
10902,고죽1리회관,경상북도 경산시,053-804-7567,경상북도 경산시 용성면 고죽리  738-9대,35.808812,128.86468
18076,저동1리 경로당,경상북도 울릉군,054-790-6206,경상북도 울릉군 울릉읍 저동리 69대,37.49992216,130.9067539
15807,단곡1리마을회관,경상북도 영주시,639-7672,경상북도 영주시 단산면 단곡리  400-7 대,36.949631,128.59846
15822,읍내3리마을회관,경상북도 영주시,639-7641,경상북도 영주시 순흥면 읍내리 213 대,36.91736311,128.5790479
15804,한절마 경로당,경상북도 영주시,639-7957,경상북도 영주시 가흥동 325-11 대,36.81384289,128.6118219
10752,구곡리노인회관,경상북도 청도군,054-370-2311,경상북도 청도군 각남면 구곡리  96-2대,35.639163,128.67256
10757,팔조리경로회관,경상북도 청도군,054-370-2540,경상북도 청도군 이서면 팔조리 244 대,35.70838379,128.6825968
10754,우산리경로회관,경상북도 청도군,054-370-2517,경상북도 청도군 각북면 우산리  215대,35.658773,128.6093
18288,주계리남애복지회관,경상북도 안동시,054-840-4064,경상북도 안동시 와룡면 주계리 175-1대,36.63902879,128.8073086
18077,저동2리 경로당,경상북도 울릉군,054-790-6206,경상북도 울릉군 울릉읍 저동리 135-8 대,37.50334382,130.9116094
15814,옥대4리마을회관,경상북도 영주시,639-7672,경상북도 영주시 단산면 옥대리  764-5 대,36.965509,128.61586
15813,여근동마을회관,경상북도 영주시,639-7641,경상북도 영주시 순흥면 청구리  562창,36.946455,128.57922
15845,용혈1리경로당,경상북도 영주시,639-7480,경상북도 영주시 평은면 용혈리 947-4대,36.7195186,128.6493513
15834,운문1리경로당,경상북도 영주시,639-7454,경상북도 영주시 이산면 운문리 377-11대,36.77360777,128.6693844
15825,구구3리마을회관,경상북도 영주시,639-7672,경상북도 영주시 단산면 구구리 326-6 잡,36.90676658,128.6240488
15823,노좌보건진료소,경상북도 영주시,639-7611,경상북도 영주시 봉현면 노좌리 187-11 대,36.79153588,128.5008525
15819,병산1리 마을회관,경상북도 영주시,639-7672,경상북도 영주시 단산면 병산리 332-3 대,36.92506916,128.608971
15816,동원1리구미마을회관,경상북도 영주시,639-7672,경상북도 영주시 단산면 동원리 385-6 대,36.88136467,128.6137523
16859,연호2리마을회관,경상북도 칠곡군,054-979-6510,경상북도 칠곡군 지천면 연호리  863-186 대,35.931486,128.50588
10956,협석리마을회관,경상북도 경산시,053-804-7670,경상북도 경산시 남천면 협석리  493대,35.788782,128.73211
10969,흥산1리새마을회관,경상북도 경산시,053-804-7670,경상북도 경산시 남천면 흥산리  237-5대,35.751945,128.73085
18073,도동1리 경로당,경상북도 울릉군,054-790-6206,경상북도 울릉군 울릉읍 도동리 211-3대,37.48792919,130.9030216
70,구서1리마을회관,경상북도 상주시,054-537-8207,경상북도 상주시 외남면 구서리  769대,36.335182,128.07875
10335,상금1리(중리)마을회관,경상북도 김천시,054-421-2143,경상북도 김천시 봉산면 상금리  655-3대,36.158221,128.03401
68,은척면행정복지센터 북부출장소,경상북도 상주시,054-537-8447,경상북도 상주시 은척면 무릉리  138-2대,36.577314,128.08779
15828,상석1리마을회관,경상북도 영주시,639-7712,경상북도 영주시 부석면 상석리 421-13 대,36.9408117,128.6496119
10753,월봉2리경로회관,경상북도 청도군,054-370-2496,경상북도 청도군 풍각면 월봉리 684-1대,35.60148262,128.5809826
10751,일곡경로당,경상북도 청도군,054-370-2471,경상북도 청도군 각남면 일곡리 197대,35.63853714,128.6798387
16860,영오1리경로당,경상북도 칠곡군,054-979-6510,경상북도 칠곡군 지천면 영오리  333-5 대,35.930068,128.4859
10956,협석리마을회관,경상북도 경산시,053-804-7670,경상북도 경산시 남천면 협석리  493대,35.788782,128.73211
10961,삼성1리마을회관,경상북도 경산시,053-804-7670,경상북도 경산시 남천면 삼성리  127-1대,35.766321,128.72518
10962,삼성2리마을회관,경상북도 경산시,053-804-7670,경상북도 경산시 남천면 삼성리  519-21대,35.762011,128.72445
10965,송백2리마을회관,경상북도 경산시,053-804-7670,경상북도 경산시 남천면 송백리  510대,35.755544,128.76724
10966,신방리마을회관,경상북도 경산시,053-804-7670,경상북도 경산시 남천면 신방리  448대,35.757598,128.77664
10969,흥산1리새마을회관,경상북도 경산시,053-804-7670,경상북도 경산시 남천면 흥산리  237-5대,35.751945,128.73085
18289,안기동복지회관,경상북도 안동시,054-840-4890,경상북도 안동시 안기동 151-4 대,36.5724562,128.7184703
15829,용혈2리 마을회관,경상북도 영주시,639-7480,경상북도 영주시 평은면 용혈리  589-1대,36.737966,128.6531
77,상촌2리마을회관,경상북도 상주시,054-537-8124,경상북도 상주시 낙동면 상촌리  411-1대,36.37851258,128.2585267
16864,평복1리경로당,경상북도 칠곡군,054-979-6510,경상북도 칠곡군 기산면 평복리  357 대,35.986857,128.36788
10960,산전리마을회관,경상북도 경산시,053-804-7670,경상북도 경산시 남천면 산전리  155대,35.78551,128.71471
18075,도동3리 경로당,경상북도 울릉군,054-790-6206,경상북도 울릉군 울릉읍 도동리 342-10 대,37.49678977,130.9073339
15829,용혈2리 마을회관,경상북도 영주시,639-7480,경상북도 영주시 평은면 용혈리  589-1대,36.737966,128.6531
80,남장마을회관,경상북도 상주시,054-537-8571,경상북도 상주시 남장동  418-2답,36.418158,128.11404
15846,안심1리마을회관,경상북도 영주시,639-7571,경상북도 영주시 안정면 안심리 78 대,36.85143503,128.5642055
15841,옹암리 노인회관,경상북도 영주시,639-7571,경상북도 영주시 안정면 옹암리 164-7 대,36.86497368,128.5553022
15839,읍내1리새마을회관,경상북도 영주시,639-7641,경상북도 영주시 순흥면 읍내리 336-6 대,36.91360085,128.5759991
15832,보계1리 회관,경상북도 영주시,639-7712,경상북도 영주시 부석면 보계리 179-3 대,36.93745913,128.636693
15830,동원1리 오상 마을회관,경상북도 영주시,639-7672,경상북도 영주시 단산면 동원리 161 대,36.89271006,128.6276665
18292,직곡경로당,경상북도 안동시,054-840-4132,경상북도 안동시 북후면 월전리 794-1 대,36.71652887,128.6420471
18291,저전노인회경로당,경상북도 안동시,054-840-4187,경상북도 안동시 서후면 저전리 548-10 대,36.63970541,128.6960094
18290,태장1리노인회관,경상북도 안동시,054-840-4187,경상북도 안동시 서후면 태장리 304-2 대,36.63163001,128.6811447
18080,사동2리 마을회관,경상북도 울릉군,054-790-6092,경상북도 울릉군 울릉읍 사동리 292-9대,37.47787237,130.8880281
18079,사동1리 경로당,경상북도 울릉군,054-790-6206,경상북도 울릉군 울릉읍 사동리 190-9대,37.47945388,130.8924483
18078,저동2리 마을회관,경상북도 울릉군,054-790-6092,경상북도 울릉군 울릉읍 저동리 135-1대,37.50329807,130.9114706
83,남적2동마을회관,경상북도 상주시,054-537-8602,경상북도 상주시 남적동  18-10 대,36.466313,128.16492
82,남적1동마을회관,경상북도 상주시,054-537-8602,경상북도 상주시 남적동  380-2대,36.465225,128.15032
15848,윤곡보건진료소,경상북도 영주시,054-639-7480,경상북도 영주시 평은면 지곡리 534-1전,36.70209275,128.7118473
15840,강동1리경로당,경상북도 영주시,639-7480,경상북도 영주시 평은면 강동리 775-4 대,36.70243618,128.6845172
18295,이천2리마을회관,경상북도 안동시,054-840-4384,경상북도 안동시 남선면 이천리 101-4 대,36.52742284,128.8059832
18294,신평마을회관,경상북도 안동시,054-840-4384,경상북도 안동시 남선면 신석리 603 전,36.5257386,128.7847947
18081,사동3리 경로당,경상북도 울릉군,054-790-6206,경상북도 울릉군 울릉읍 사동리 668잡,37.46896377,130.8759045
15851,지동1리노인회관,경상북도 영주시,054-639-7454,경상북도 영주시 이산면 지동리  404-3 대,36.837006,128.71898
153,봉상2리마을회관,경상북도 상주시,054-537-8447,경상북도 상주시 은척면 봉상리  555대,36.52822155,128.0625948
165,상곡1리마을회관,경상북도 상주시,054-537-8361,경상북도 상주시 화서면 상곡리  422 대,36.45432755,127.9708655
168,상주생활문화센터,경상북도 상주시,054-537-8571,경상북도 상주시 남장동  229-1학,36.412464,128.11775
15866,자만동 마을회관,경상북도 영주시,054-639-7512,경상북도 영주시 문수면 만방리 1367 대,36.76541967,128.6436139
15864,승문1리 마을회관,경상북도 영주시,054-639-7512,경상북도 영주시 문수면 승문리 1059-6 대,36.75319061,128.6369007
15861,호문3리 노인정,경상북도 영주시,054-639-7541,경상북도 영주시 장수면 호문리 458-3 대,36.76141933,128.5903792
18296,신덕2리마을회관,경상북도 안동시,054-840-4433,경상북도 안동시 임하면 신덕리 1111-4 대,36.53198085,128.8143539
18083,서면주민자치센터,경상북도 울릉군,054-790-6717,경상북도 울릉군 서면 남양리 659-8대,37.4728211,130.8367228
18082,남양리 경로당,경상북도 울릉군,054-790-6206,경상북도 울릉군 서면 남서리 산97-5 임,37.47229416,130.83424
15853,아지동노인회경로당,경상북도 영주시,054-639-7957,경상북도 영주시 아지동  85-8대,36.862651,128.60474
15873,월호2리새마을회관,경상북도 영주시,054-639-7512,경상북도 영주시 문수면 월호리 1401-7대,36.74465929,128.6055952
15863,두산2리 새마을회관,경상북도 영주시,054-639-7611,경상북도 영주시 봉현면 두산리 314-3대,36.86765328,128.4961447
15860,소룡산 경로당,경상북도 영주시,054-639-7541,경상북도 영주시 장수면 소룡리 244-1 대,36.74791902,128.5819399
15859,감곡2리마을회관,경상북도 영주시,054-639-7712,경상북도 영주시 부석면 감곡리 184-12 대,36.91515144,128.6472292
15857,석포2리 노인회관,경상북도 영주시,054-639-7454,경상북도 영주시 이산면 석포리 1056대,36.83099283,128.6836933
15852,이곡 경로당,경상북도 영주시,054-639-7885,경상북도 영주시 휴천동 1441 대,36.8116024,128.6557479
10983,남하1리마을회관,경상북도 경산시,053-804-7386,경상북도 경산시 하양읍 남하리  506-4대,35.886257,128.77329
15856,콩세계과학관,경상북도 영주시,054-639-7712,경상북도 영주시 부석면 임곡리  195 답,36.993619,128.66331
15870,월호1리마을회관,경상북도 영주시,054-639-7512,경상북도 영주시 문수면 월호리  327-1대,36.750678,128.6157
10212,상읍2리마을회관,경상북도 포항시,010-4549-7844,경상북도 포항시 북구 신광면 상읍리  628-3 대,36.14677,129.24731
10790,오산1리경로당,경상북도 청도군,054-370-2517,경상북도 청도군 각북면 오산리  1273-15잡,35.709207,128.57677
15871,대양2리노인정,경상북도 영주시,054-639-7512,경상북도 영주시 문수면 대양리 830-5대,36.7300418,128.5789507
15869,적동1리 경로당,경상북도 영주시,054-639-7512,경상북도 영주시 문수면 적동리 351-7대,36.77396811,128.6327282
15867,갈산1리 마을회관,경상북도 영주시,054-639-7541,경상북도 영주시 장수면 갈산리  1007-37천,36.77932,128.54854
15862,권선리 경로당,경상북도 영주시,054-639-7512,경상북도 영주시 문수면 권선리 481대,36.77064958,128.604076
11638,안산2리경로회관,경상북도 청도군,054-370-2311,경상북도 청도군 풍각면 안산리 1095-1대,35.61911068,128.5713127
10995,하주초등학교,경상북도 경산시,053-804-7386,경상북도 경산시 하양읍 양지리  240-1학,35.919715,128.81274
18087,태하1리 경로당,경상북도 울릉군,054-790-6206,경상북도 울릉군 서면 태하리 539-5 대,37.5174102,130.7996171
18086,남서2리 경로당,경상북도 울릉군,054-790-6206,경상북도 울릉군 서면 남서리 492-3대,37.48237043,130.8078904
18085,남서1리 마을회관,경상북도 울릉군,054-790-6092,경상북도 울릉군 서면 남서리 30-14 창,37.47283121,130.8338635
18084,남양1리 마을회관,경상북도 울릉군,054-790-6092,경상북도 울릉군 서면 남양리 619-1대,37.47131981,130.8352408
178,상현1리마을회관,경상북도 상주시,054-537-8361,경상북도 상주시 화서면 상현리  78-1대,36.451312,127.95208
10215,토성2리마을회관,경상북도 포항시,010-9069-4468,경상북도 포항시 북구 신광면 토성리  523-1대,36.12756,129.26514
194,서원2리마을회관,경상북도 상주시,054-537-8237,경상북도 상주시 내서면 서원리  369대,36.42042801,128.0148879
114,하송1리마을회관,경상북도 상주시,054-537-8361,경상북도 상주시 화서면 하송리  346-13대,36.47721181,127.9529196
175,상용1리마을회관,경상북도 상주시,054-537-8361,경상북도 상주시 화서면 상용리  203대,36.44994967,127.9325912
18299,토계리양평경로당,경상북도 안동시,054-840-4635,경상북도 안동시 도산면 토계리 600-1,36.74649736,128.843248
18090,"천부2리 경로당, 마을회관",경상북도 울릉군,054-790-6206,경상북도 울릉군 북면 천부리  445대,37.542067,130.88133
18091,천부3리 경로당,경상북도 울릉군,054-790-6206,경상북도 울릉군 북면 천부리 342대,37.54471732,130.8929271
18089,천부1리 경로당,경상북도 울릉군,054-790-6206,경상북도 울릉군 북면 천부리 529-5대,37.54491776,130.8742817
3999,월막2리 마을회관,경상북도 청송군,870-6312,경상북도 청송군 청송읍 월막리  455-4 전,36.43643685,129.0511715
10340,신암2리(가성)마을회관,경상북도 김천시,054-421-2143,경상북도 김천시 봉산면 신암리  649-1대,36.17304,128.01057
198,석거실마을회관,경상북도 상주시,054-537-8124,경상북도 상주시 낙동면 신오리  78 대,36.30547519,128.2264939
203,지사1리마을회관,경상북도 상주시,054-537-8207,경상북도 상주시 외남면 지사리  601-1대,36.3779992,128.1064918
204,외남면행정복지센터,경상북도 상주시,054-537-8207,경상북도 상주시 외남면 신상리  283-2대,36.3574535,128.0893996
11095,지당경로회관,경상북도 청도군,054-370-2311,경상북도 청도군 청도읍 원리 301대,35.6109886,128.7649122
18298,고정경로당,경상북도 안동시,054-840-4684,경상북도 안동시 녹전면 매정리 846-6,36.79578697,128.7760962
18297,상아리경로당,경상북도 안동시,054-840-4335,경상북도 안동시 남후면 상아리 434,36.51806603,128.5849171
18098,남서2리 마을회관,경상북도 울릉군,054-790-6092,경상북도 울릉군 서면 남서리  495대,37.482424,130.80823
18095,"추산리 경로당, 마을회관",경상북도 울릉군,054-790-6206,경상북도 울릉군 북면 나리  506-5 대,37.535936,130.85681
18097,저동1리 마을회관,경상북도 울릉군,054-790-6092,경상북도 울릉군 울릉읍 저동리 86-2 대,37.50020358,130.9083981
18094,현포2리 경로당,경상북도 울릉군,054-790-6206,경상북도 울릉군 북면 현포리 292-2대,37.53779311,130.8419611
18093,현포1리 경로당,경상북도 울릉군,054-790-6206,경상북도 울릉군 북면 현포리 527-28 대,37.53046358,130.8249908
18092,천부4리 경로당,경상북도 울릉군,054-790-6206,경상북도 울릉군 북면 천부리 94-1 전,37.54116836,130.906487
206,수봉1리마을회관,경상북도 상주시,054-537-8267,경상북도 상주시 모동면 수봉리  284-1 창,36.28765,127.94392
10789,대산학구경로회관,경상북도 청도군,054-370-2471,경상북도 청도군 각남면 함박리 408-4대,35.61683831,128.6379251
18099,태하권역 다목적회관,경상북도 울릉군,054-790-6092,경상북도 울릉군 서면 태하리 553-1 대,37.51615553,130.7984852
18096,나리 경로당,경상북도 울릉군,054-790-6206,경상북도 울릉군 북면 나리 119-1대,37.52437566,130.8701672
297,장동3리마을회관,경상북도 상주시,054-537-8178,경상북도 상주시 공성면 장동리  735-2 대,36.286239,128.06924
11145,남산2리노인회관,경상북도 청도군,054-370-2311,경상북도 청도군 각북면 남산리  656-1대,35.693177,128.58209
294,입석2리마을회관,경상북도 상주시,054-537-8391,경상북도 상주시 화북면 입석리  779대,36.63667072,127.8878758
144,반곡2리경로당,경상북도 상주시,054-537-8328,경상북도 상주시 화동면 반곡리  526-11대,36.384233,127.93476
11722,봉하오동경로회관,경상북도 청도군,054-370-2311,경상북도 청도군 운문면 봉하리 1155 대,35.79794284,128.9755111
10492,학곡2리마을회관,경상북도 울진군,054-789-6844,경상북도 울진군 평해읍 학곡리  367-3대,36.710149,129.44336
10496,하당리마을회관,경상북도 울진군,054-789-6844,경상북도 울진군 북면 하당리 276-3 대,37.04142065,129.3212912
10494,상당동회관,경상북도 울진군,054-789-6843,경상북도 울진군 북면 상당리  63-3 대,37.056002,129.29853
18101,천부1리 마을회관,경상북도 울릉군,054-790-6092,경상북도 울릉군 북면 천부리 509-32대,37.54537286,130.8739947
321,정양리마을회관,경상북도 상주시,054-537-8267,경상북도 상주시 모동면 정양리  290-7 대,36.28219,127.95483
10528,덕신1리마을회관,경상북도 울진군,054-789-6844,경상북도 울진군 매화면 덕신리  411-4 대,36.883858,129.41555
10511,소태1리마을회관,경상북도 울진군,054-789-6844,경상북도 울진군 온정면 소태리  823 대,36.723953,129.34392
10513,금천3리마을회관,경상북도 울진군,054-789-6844,경상북도 울진군 온정면 금천리  594전,36.704483,129.37505
10519,정명1리마을회관,경상북도 울진군,054-789-6844,경상북도 울진군 기성면 정명리  778대,36.794012,129.4429
10521,방율리마을회관,경상북도 울진군,054-789-6844,경상북도 울진군 기성면 방율리  410대,36.814858,129.39367
10488,호월1리마을회관,경상북도 울진군,054-789-6844,경상북도 울진군 울진읍 호월리  224-1대,37.012043,129.37988
10489,호월2리마을회관,경상북도 울진군,054-789-6844,경상북도 울진군 울진읍 호월리  712-1잡,37.020004,129.36382
10477,읍남4리마을회관,경상북도 울진군,054-789-6844,경상북도 울진군 울진읍 읍남리  733-5 대,36.987045,129.38718
18088,태하2리 경로당,경상북도 울릉군,054-790-6206,경상북도 울릉군 서면 태하리  420-2 대,37.508968,130.80567
18106,나리 마을회관,경상북도 울릉군,054-790-6092,경상북도 울릉군 북면 나리 139-5 전,37.52517337,130.8679624
18105,현포2리 마을회관,경상북도 울릉군,054-790-6092,경상북도 울릉군 북면 현포리 806-8 대,37.53825783,130.841937
18104,현포1리 마을회관,경상북도 울릉군,054-790-6092,경상북도 울릉군 북면 현포리 527-40대,37.53004029,130.8246206
18103,천부4리 마을회관,경상북도 울릉군,054-790-6092,경상북도 울릉군 북면 천부리 96-10 대,37.5411019,130.9063247
18102,천부3리 마을회관,경상북도 울릉군,054-790-6092,경상북도 울릉군 북면 천부리 347대,37.54459876,130.8926562
11238,송금리경로회관,경상북도 청도군,054-370-2311,경상북도 청도군 화양읍 송금리 412-6대,35.70877901,128.7222639
10524,오산3리마을회관,경상북도 울진군,054-789-6844,경상북도 울진군 매화면 오산리  604-1 대,36.907174,129.41516
10525,신흥2리마을회관,경상북도 울진군,054-789-6844,경상북도 울진군 매화면 신흥리  799대,36.878362,129.38413
10530,기양1리마을회관,경상북도 울진군,054-789-6844,경상북도 울진군 매화면 기양리  979답,36.906437,129.37502
13455,북지3리경로당,경상북도 봉화군,054-679-5113,경상북도 봉화군 물야면 북지리  312 대,36.930918,128.74438
213,승곡리마을회관,경상북도 상주시,054-537-8124,경상북도 상주시 낙동면 승곡리  137-3대,36.361156,128.2266
10540,백자리경로당,경상북도 구미시,054-480-5892,경상북도 구미시 무을면 백자리  30 대,36.245259,128.22782
10538,도량2동경로당,경상북도 구미시,054-480-5892,경상북도 구미시 도량동  265-9 답,36.13840319,128.3246996
10545,항곡리회관,경상북도 구미시,054-480-5892,경상북도 구미시 고아읍 항곡리  634-73대,36.18816805,128.3467633
220,성동리마을회관,경상북도 상주시,054-537-8124,경상북도 상주시 낙동면 성동리  49-9대,36.41425552,128.2232391
217,신덕1리마을회관,경상북도 상주시,054-537-8011,경상북도 상주시 함창읍 신덕리  563-1 대,36.537647,128.19815
11275,다로리복지회관,경상북도 청도군,054-370-2311,경상북도 청도군 화양읍 다로리 427-8대,35.70409578,128.7164475
10543,신곡리마을회관,경상북도 구미시,054-480-7329,경상북도 구미시 도개면 신곡리 460-3 대,36.3169624,128.3496149
10541,무이리마을회관,경상북도 구미시,054-480-7267,경상북도 구미시 무을면 무이리 128 창,36.25677752,128.2219121
11413,황지리소망실경로당,경상북도 예천군,054-650-6579,경상북도 예천군 호명면 황지리  372-1대,36.645151,128.50376
4664,승부경로당,경상북도 봉화군,054-679-5622,경상북도 봉화군 석포면 승부리  89대,37.000125,129.07701
257,용안리마을회관,경상북도 상주시,054-537-8178,경상북도 상주시 공성면 용안리  749대,36.294894,128.11733
11401,용호1리복용경로회관,경상북도 김천시,054-421-2183,경상북도 김천시 감천면 용호리  870 대,36.046513,128.12928
4692,호화1리마을회관,경상북도 청도군,054-370-2311,경상북도 청도군 매전면 호화리  627 대,35.640102,128.84582
11854,구촌리신촌마을회관,경상북도 청도군,054-370-2311,경상북도 청도군 매전면 구촌리  1055대,35.592135,128.80647
234,안룡1리회관,경상북도 상주시,054-537-8507,경상북도 상주시 이안면 안용리  307 대,36.593913,128.13123
254,봉산1리마을회관,경상북도 상주시,054-537-8178,경상북도 상주시 공성면 봉산리  630-5 대,36.30352951,128.062267
4673,서벽4리경로당,경상북도 봉화군,054-679-5422,경상북도 봉화군 춘양면 도심리  1358-5 대,37.001834,128.8432
4672,서동리서원마경로당,경상북도 봉화군,054-679-5422,경상북도 봉화군 춘양면 서동리  114-15 대,36.948373,128.91287
4638,관창1리경로당,경상북도 봉화군,054-679-5824,경상북도 봉화군 명호면 관창리  872-6 대,36.816724,128.88261
4626,풍정1리경로당,경상북도 봉화군,054-679-5344,경상북도 봉화군 법전면 풍정리  719-1대,36.907707,128.84454
11402,용호2리마을회관,경상북도 김천시,054-421-2183,경상북도 김천시 감천면 용호리  398대,36.032072,128.13053
15984,명천2리경로당,경상북도 성주군,054-930-7752,경상북도 성주군 금수면 명천리 1048대,35.91216673,128.1914623
15977,금봉리마을회관,경상북도 성주군,054-930-7702,경상북도 성주군 가천면 금봉리 133-4임,35.88213654,128.1483363
15976,가천면복지회관,경상북도 성주군,054-930-7702,경상북도 성주군 가천면 창천리 643-1 대,35.88610578,128.1667095
4650,상리경로당,경상북도 봉화군,054-679-5723,경상북도 봉화군 재산면 상리  27-1대,36.827663,128.96482
4632,운계2리경로당,경상북도 봉화군,054-679-5923,경상북도 봉화군 상운면 운계리  647-1대,36.836507,128.75985
4619,소지리 고누골경로당,경상북도 봉화군,054-679-5344,경상북도 봉화군 법전면 소지리  519-5 대,36.92698,128.87703
4599,수식2리경로당,경상북도 봉화군,054-679-5123,경상북도 봉화군 물야면 수식리  681-3대,36.93088,128.67063
4588,해저3리경로당,경상북도 봉화군,054-679-5024,경상북도 봉화군 봉화읍 해저리  1004대,36.912915,128.70256
16011,보월1리경로당,경상북도 성주군,054-930-7654,경상북도 성주군 수륜면 보월리 산100-1임,35.80363459,128.2672395
16000,외기2리경로당,경상북도 성주군,054-930-7852,경상북도 성주군 벽진면 외기리 110-4대,35.96343222,128.2003401
15991,지산경로당,경상북도 성주군,054-930-7805,경상북도 성주군 대가면 옥련리 942-2 유,35.90411935,128.2146395
15990,산양마을회관,경상북도 성주군,054-930-7805,경상북도 성주군 대가면 흥산리 527답,35.9200794,128.219368
15989,대천2리경로당,경상북도 성주군,054-930-7805,경상북도 성주군 대가면 대천리 275 답,35.88110949,128.1844537
15988,대천1리경로당,경상북도 성주군,054-930-7805,경상북도 성주군 대가면 대천리 477 대,35.88226081,128.181785
15983,명천1리마을회관,경상북도 성주군,054-930-7752,경상북도 성주군 금수면 명천리 224 대,35.91590125,128.2054093
15980,화죽2리마을회관,경상북도 성주군,054-930-7702,경상북도 성주군 가천면 화죽리 645-3대,35.87247229,128.1532798
10625,웅곡리마을회관,경상북도 구미시,054-480-7267,경상북도 구미시 무을면 웅곡리 245-5 대,36.26033727,128.2314414
16013,성1리경로당,경상북도 성주군,054-930-7654,경상북도 성주군 수륜면 성리 74-4대,35.8264885,128.1990363
16010,법산경로당,경상북도 성주군,054-930-7654,경상북도 성주군 수륜면 남은리 940-1대,35.7996339,128.2503917
16009,명륜노인경로당,경상북도 성주군,054-930-7654,경상북도 성주군 수륜면 송계리 345-2대,35.87940133,128.2050274
16004,오도리마을회관,경상북도 성주군,054-930-7552,경상북도 성주군 선남면 오도리 384답,35.91501724,128.354222
16002,운정2리경로당,경상북도 성주군,054-930-7852,경상북도 성주군 벽진면 운정리 149대,35.96181112,128.2202599
15998,선학경로당,경상북도 성주군,054-930-7852,경상북도 성주군 벽진면 봉학리 1224-57대,35.97632665,128.1932076
15997,산전경로당,경상북도 성주군,054-930-7852,경상북도 성주군 벽진면 자산리 705-1대,35.97050421,128.2154292
15995,매수1리경로당,경상북도 성주군,054-930-7852,경상북도 성주군 벽진면 매수리 499-3대,35.94343097,128.2083997
15993,흥산1리새마을회관,경상북도 성주군,054-930-7805,경상북도 성주군 대가면 흥산리 344-4대,35.92617241,128.2179773
3883,사전2리학동경로당,경상북도 청도군,054-370-2590,경상북도 청도군 금천면 사전리  859-1 대,35.728547,128.88205
16021,본리1리마을회관,경상북도 성주군,054-930-7602,경상북도 성주군 용암면 본리리 174-3 대,35.8369643,128.324109
16017,오천1리마을회관,경상북도 성주군,054-930-7654,경상북도 성주군 수륜면 오천리 231대,35.81587162,128.2295372
16016,신파1리마을회관,경상북도 성주군,054-930-7654,경상북도 성주군 수륜면 신파리 118-7대,35.83240933,128.1920124
16015,수륜면복지회관,경상북도 성주군,054-930-7654,경상북도 성주군 수륜면 신파리 57-1 대,35.83260563,128.1936874
16014,송계2길(솔산)마을회관,경상북도 성주군,054-930-7654,경상북도 성주군 수륜면 송계리 1168-1 답,35.8660434,128.2024977
16012,봉양1리경로당,경상북도 성주군,054-930-7654,경상북도 성주군 수륜면 봉양리 639대,35.85093224,128.1705523
16008,계정1리마을회관,경상북도 성주군,054-930-7654,경상북도 성주군 수륜면 계정리 1265 대,35.80428165,128.2246944
16007,성산1리마을회관,경상북도 성주군,054-930-7502,경상북도 성주군 성주읍 성산리 1174-1 대,35.90127754,128.2930333
16003,성원2리복지회관,경상북도 성주군,054-930-7552,경상북도 성주군 선남면 성원리 324-3대,35.91364352,128.3193279
10634,동산리경로당,경상북도 구미시,054-480-7329,경상북도 구미시 도개면 동산리 342-3 대,36.33430386,128.3305426
18107,삼계2리경로당,경상북도 봉화군,054-679-5024,경상북도 봉화군 봉화읍 삼계리  232-4 대,36.906091,128.72846
339,지산리마을회관,경상북도 상주시,054-537-8361,경상북도 상주시 화서면 지산리  165-8잡,36.43626198,127.9560074
16039,어산리마을회관,경상북도 성주군,054-930-7903,경상북도 성주군 초전면 어산리 290-2 대,35.99591199,128.2729828
16037,문덕2리마을회관,경상북도 성주군,054-930-7903,경상북도 성주군 초전면 문덕리 1020대,35.95716008,128.2439572
16029,칠선경로당,경상북도 성주군,054-930-7602,경상북도 성주군 용암면 선송리 428-2 대,35.81653655,128.3438914
16027,월곡리마을회관,경상북도 성주군,054-930-7602,경상북도 성주군 용암면 마월리 896-1 대,35.8720624,128.2794193
16025,용정2리마을회관,경상북도 성주군,054-930-7602,경상북도 성주군 용암면 용정리 476-1대,35.82071818,128.3354522
16023,상신리마을회관,경상북도 성주군,054-930-7602,경상북도 성주군 용암면 상신리 178대,35.84430113,128.2611524
16020,덕평리경로당,경상북도 성주군,054-930-7602,경상북도 성주군 용암면 덕평리 902 대,35.82680085,128.306988
16018,관산마을회관,경상북도 성주군,054-930-7602,경상북도 성주군 용암면 기산리 286대,35.85852775,128.356106
18127,도촌1리경로당,경상북도 봉화군,054-679-5024,경상북도 봉화군 봉화읍 도촌리 466대,36.88945294,128.6725797
18110,눌산리새터경로당,경상북도 봉화군,054-679-5344,경상북도 봉화군 법전면 눌산리 1383-4 대,36.89447044,128.9477744
16043,월곡2리경로당,경상북도 성주군,054-930-7903,경상북도 성주군 초전면 월곡리 242대,36.031295,128.2118478
16036,고산리유곡마을회관,경상북도 성주군,054-930-7903,경상북도 성주군 초전면 고산리 66-1 대,35.99686523,128.2322291
16033,유촌마을회관,경상북도 성주군,054-930-7952,경상북도 성주군 월항면 유월리 96-1대,35.96633358,128.3356857
16032,용각1리마을회관,경상북도 성주군,054-930-7952,경상북도 성주군 월항면 용각리 784-1대,35.96748408,128.3031254
16031,수죽1리마을회관,경상북도 성주군,054-930-7952,경상북도 성주군 월항면 수죽리 585-2대,35.98019227,128.2966199
16030,대산리마을회관,경상북도 성주군,054-930-7952,경상북도 성주군 월항면 대산리 690-1대,35.94511833,128.3247349
16026,원동락경로당,경상북도 성주군,054-930-7602,경상북도 성주군 용암면 동락리 508대,35.8443443,128.3668568
16024,상언2리마을회관,경상북도 성주군,054-930-7602,경상북도 성주군 용암면 상언리 615-5 대,35.83533468,128.3356784
15896,하대2리마을회관,경상북도 경산시,053-810-7574,경상북도 경산시 남산면 하대리  581-2대,35.791605,128.80282
18112,솔림경로당,경상북도 봉화군,054-679-5422,경상북도 봉화군 춘양면 학산리 74-8 대,36.94209773,128.9054652
16049,가천면행정복지센터,경상북도 성주군,054-930-7702,경상북도 성주군 가천면 창천리 514 대,35.88425935,128.1661981
16041,용봉2리마을회관,경상북도 성주군,054-930-7903,경상북도 성주군 초전면 용봉리 474-1 대,36.0184385,128.27124
16040,용봉1리마을회관,경상북도 성주군,054-930-7903,경상북도 성주군 초전면 용봉리 1094-4대,36.01783271,128.267884
12086,대현2리 마을회관,남부지방산림청 영주국유림관리소,054-630-4061,경상북도 봉화군 석포면 대현리 90-16 대,37.05991979,129.0046828
12081,금봉2리마을회관,남부지방산림청 영주국유림관리소,054-630-4061,경상북도 봉화군 봉성면 금봉리 225-4 대,36.93920368,128.7894705
12077,고선2리 마을회관,남부지방산림청 영주국유림관리소,054-630-4061,경상북도 봉화군 소천면 고선리 238-1대,36.95669494,128.9938341
12074,경상북도봉화학생야영장,남부지방산림청 영주국유림관리소,054-630-4061,경상북도 봉화군 소천면 고선리 132-4 잡,36.97804002,129.0025178
12066,개단초등학교,남부지방산림청 영주국유림관리소,054-630-4061,경상북도 봉화군 물야면 개단리 844-2학,36.96682096,128.7614406
18115,현동3리경로당,경상북도 봉화군,054-679-5523,경상북도 봉화군 소천면 현동리  445-3대,36.936682,129.01124
12108,한국산림과학고등학교,남부지방산림청 영주국유림관리소,054-630-4061,경상북도 봉화군 춘양면 서동리  83-1학,36.94820571,128.9138651
12186,학산리 마을회관,남부지방산림청 영주국유림관리소,054-630-4061,경상북도 봉화군 춘양면 학산리 127-1대,36.94368625,128.8968088
12105,소천초등학교 분천분교,남부지방산림청 영주국유림관리소,054-630-4061,경상북도 봉화군 소천면 분천리 1173-15 학,36.92762274,129.0551116
12103,분천보건진료소,남부지방산림청 영주국유림관리소,054-630-4061,경상북도 봉화군 소천면 분천리 935-6 대,36.9310307,129.0571441
12102,분천4리 마을회관,남부지방산림청 영주국유림관리소,054-630-4061,경상북도 봉화군 소천면 분천리 1173-16대,36.92701888,129.0554323
12100,분천3리 마을회관,남부지방산림청 영주국유림관리소,054-630-4061,경상북도 봉화군 소천면 분천리 544-3 대,36.93648568,129.0708536
12098,법전2리 마을회관,남부지방산림청 영주국유림관리소,054-630-4061,경상북도 봉화군 법전면 법전리 781-3잡,36.92426855,128.8634754
12096,동면복지회관,남부지방산림청 영주국유림관리소,054-630-4061,경상북도 봉화군 재산면 동면리 1278-7 대,36.7996805,129.0082578
12095,동면보건진료소,남부지방산림청 영주국유림관리소,054-630-4061,경상북도 봉화군 재산면 동면리 1281-6대,36.79914397,129.0077491
10885,남곡리마을회관,경상북도 경산시,053-804-7592,경상북도 경산시 남산면 남곡리  298 대,35.775164,128.84845
10909,외촌리마을회관,경상북도 경산시,053-804-7567,경상북도 경산시 용성면 외촌리  640대,35.822328,128.88498
10914,옥곡2동노인회관,경상북도 경산시,053-804-7746,경상북도 경산시 옥곡동  143-6 대,35.815798,128.72844
18124,풍호1리경로당,경상북도 봉화군,054-679-5824,경상북도 봉화군 명호면 풍호리  219-8 대,36.839605,128.88202
18126,북곡경로당,경상북도 봉화군,054-679-5824,경상북도 봉화군 명호면 북곡리 1328-2대,36.80425104,128.8864939
18125,관창2리경로당,경상북도 봉화군,054-679-5824,경상북도 봉화군 명호면 관창리 542-2 대,36.80141614,128.8843831
18121,다슬기체험마을,경상북도 봉화군,054-679-5723,경상북도 봉화군 재산면 갈산리 1441-2 대,36.8361364,128.9725312
18120,석포경로당(분회),경상북도 봉화군,054-679-5622,경상북도 봉화군 석포면 석포리 574-14 대,37.04582677,129.0626588
16511,점촌5동행정복지센터,경상북도 문경시,054-550-6322,경상북도 문경시 모전동  914-4대,36.590378,128.18019
12189,현동3리 마을회관,남부지방산림청 영주국유림관리소,054-630-4061,경상북도 봉화군 재산면 현동리 905-1대,36.80382947,128.9612666
18122,미잠경로당,경상북도 봉화군,054-679-5723,경상북도 봉화군 재산면 갈산리 587-2 답,36.85796538,129.0063324
16006,성산2리마을회관,경상북도 성주군,054-930-7502,경상북도 성주군 성주읍 성산리  1805대,35.896562,128.28211
12143,춘양성당 두음공소,남부지방산림청 영주국유림관리소,054-630-4061,경상북도 봉화군 소천면 두음리 607-2 종,36.89192394,129.0168225
12140,임기1리 마을회관,남부지방산림청 영주국유림관리소,054-630-4061,경상북도 봉화군 소천면 임기리 640-5 전,36.87908978,129.0010998
12125,소천면보건지소,남부지방산림청 영주국유림관리소,054-630-4061,경상북도 봉화군 소천면 현동리 652-11대,36.93827236,129.0031797
12123,소로2리 경로당,남부지방산림청 영주국유림관리소,054-630-4061,경상북도 봉화군 춘양면 소로리 343-7대,36.93791787,128.9349314
12122,소로1리 마을회관,남부지방산림청 영주국유림관리소,054-630-4061,경상북도 봉화군 춘양면 소로리 636-14대,36.92314117,128.9221898
12119,석포초등학교,남부지방산림청 영주국유림관리소,054-630-4061,경상북도 봉화군 석포면 석포리 376-8학,37.04724228,129.0637215
12115,서벽초등학교,남부지방산림청 영주국유림관리소,054-630-4061,경상북도 봉화군 춘양면 서벽리 349-2학,37.00860483,128.8337372
12113,서벽2리 경로당,남부지방산림청 영주국유림관리소,054-630-4061,경상북도 봉화군 춘양면 서벽리 678-1대,37.01500463,128.8243585
18128,거촌2리경로당,경상북도 봉화군,054-679-5024,경상북도 봉화군 봉화읍 거촌리  503유,36.873673,128.74271
18132,누운돌경로당,경상북도 봉화군,054-679-5123,경상북도 봉화군 물야면 개단리 563-2 대,36.95277708,128.7712582
12116,재산면사무소,남부지방산림청 영주국유림관리소,054-630-4061,경상북도 봉화군 재산면 현동리  763 대,36.81591933,128.9618611
12135,물야초등학교,남부지방산림청 영주국유림관리소,054-630-4061,경상북도 봉화군 물야면 오록리  545-3학,36.97960473,128.736917
12145,춘양중학교 서벽분교장,남부지방산림청 영주국유림관리소,054-630-4061,경상북도 봉화군 춘양면 서벽리 473-1학,37.01146431,128.8275633
12144,춘양중학교,남부지방산림청 영주국유림관리소,054-630-4061,경상북도 봉화군 춘양면 서동리 91학,36.94775706,128.9141946
12134,어지2리회관,남부지방산림청 영주국유림관리소,054-630-4061,경상북도 봉화군 법전면 어지리 908-12 대,36.91856884,128.949117
12132,애당복지회관,남부지방산림청 영주국유림관리소,054-630-4061,경상북도 봉화군 춘양면 애당리 177-1 대,36.98576098,128.8731829
12130,소천초등학교 임기분교장,남부지방산림청 영주국유림관리소,054-630-4061,경상북도 봉화군 소천면 임기리 805-1학,36.89439583,129.0058528
12117,석포면보건지소,남부지방산림청 영주국유림관리소,054-630-4061,경상북도 봉화군 석포면 석포리 416-2 도,37.04549995,129.0645407
18130,도천4리경로당,경상북도 봉화군,054-679-5824,경상북도 봉화군 명호면 도천리  357-2 대,36.862096,128.88758
18134,삼성현중학교,경상북도 경산시,053-811-7292,경상북도 경산시 백천동  591-2학,35.801335,128.73999
15891,남산대왕보건진료소,경상북도 경산시,053-856-5806,경상북도 경산시 남산면 안심리  261답,35.764298,128.83095
15893,덕천2리경로회관,경상북도 경산시,053-852-2366,경상북도 경산시 용성면 덕천리  429대,35.798447,128.88942
18133,성암생활체육관,경상북도 경산시,053-812-3877,경상북도 경산시 사정동  86-7 대,35.817464,128.72756
10978,환성로마을회관,경상북도 경산시,053-804-7386,경상북도 경산시 하양읍 사기리  26-3 대,35.932889,128.77964
18129,유곡2리경로당,경상북도 봉화군,054-679-5024,경상북도 봉화군 봉화읍 유곡리  544-3 대,36.909059,128.75761
18142,순호1리노인회관,경상북도 의성군,054-830-6521,경상북도 의성군 가음면 순호리  287대,36.211127,128.73052
18131,오록4리경로당,경상북도 봉화군,054-679-5123,경상북도 봉화군 물야면 오록리 1044-2 대,36.98339206,128.7260952
12139,의양4리 마을회관,남부지방산림청 영주국유림관리소,054-630-4061,경상북도 봉화군 춘양면 의양리 621-9 대,36.93799649,128.9191285
18144,의성읍분회경로당,경상북도 의성군,054-830-6521,경상북도 의성군 의성읍 상리리  708-18 대,36.349797,128.70259
10907,용전리마을회관,경상북도 경산시,053-804-7567,경상북도 경산시 용성면 용전리  47-3대,35.773156,128.92397
15895,용성면행정복지센터,경상북도 경산시,053-804-7543,경상북도 경산시 용성면 당리리  132대,35.793278,128.87591
18137,청로리경로당,경상북도 의성군,054-830-6521,경상북도 의성군 금성면 청로리  904-1대,36.235039,128.68275
18143,이리경로당,경상북도 의성군,054-830-6521,경상북도 의성군 가음면 이리  산52임,36.245503,128.75224
10039,장림리마을회관,경상북도 의성군,054-830-6521,경상북도 의성군 단촌면 장림리  660-1대,36.414639,128.63731
18146,대산2리복지회관,경상북도 성주군,054-930-7952,경상북도 성주군 월항면 대산리  490-3대,35.934629,128.32048
16035,한개마을경로당,경상북도 성주군,054-930-7952,경상북도 성주군 월항면 대산리  308-1 대,35.92839467,128.3256179
275,유곡1리마을회관,경상북도 상주시,054-537-8124,경상북도 상주시 낙동면 유곡리  419대,36.35448762,128.2356804
72,구잠1리마을회관,경상북도 상주시,054-537-8124,경상북도 상주시 낙동면 구잠리  659-1전,36.37287718,128.2762167
2046,창평1리회관,경상북도 칠곡군,054-979-6652,경상북도 칠곡군 지천면 창평리  605대,35.968729,128.49556
2054,영오2리마을회관,경상북도 칠곡군,054-979-6652,경상북도 칠곡군 지천면 영오리  829-7 대,35.91808,128.48266
2031,성곡리웃골경로당,경상북도 칠곡군,054-979-6652,경상북도 칠곡군 석적읍 성곡리  363-3 대,36.072613,128.43583
2056,창평2리경로당,경상북도 칠곡군,054-979-6652,경상북도 칠곡군 지천면 창평리  252-1대,35.983152,128.4919
13459,운계1리경로당,경상북도 봉화군,054-679-5923,경상북도 봉화군 상운면 운계리  121-7 대,36.857155,128.77481
17530,부곡1리경로당,경상북도 청송군,870-6312,경상북도 청송군 청송읍 부곡리  208-2대,36.443528,129.0786
12722,채신경로당(영천산단로485),경상북도 영천시,054-339-7463,경상북도 영천시 채신동  498-2 답,35.913082,128.95666
12736,신광2리동회관경로당(대창면 신광리 709-5),경상북도 영천시,054-330-7987,경상북도 영천시 대창면 신광리  710-1답,35.857107,128.92086
16129,상판1리마을회관,경상북도 상주시,054-537-8267,경상북도 상주시 모동면 상판리 459대,36.29961975,128.0023979
2055,용산경로당,경상북도 칠곡군,054-979-6652,경상북도 칠곡군 지천면 용산리  560 대,35.90490862,128.4994294
2031,성곡리웃골경로당,경상북도 칠곡군,054-979-6652,경상북도 칠곡군 석적읍 성곡리  363-3 대,36.072613,128.43583
447,두성리마을노인복지회관,경상북도 예천군,054-650-6579,경상북도 예천군 효자면 두성리  162-3대,36.783905,128.41417
17017,덕장2리마을회관,경상북도 포항시,054-240-7353,경상북도 포항시 북구 흥해읍 덕장리  396,36.144649,129.34468
17003,곡강1리마을회관,경상북도 포항시,054-240-7353,경상북도 포항시 북구 흥해읍 곡강리  1279-2,36.113202,129.39639
17004,가안1리마을회관,경상북도 포항시,054-240-7363,경상북도 포항시 북구 기계면 가안리  198대,36.10672543,129.1324003
37,거동마을회관,경상북도 상주시,054-537-8691,경상북도 상주시 거동동  123 대,36.384673,128.17712
169,화개마을회관,경상북도 상주시,054-537-8662,경상북도 상주시 화개동  56-1 대,36.41442343,128.1850762
173,상촌1리마을회관,경상북도 상주시,054-537-8124,경상북도 상주시 낙동면 상촌리  885-3대,36.36977,128.24612
13016,천부3리 마을회관,남부지방산림청 울릉국유림사업소,054-791-1252,경상북도 울릉군 북면 천부리  산125-6 임,37.540911,130.89277
13010,우산중학교,남부지방산림청 울릉국유림사업소,054-791-1252,경상북도 울릉군 울릉읍 도동리  290임,37.494801,130.90626
1321,하거1리회관,경상북도 고령군,054-950-7404,경상북도 고령군 쌍림면 하거리  595-1 대,35.677758,128.19547
17013,대곡1리마을회관,경상북도 포항시,054-240-7353,경상북도 포항시 북구 기북면 대곡리  310대,36.12127384,129.1613134
17010,달전리마을회관,경상북도 포항시,054-240-7353,경상북도 포항시 남구 연일읍 달전리  128-6대,36.02572712,129.2932336
17009,냉수2리마을회관,경상북도 포항시,054-240-7353,경상북도 포항시 북구 신광면 냉수리  320대,36.09471347,129.2601893
17008,내단2리마을회관,경상북도 포항시,054-240-7353,경상북도 포항시 북구 기계면 내단리  661대,36.07118317,129.2251905
17006,기서경로당,경상북도 포항시,054-240-7353,경상북도 포항시 북구 기계면 구지리  233대,36.10575306,129.1416287
306,정산1리마을회관,경상북도 상주시,054-537-8300,경상북도 상주시 모서면 정산리  365-1대,36.306056,127.87347
199,선교1리마을회관,경상북도 상주시,054-537-8328,경상북도 상주시 화동면 선교리  424-5잡,36.401169,127.97377
16184,화현2리마을회관,경상북도 상주시,054-537-8300,경상북도 상주시 모서면 화현리 292-1대,36.34681771,127.9330039
826,화현1리마을회관,경상북도 상주시,054-537-8300,경상북도 상주시 모서면 화현리  49전,36.36039029,127.9244346
16193,대전3리마을회관,경상북도 청송군,870-6312,경상북도 청송군 부남면 대전리  403-1 대,36.32842,129.06521
4701,산서리마을회관,경상북도 포항시,010-9357-0600,경상북도 포항시 남구 장기면 산서리  1266-11대,35.891309,129.46214
17021,방산1리마을회관,경상북도 포항시,054-270-6355,경상북도 포항시 남구 장기면 방산리  236-2대,35.90308961,129.4667281
17020,발산1리마을회관,경상북도 포항시,054-270-6355,경상북도 포항시 남구 동해면 발산리  310대,36.03329169,129.505095
17019,반곡리마을회관,경상북도 포항시,054-240-7353,경상북도 포항시 북구 신광면 반곡리  389-5대,36.1702704,129.2708832
17018,득량경로당,경상북도 포항시,054-240-7353,경상북도 포항시 북구 득량동  14-1대,36.02396909,129.3500943
17016,대한노인회,경상북도 포항시,054-240-7353,경상북도 포항시 북구 환호동  495-1공,36.07188111,129.3980791
10207,대전1리마을회관,경상북도 포항시,010-4526-7226,경상북도 포항시 북구 송라면 대전리  293대,36.253313,129.35579
17015,대보1리마을회관,경상북도 포항시,054-270-6355,경상북도 포항시 남구 호미곶면 대보리  89-1 대,36.06840416,129.5672203
17012,대각1리마을회관,경상북도 포항시,054-270-6355,경상북도 포항시 남구 대송면 대각리  379,35.953928,129.36244
17027,양백2리마을회관,경상북도 포항시,054-240-7353,경상북도 포항시 북구 흥해읍 양백리  204 전,36.13095418,129.3249112
17026,약전3리마을회관,경상북도 포항시,054-270-6355,경상북도 포항시 남구 동해면 약전리  301-32대,35.98903956,129.451529
17025,성계1리마을회관,경상북도 포항시,054-240-7353,경상북도 포항시 북구 기계면 성계리  182대,36.05126734,129.2209217
17024,서촌2리마을회관,경상북도 포항시,054-270-6355,경상북도 포항시 남구 장기면 서촌리  117-3 대,35.90804568,129.4837803
17023,상옥2리마을회관,경상북도 포항시,054-240-7353,경상북도 포항시 북구 죽장면 상옥리  312-9대,36.249721,129.2151
17022,삼정1리마을회관,경상북도 포항시,054-270-6355,경상북도 포항시 남구 구룡포읍 삼정리  370-7대,36.00412529,129.5707213
16196,이촌리(젬마)마을회관,경상북도 상주시,054-537-8419,경상북도 상주시 외서면 이촌리 115-2 대,36.49568589,128.0651966
13015,서달침례교회,남부지방산림청 울릉국유림사업소,054-791-1252,경상북도 울릉군 서면 태하리  산6임,37.505306,130.82419
13018,나리분지경로회관,남부지방산림청 울릉국유림사업소,054-791-1252,경상북도 울릉군 북면 나리  43 잡,37.520457,130.87111
13011,태하초등학교,남부지방산림청 울릉국유림사업소,054-791-1252,경상북도 울릉군 서면 태하리  580-4전,37.513139,130.80211
17031,우복1동회관,경상북도 포항시,054-270-6355,경상북도 포항시 남구 연일읍 우복리  323,35.971044,129.3428
17037,입암1리마을회관,경상북도 포항시,054-240-7353,경상북도 포항시 북구 죽장면 입암리 320대,36.16067982,129.0959956
17034,읍내리마을회관,경상북도 포항시,054-270-6355,경상북도 포항시 남구 장기면 읍내리  52대,35.89420752,129.491249
17033,유강다목적복지회관,경상북도 포항시,054-270-6355,경상북도 포항시 남구 연일읍 유강리  142-3대,36.00789941,129.318357
17032,월평리마을회관,경상북도 포항시,054-240-7353,경상북도 포항시 북구 죽장면 월평리  399-1 대,36.20472212,129.0698437
17030,우미경로당,경상북도 포항시,054-240-7353,경상북도 포항시 북구 용흥동  57-122유,36.04124958,129.3585416
17028,용흥경로당,경상북도 포항시,054-240-7353,경상북도 포항시 북구 용흥동  596-8잡,36.03962091,129.355963
832,은자골지역활성화센터,경상북도 상주시,054-537-8447,경상북도 상주시 은척면 황령리  736 학,36.53092803,128.0033086
778,연봉1리마을회관,경상북도 상주시,054-537-8424,경상북도 상주시 외서면 연봉리  359-5대,36.50315213,128.1678736
10490,오곡2리마을회관,경상북도 울진군,054-789-6844,경상북도 울진군 평해읍 오곡리  126-6대,36.749482,129.43477
17041,죽천1리마을회관,경상북도 포항시,054-240-7353,경상북도 포항시 북구 흥해읍 죽천리 111-10대,36.08947408,129.419265
17040,죽성2리마을회관,경상북도 포항시,054-240-7353,경상북도 포항시 북구 신광면 죽성리  473-18대,36.13209049,129.2499704
17039,장동1리마을회관,경상북도 포항시,054-270-6355,경상북도 포항시 남구 대송면 장동리 155답,35.95994518,129.3541435
17038,입암2리마을회관,경상북도 포항시,054-240-7353,경상북도 포항시 북구 죽장면 입암리 698-2대,36.1606106,129.0925618
17036,이인2리마을회관,경상북도 포항시,054-240-7353,경상북도 포항시 북구 흥해읍 이인리 578,36.06148105,129.3278355
10629,무이리경로당,경상북도 구미시,054-480-7267,경상북도 구미시 무을면 무이리  331-2대,36.25837923,128.2208493
342,중소1리노인회관,경상북도 상주시,054-537-8479,경상북도 상주시 공검면 중소리  153 대,36.51874086,128.1131123
790,하갈2리마을회관,경상북도 상주시,054-537-8011,경상북도 상주시 함창읍 하갈리  234대,36.526132,128.24682
10502,화성2리마을회관,경상북도 울진군,054-789-6844,경상북도 울진군 죽변면 화성리  1259 대,37.053351,129.36883
1871,삼평1리 마을회관,경상북도 청도군,054-370-2517,경상북도 청도군 각북면 삼평리 143-4 대,35.67793106,128.5947884
17053,학곡리마을회관,경상북도 포항시,054-270-6355,경상북도 포항시 남구 장기면 학곡리 495 대,35.93167852,129.4910996
17052,택전2리마을회관,경상북도 포항시,054-270-6355,경상북도 포항시 남구 연일읍 택전리 517대,35.98510513,129.3294143
17046,중명2리마을회관,경상북도 포항시,054-270-6355,경상북도 포항시 남구 연일읍 중명리 631-2답,35.99125036,129.3151043
17045,중명1리마을회관,경상북도 포항시,054-270-6355,경상북도 포항시 남구 연일읍 중명리 841-22구,35.99626536,129.3116667
17044,중단2리마을회관,경상북도 포항시,054-270-6355,경상북도 포항시 남구 연일읍 중단리 381대,35.99077598,129.323558
17043,중단1리마을회관,경상북도 포항시,054-270-6355,경상북도 포항시 남구 연일읍 중단리 536-1 대,35.9915696,129.3254385
17042,죽천2리마을회관,경상북도 포항시,054-240-7353,경상북도 포항시 북구 흥해읍 죽천리 197 천,36.08631913,129.4168479
10637,농암경로당,경상북도 구미시,054-480-7329,경상북도 구미시 도개면 궁기리  500-4 대,36.30849409,128.3398828
1883,상함박경로당,경상북도 청도군,054-370-2311,경상북도 청도군 각남면 함박리  161-1답,35.610186,128.64203
13460,문촌경로당,경상북도 봉화군,054-679-5923,경상북도 봉화군 상운면 문촌리  755-1대,36.844587,128.79651
17057,화봉3리경로당마을회관,경상북도 포항시,054-240-7353,경상북도 포항시 북구 기계면 화봉리 446-1대,36.09048611,129.2195331
17056,현내2리마을회관,경상북도 포항시,054-240-7353,경상북도 포항시 북구 기계면 현내리 886대,36.07119372,129.2054716
17055,합덕2리마을회관,경상북도 포항시,054-240-7353,경상북도 포항시 북구 죽장면 합덕리 861대,36.21559654,129.0860814
17054,학산여성경로당,경상북도 포항시,054-240-7353,경상북도 포항시 북구 학산동 130-2대,36.04979407,129.3708177
17051,청계리마을회관,경상북도 포항시,054-240-7353,경상북도 포항시 북구 청하면 청계리 555-1 대,36.21203023,129.325874
17049,지가2리마을회관,경상북도 포항시,054-240-7353,경상북도 포항시 북구 기계면 지가리 232-13대,36.08390467,129.1833633
17048,중앙경로당,경상북도 포항시,054-240-7353,경상북도 포항시 북구 덕산동 116-3대,36.04268712,129.3664067
17047,중산2리마을회관,경상북도 포항시,054-240-7353,경상북도 포항시 북구 송라면 중산리 267-3 대,36.23956505,129.3293744
16273,소곡2리마을회관,경상북도 상주시,054-537--8537,경상북도 상주시 화남면 소곡리 294대,36.40366688,127.9241993
16266,덕가리(상덕가)마을회관,경상북도 상주시,054-537-8061,경상북도 상주시 사벌국면 덕가리 243 대,36.49929837,128.2143994
18174,지방리마을회관,경상북도 성주군,054-930-7952,경상북도 성주군 월항면 지방리 590-1잡,35.98749651,128.2880299
17058,흥안2리마을회관,경상북도 포항시,054-240-7353,경상북도 포항시 북구 흥해읍 흥안리 398-1대,36.12318562,129.3765677
2926,청도장애인복지회관,경상북도 청도군,054-370-2437,경상북도 청도군 청도읍 월곡리  300-12장,35.628157,128.75925
16240,간상2리마을회관,경상북도 상주시,054-537-8089,경상북도 상주시 중동면 간상리  899-2 대,36.41780369,128.2823563
16287,징담마을회관,경상북도 상주시,054-537-8571,경상북도 상주시 연원동  754-3 대,36.41981453,128.1372021
16288,오산경로당,경상북도 상주시,054-537-8851,경상북도 상주시 지천동 482-3 대,36.36590585,128.1483598
16242,교촌1리마을회관,경상북도 상주시,054-537-8011,경상북도 상주시 함창읍 교촌리 226 대,36.57623309,128.1575363
16241,고곡1리마을회관,경상북도 상주시,054-537-8237,경상북도 상주시 내서면 고곡리 634-1대,36.43983543,128.0510973
13027,남양초등학교,남부지방산림청 울릉국유림사업소,054-791-1252,경상북도 울릉군 서면 남양리  산70-1 임,37.468829,130.84001
10475,구산4리마을회관,경상북도 울진군,054-789-6844,경상북도 울진군 근남면 구산리  794대,36.94423,129.36737
2033,칠곡호국평화기념관,경상북도 칠곡군,054-979-6509,경상북도 칠곡군 석적읍 중지리  산34 임,36.017915,128.40424
17857,구잠2리마을회관,경상북도 상주시,054-537-8119,경상북도  상주시 낙동면 구잠리  298-3전,36.37906,128.2924
17854,지산1리마을회관,경상북도 상주시,054-537-8507,경상북도 상주시 이안면 지산리  554-5대,36.567572,128.15119
17855,간상1리마을회관,경상북도 상주시,054-537-8089,경상북도 상주시 중동면 간상리 730-2대,36.41393358,128.2912774
16779,부산2리회관(신녕면 부산리 753-1),경상북도 영천시,054-339-7231,경상북도 영천시 신녕면 부산리  753-1 답,36.066126,128.73476
17061,유계리마을회관,경상북도 포항시,054-240-7353,경상북도 포항시 북구 청하면 유계리 466-4임,36.19401973,129.3049264
16292,화북면행정복지센터서부출장소,경상북도 상주시,054-537-8391,경상북도 상주시 화북면 중벌리  604-1대,36.601599,127.82823
16290,장동2리마을회관,경상북도 상주시,054-537-8178,경상북도 상주시 공성면 장동리 402대,36.27616011,128.0691291
16249,내곡1리경로당,경상북도 상주시,054-537-8124,경상북도 상주시 낙동면 내곡리 558-3대,36.3737776,128.2333091
16247,구서2리마을회관,경상북도 상주시,054-537-8207,경상북도 상주시 외남면 구서리 392-2대,36.34070788,128.0933169
2050,연호1리회관,경상북도 칠곡군,054-979-6509,경상북도 칠곡군 지천면 연호리  880-10 전,35.915986,128.50468
16357,은척장암1리마을회관,경상북도 상주시,054-537-8447,경상북도 상주시 은척면 장암리  19대,36.577086,128.08029
17865,함창읍행정복지센터,경상북도 상주시,054-537-8009,경상북도 상주시 함창읍 구향리 207 대,36.57029979,128.1792879
17862,평천1리마을회관,경상북도 상주시,054-537-8178,경상북도  상주시 공성면 평천리  96대,36.290645,128.11998
17858,물량2리마을회관,경상북도 상주시,054-537-8119,경상북도 상주시 낙동면 물량리  1065 대,36.389007,128.29702
17856,우물2리마을회관,경상북도 상주시,054-537-8089,경상북도 상주시 중동면 우물리  218-6 잡,36.405694,128.33544
4069,모계2리마을회관,경상북도 청송군,870-6312,경상북도 청송군 현서면 모계리  375-9 대,36.228752,128.90097
16363,수야2리경로회관,경상북도 청도군,054-370-2311,경상북도 청도군 이서면 수야리 496 대,35.67255901,128.6487148
6476,저전리마을회관,남부지방산림청 구미국유림관리소,054-712-4141,경상북도 고령군 대가야읍 저전리  506 대,35.75166,128.22952
5685,용산리경로회관,남부지방산림청 구미국유림관리소,054-712-4141,경북 경산시 용성면 리  282 282 대,35.76289,128.86768
295,장곡리마을회관,경상북도 상주시,054-537-8124,경상북도 상주시 낙동면 장곡리  468-5대,36.361763,128.28423
151,보미리노인회관,경상북도 상주시,054-537-8328,경상북도 상주시 화동면 보미리  545 대,36.3762,127.91647
17867,가장1동마을회관,경상북도 상주시,054-537-8853,경상북도 상주시 가장동  300대,36.383449,128.1498
16371,임당2리경로회관,경상북도 청도군,054-370-2311,경상북도 청도군 금천면 임당리 1670대,35.69043818,128.9080306
16369,옥산2리마을회관,경상북도 청도군,054-370-2311,경상북도 청도군 각남면 옥산리 890-1대,35.60604156,128.6242531
16368,오진리복지회관,경상북도 청도군,054-370-2311,경상북도 청도군 운문면 오진리 439-2 대,35.7120521,128.9752321
16367,안인리하동경로당,경상북도 청도군,054-370-2311,경상북도 청도군 청도읍 안인리 745대,35.6755399,128.7567587
16366,신지3리노인회관,경상북도 청도군,054-370-2311,경상북도 청도군 금천면 신지리 1382-4대,35.6737503,128.9037944
16365,신지1리마을회관,경상북도 청도군,054-370-2311,경상북도 청도군 금천면 신지리 255-1대,35.67801981,128.8958119
16364,신도2리회관,경상북도 청도군,054-370-2311,경상북도 청도군 청도읍 신도리 707-1대,35.59082089,128.758635
796,하송2리마을회관,경상북도 상주시,054-537-8361,경상북도 상주시 화서면 하송리  15-3 대,36.468131,127.9748
255,용신2리마을회관,경상북도 상주시,054-537-8178,경상북도 상주시 공성면 용신리  200대,36.317391,128.0693
301,장암1리마을회관,경상북도 상주시,054-537-8391,경상북도 상주시 화북면 장암리  207 대,36.570231,127.90796
166,상오1리마을회관,경상북도 상주시,054-537-8391,경상북도 상주시 화북면 상오리  527-1 창,36.543227,127.92105
75,어산리마을회관,경상북도 상주시,054-537-8328,경상북도 상주시 화동면 어산리  322-6,36.400191,128.01213
16375,흑석1리복지회관,경상북도 청도군,054-370-2311,경상북도 청도군 풍각면 흑석리 538대,35.62986819,128.5949247
16374,호화2리경로당,경상북도 청도군,054-370-2311,경상북도 청도군 매전면 호화리 236-1 대,35.64958603,128.8523388
16373,지슬2리경로회관,경상북도 청도군,054-370-2311,경상북도 청도군 각북면 지슬리 688-2대,35.71743161,128.5951945
16372,정상리경로회관,경상북도 청도군,054-370-2311,경상북도 청도군 운문면 정상리 659대,35.81018599,128.9688067
16370,운문면복지회관,경상북도 청도군,054-370-2311,경상북도 청도군 운문면 대천리 1462-76대,35.71657364,128.9128894
17875,발매경로당,경상북도 영양군,054-680-6622,경상북도 영양군 청기면 구매리  395 대,36.656321,129.02534
17870,하범마을회관,경상북도 경주시,054-779-6344,경상북도 경주시 문무대왕면 범곡리 182 대,35.79041739,129.3726266
17869,용동1리 마을회관,경상북도 경주시,054-779-6344,경상북도 경주시 문무대왕면 용동리 1484-1 대,35.81558515,129.4220712
16244,금곡리마을회관,경상북도 상주시,054-537-8011,경상북도 상주시 함창읍 금곡리  422-2답,36.525744,128.21527
142,반계리마을회관,경상북도 상주시,054-537-8267,경상북도 상주시 모동면 반계리  398-3 창,36.29168,127.98024
4124,신풍경로당,경상북도 청송군,870-6312,경상북도 청송군 현동면 거성리  229-5 전,36.273788,129.0386
4072,도리수상경로당,경상북도 청송군,870-6312,경상북도 청송군 현서면 도리  112-4 대,36.22727329,128.8976028
5133,창림리마을회관,남부지방산림청 구미국유림관리소,054-712-4141,경상북도 구미시 해평면 창림리  153-2대,36.229223,128.39687
5064,용흥리 마을회관 노인정,남부지방산림청 구미국유림관리소,054-712-4141,경상북도 고령군 덕곡면 용흥리  193대,35.775914,128.1959
4969,마곡리회관,남부지방산림청 구미국유림관리소,054-712-4141,경상북도 경산시 진량읍 마곡리  242-4대,35.843911,128.846
17877,산해2리마을회관,경상북도 영양군,054-680-6622,경상북도 영양군 입암면 산해리  143-1대,36.589604,129.07989
17878,샘실경로당,경상북도 영양군,054-680-6622,경상북도 영양군 입암면 대천리  527-1 대,36.61893,129.02786
17879,석보면분회경로당,경상북도 영양군,054-680-6622,경상북도 영양군 석보면 원리리  335-1 대,36.5597,129.12564
4178,후평1리경로당,경상북도 청송군,870-6312,경상북도 청송군 진보면 후평리  236-6 대,36.530619,129.02689
4202,시량2리노인회관,경상북도 청송군,870-6312,경상북도 청송군 진보면 시량리  296-11임,36.52913795,129.1001713
4101,현동복지회관,경상북도 청송군,870-6312,경상북도 청송군 현동면 도평리  789 대,36.28880956,129.016982
4142,거성노인회관,경상북도 청송군,870-6312,경상북도 청송군 현동면 거성리  583-5 대,36.2819744,129.0206104
11274,소라리복지회관,경상북도 청도군,054-370-2311,경상북도 청도군 화양읍 소라리  308-7 대,35.66393,128.72693
16337,금곡리복지회관,경상북도 청도군,054-370-2311,경상북도 청도군 풍각면 금곡리 261-1대,35.63705731,128.5530201
16112,회상2리마을회관,경상북도 상주시,054-537-8089,경상북도 상주시 중동면 회상리  1148-2대,36.46473013,128.258392
17880,선당경로당,경상북도 영양군,054-680-6622,경상북도 영양군 영양읍 대천리  257-1 창,36.64799,129.16186
17883,수비산촌정보화마을,경상북도 영양군,054-680-6622,경상북도 영양군 수비면 신원리  273-1대,36.756105,129.2171
17889,정족2리솔바리경로당,경상북도 영양군,054-680-6622,경상북도 영양군 청기면 정족리  43-6 대,36.701012,129.05353
17881,섬촌메베리경로당,경상북도 영양군,054-680-6622,경상북도 영양군 일월면 섬촌리  275 대,36.717637,129.14369
17884,수하1리마을회관,경상북도 영양군,054-680-6622,경상북도 영양군 수비면 수하리  760-6 대,36.785692,129.22478
16341,동산1리할머니경로당,경상북도 청도군,054-370-2311,경상북도 청도군 매전면 동산리  183-8대,35.66774148,128.856781
16342,방지2리경로회관,경상북도 청도군,054-370-2311,경상북도 청도군 금천면 방지리 1210전,35.71284597,128.9077562
16340,동곡2리경로회관,경상북도 청도군,054-370-2311,경상북도 청도군 금천면 동곡리 242대,35.70219291,128.886672
16339,덕촌2리경로회관,경상북도 청도군,054-370-2311,경상북도 청도군 각북면 덕촌리 769대,35.70719036,128.5829967
16338,내리경로당,경상북도 청도군,054-370-2311,경상북도 청도군 청도읍 내리 178 창,35.68698937,128.7523999
17885,신사1리마을회관,경상북도 영양군,054-680-6622,경상북도 영양군 입암면 신사리  191-10 대,36.597635,129.07014
17888,월구경로당,경상북도 영양군,054-680-6622,경상북도 영양군 청기면 무진리  416-6 대,36.739342,129.02566
17892,청기리경로당,경상북도 영양군,054-680-6622,경상북도 영양군 청기면 청기리  590-5 대,36.659993,129.06159
17886,연당2리마을회관,경상북도 영양군,054-680-6622,경상북도 영양군 입암면 연당리  101-1대,36.613023,129.08788
17887,오기2리마을회관,경상북도 영양군,054-680-6622,경상북도 영양군 수비면 오기리 352-3 대,36.7385979,129.204124
16345,산동복지회관,경상북도 청도군,054-370-2311,경상북도 청도군 금천면 동곡리 799-10대,35.69178335,128.8942375
16344,사촌1리마을회관,경상북도 청도군,054-370-2311,경상북도 청도군 청도읍 사촌리 665-1답,35.57453788,128.7889912
11278,범곡2리회관,경상북도 청도군,054-370-2311,경상북도 청도군 화양읍 범곡리  143-2대,35.648728,128.73333
16343,방지1리경로회관,경상북도 청도군,054-370-2311,경상북도 청도군 금천면 방지리 1476답,35.7084275,128.9067369
13845,인곡회관,남부지방산림청 구미국유림관리소,054-712-4141,경상북도 고령군 덕곡면 본리리 37-2잡,35.7761817,128.2251335
17895,서부3리경로당,경상북도 영양군,054-680-6622,경상북도 영양군 영양읍 서부리  431-7 대,36.666046,129.10993
17890,청기2리마을회관,경상북도 영양군,054-680-6622,경상북도 영양군 청기면 청기리  214창,36.653229,129.07081
17893,토곡1리3반경로당,경상북도 영양군,054-680-6622,경상북도 영양군 청기면 토곡리  504-5 대,36.69034996,129.0381634
17894,지경리마을회관,경상북도 영양군,054-680-6622,경상북도 영양군 석보면 지경리  204-3 대,36.560558,129.11568
17897,현동면분회경로당,경상북도 청송군,870-6312,경상북도 청송군 현동면 도평리 827-46 대,36.29011782,129.0151461
17896,계1리마을회관,경상북도 영양군,054-680-6622,경상북도 영양군 수비면 계리 887-4천,36.77116457,129.1733613
16347,삼신2리복지회관,경상북도 청도군,054-370-2311,경상북도 청도군 화양읍 삼신리 735대,35.68952302,128.718361
13946,대성보건진료소,남부지방산림청 구미국유림관리소,054-712-4141,경상북도 김천시 대항면 대성리  494-15 대,36.068049,128.01414
13899,대성1리마을회관,남부지방산림청 구미국유림관리소,054-712-4141,경상북도 김천시 대항면 대성리 185전,36.0868552,128.0242755
13889,대평마을회관,남부지방산림청 구미국유림관리소,054-712-4141,경상북도 김천시 조마면 대방리  332-1대,36.00639118,128.1319737
954,유리마을회관,경상북도 고령군,054-950-7404,경상북도 고령군 운수면 유리  592 대,35.764689,128.30239
17088,구산1리마을회관,경상북도 울진군,054-789-6841,경상북도 울진군 근남면 구산리 418-3 대,36.95173107,129.3761124
14007,숭산초등학교,남부지방산림청 구미국유림관리소,054-712-4141,경상북도 칠곡군 북삼읍 보손리  264-1 학,36.05345782,128.3146094
13963,용흥리마을회관,남부지방산림청 구미국유림관리소,054-712-4141,경상북도 고령군 덕곡면 용흥리 193대,35.77598831,128.195856
13952,증산면행정복지센터,남부지방산림청 구미국유림관리소,054-712-4141,경상북도 김천시 증산면 유성리  278-6 대,35.901901,128.03525
13950,대야보건진료소,남부지방산림청 구미국유림관리소,054-712-4141,경상북도 김천시 부항면 대야리  353 대,36.011711,127.93078
13921,신곡2리회관,남부지방산림청 구미국유림관리소,054-712-4141,경상북도 김천시 조마면 신곡리 1023-9전,35.98155747,128.0939814
13915,장평노인회관,남부지방산림청 구미국유림관리소,054-712-4141,경상북도 김천시 증산면 평촌리 236-3 대,35.89647357,128.0206643
13907,구성면 행정복지센터,남부지방산림청 구미국유림관리소,054-712-4141,경상북도 김천시 구성면 상좌원리 11-1 대,36.03252044,128.0478116
13903,신평1리마을회관,남부지방산림청 구미국유림관리소,054-712-4141,경상북도 김천시 지례면 신평리 627-4 대,35.96205905,128.0747443
4308,옥산2리마을회관,경상북도 김천시,054-421-2064,경상북도 김천시 남면 옥산리  70대,36.117432,128.19425
17102,소곡1리마을회관,경상북도 울진군,054-789-6841,경상북도 울진군 북면 소곡리 655대,37.07194665,129.3381163
17096,덕산1리경로당,경상북도 울진군,054-789-6841,경상북도 울진군 온정면 덕산리 649대,36.6954533,129.3731231
17095,덕구1리마을회관,경상북도 울진군,054-789-6841,경상북도 울진군 북면 덕구리 238-4 대,37.08207886,129.3100538
17093,나곡3리마을회관,경상북도 울진군,054-789-6841,경상북도 울진군 북면 나곡리 706-1대,37.1260125,129.3701459
17092,나곡2리마을회관,경상북도 울진군,054-789-6841,경상북도 울진군 북면 나곡리 416-1대,37.11753694,129.3668856
17091,나곡1리마을회관,경상북도 울진군,054-789-6841,경상북도 울진군 북면 나곡리 50-11대,37.11383888,129.3750328
2961,흥평2리 경로당,경상북도 김천시,054-421-2217,경상북도 김천시 구성면 흥평리  322대,36.063054,128.05705
17090,금강송면복지회관,경상북도 울진군,054-789-6841,경상북도 울진군 금강송면 삼근리 217-3대,36.93465216,129.2487451
17089,금매1리마을회관,경상북도 울진군,054-789-6841,경상북도 울진군 매화면 금매리 325대,36.93261753,129.3842623
17116,직산2리마을회관,경상북도 울진군,054-789-6841,경상북도 울진군 평해읍 직산리 204 대,36.72281554,129.4709795
17110,외선미2리마을회관,경상북도 울진군,054-789-6841,경상북도 울진군 온정면 외선미리 466대,36.75847718,129.3402674
17100,삼율4리마을회관,경상북도 울진군,054-789-6841,경상북도 울진군 후포면 삼율리 231-3대,36.67683388,129.4396178
17099,삼근2리마을회관,경상북도 울진군,054-789-6841,경상북도 울진군 금강송면 삼근리 736-4대,36.93811027,129.2301211
16458,김용리새마을회관,경상북도 문경시,054-550-6322,경상북도 문경시 산북면 김용리  228-1 전,36.72603367,128.2263832
16461,내서1리 마을회관,경상북도 문경시,054-550-6322,경상북도 문경시 농암면 내서리  200-7대,36.571161,127.98263
16464,노은2리마을회관,경상북도 문경시,054-550-6322,경상북도 문경시 동로면 노은리  170-3 대,36.76878,128.31416
16459,남호1리마을회관,경상북도 문경시,054-550-6322,경상북도 문경시 마성면 남호리 78-2대,36.70585767,128.1200557
14009,송산3리상어경로당,남부지방산림청 구미국유림관리소,054-712-4141,경상북도 칠곡군 동명면 송산리  1117 대,35.998006,128.52494
14003,숭산초등학교,남부지방산림청 구미국유림관리소,054-712-4141,경상북도 칠곡군 북삼읍 보손리  264-1 학,36.05356191,128.3147382
2914,백일대경로당,경상북도 김천시,054-421-2217,경상북도 김천시 구성면 송죽리  412-10 대,36.05404,128.06188
17109,온정면사무소,경상북도 울진군,054-789-6841,경상북도 울진군 온정면 소태리 820 대,36.72409471,129.3453502
17104,신화2리마을회관,경상북도 울진군,054-789-6841,경상북도 울진군 북면 신화리 427-2대,37.08415481,129.3644086
17101,선구1리마을회관,경상북도 울진군,054-789-6841,경상북도 울진군 온정면 선구리 550-3대,36.75113728,129.337891
16445,가곡리마을회관,경상북도 문경시,054-550-6322,경상북도 문경시 산북면 가곡리  89-1대,36.669978,128.30203
16457,금림1리마을회관,경상북도 문경시,054-550-6322,경상북도 문경시 영순면 금림리 100 대,36.57029969,128.2655544
16455,구랑리노인회관,경상북도 문경시,054-550-6322,경상북도 문경시 마성면 하내리 320-1 대,36.65651447,128.0959631
14023,장암1리마을회관,남부지방산림청 구미국유림관리소,054-712-4141,경상북도 상주시 화북면 장암리 207 대,36.57024455,127.9080051
14016,대전3리마을회관,남부지방산림청 구미국유림관리소,054-712-4141,경상북도 상주시 외서면 대전리  47-3전,36.51865,127.96302
14013,신원리마을(노인)회관,남부지방산림청 구미국유림관리소,054-712-4141,경상북도 청도군 운문면 신원리 1233대,35.68410514,128.9608495
16448,간송2리 마을회관,경상북도 문경시,054-550-6322,경상북도 문경시 동로면 간송리  288-1 대,36.749353,128.31881
17106,온양2리마을회관,경상북도 울진군,054-789-6841,경상북도 울진군 울진읍 온양리 86대,37.02735571,129.4088957
17105,오곡1리마을회관,경상북도 울진군,054-789-6841,경상북도 울진군 평해읍 오곡리 681-1 대,36.73547475,129.4298508
16456,궁기1리마을회관,경상북도 문경시,054-550-6322,경상북도 문경시 농암면 궁기리  308-2대,36.61584654,127.9565337
16477,부곡리마을회관,경상북도 문경시,054-550-6322,경상북도 문경시 호계면 부곡리 355-4답,36.68221723,128.205844
16474,반곡2리 마을회관,경상북도 문경시,054-550-6322,경상북도 문경시 산양면 반곡리 739-4대,36.61713161,128.2149471
16463,내화리새마을회관,경상북도 문경시,054-550-6322,경상북도 문경시 산북면 내화리 678대,36.68667913,128.2780633
16452,견탄3리마을회관,경상북도 문경시,054-550-6322,경상북도 문경시 호계면 견탄리 503 대,36.6470942,128.1509034
16449,갈동2리마을회관,경상북도 문경시,054-550-6322,경상북도 문경시 농암면 갈동리 516 대,36.59128107,128.0104588
16447,각서1리마을회관,경상북도 문경시,054-550-6322,경상북도 문경시 문경읍 각서리 199-1대,36.74408184,128.0703861
16451,갈전3리마을회관,경상북도 문경시,054-550-6322,경상북도 문경시 가은읍 갈전리  231-1대,36.62135543,128.0937521
16498,용흥초등학교,경상북도 문경시,054-550-6322,경상북도 문경시 문경읍 갈평리  563 학,36.787733,128.15852
16494,왕능1리마을회관,경상북도 문경시,054-550-6322,경상북도 문경시 가은읍 왕능리 308-6 대,36.64450808,128.0646237
16490,연천2리마을회관,경상북도 문경시,054-550-6322,경상북도 문경시 농암면 연천리 584대,36.61030666,127.9862209
16488,신현1리 마을회관,경상북도 문경시,054-550-6322,경상북도 문경시 마성면 신현리 338-8대,36.67608584,128.1262096
16454,공평2리마을회관,경상북도 문경시,054-550-6322,경상북도 문경시 공평동 344-5대,36.60556042,128.1837299
16453,고요1리 마을회관,경상북도 문경시,054-550-6322,경상북도 문경시 문경읍 고요리 286-1대,36.74211242,128.151028
14019,신촌1리마을회관,남부지방산림청 구미국유림관리소,054-712-4141,경상북도 상주시 외남면 신촌리 368대,36.35087006,128.0819137
14017,북장리마을회관,남부지방산림청 구미국유림관리소,054-712-4141,경상북도 상주시 내서면 북장리 487-70 대,36.4217073,128.0616668
14014,봉학3리마을회관,남부지방산림청 구미국유림관리소,054-712-4141,경상북도 성주군 벽진면 봉학리 1179-6대,35.95967271,128.1685393
16470,마광리마을회관,경상북도 문경시,054-550-6322,경상북도 문경시 동로면 마광리  684-3 대,36.693849,128.30647
16485,선암1리마을회관,경상북도 문경시,054-550-6322,경상북도 문경시 호계면 선암리 42-1 대,36.67641642,128.2237903
16484,선곡2리마을회관,경상북도 문경시,054-550-6322,경상북도 문경시 농암면 선곡리 119-5대,36.54662391,128.0471516
16482,상리2리마을회관,경상북도 문경시,054-550-6322,경상북도 문경시 문경읍 상리 454-20대,36.73800735,128.1069037
16478,사근1리마을회관,경상북도 문경시,054-550-6322,경상북도 문경시 영순면 사근리 886-3 대,36.57839296,128.2432476
16476,봉정2리 마을회관,경상북도 문경시,054-550-6322,경상북도 문경시 산양면 봉정리 442 대,36.63017727,128.2390034
16472,말응1리마을회관,경상북도 문경시,054-550-6322,경상북도 문경시 영순면 말응리 631대,36.54776,128.2411694
16471,마원2리마을회관,경상북도 문경시,054-550-6322,경상북도 문경시 문경읍 마원리 208 대,36.71742731,128.111486
16469,대하1리마을회관,경상북도 문경시,054-550-6322,경상북도 문경시 산북면 대하리 487-1답,36.66206399,128.2606684
3067,부야2리마을회관,경상북도 청도군,054-370-2437,경상북도 청도군 청도읍 부야리 1212-9대,35.66119508,128.7735805
17111,월증동마을회관,경상북도 울진군,054-789-6841,경상북도 울진군 근남면 산포리 1528-2유,36.9472511,129.4022278
16507,작천1리마을회관,경상북도 문경시,054-550-6322,경상북도 문경시 가은읍 작천리 208-1 대,36.63753435,128.047952
16501,원북1리마을회관,경상북도 문경시,054-550-6322,경상북도 문경시 가은읍 원북리 298-3대,36.68743598,128.0170381
16496,외어2리마을회관,경상북도 문경시,054-550-6322,경상북도 문경시 마성면 외어리 313대,36.69868099,128.1431201
16492,오천2리오리골회관,경상북도 문경시,054-550-6322,경상북도 문경시 마성면 오천리 39-1대,36.6901611,128.1343799
16491,오천1리주민회관,경상북도 문경시,054-550-6322,경상북도 문경시 마성면 오천리 252-1대,36.67800297,128.1294892
16486,성저2리마을회관,경상북도 문경시,054-550-6322,경상북도 문경시 가은읍 성저리 231-5 대,36.61617051,128.0392225
16479,사현리마을회관,경상북도 문경시,054-550-6322,경상북도 문경시 농암면 사현리 470-1 대,36.57605111,128.037937
16475,배실마을회관,경상북도 문경시,054-550-6322,경상북도 문경시 공평동 211대,36.61342369,128.1783805
16473,말응2리마을회관,경상북도 문경시,054-550-6322,경상북도 문경시 영순면 말응리 384대,36.54161827,128.2482527
16510,점촌1동행정복지센터,경상북도 문경시,054-550-6322,경상북도 문경시 점촌동  409-7대,36.598627,128.19788
16515,지내2리마을회관,경상북도 문경시,054-550-6322,경상북도 문경시 산북면 지내리 325대,36.64675101,128.3257979
16513,종곡1리 마을회관,경상북도 문경시,054-550-6322,경상북도 문경시 농암면 종곡리 416-2대,36.60281311,127.9968622
16508,적성1리마을회관,경상북도 문경시,054-550-6322,경상북도 문경시 동로면 적성리 540-5대,36.77367554,128.3149417
16506,이목2리마을회관,경상북도 문경시,054-550-6322,경상북도 문경시 영순면 이목리 113 대,36.55739227,128.2889679
16505,의곡2리회관,경상북도 문경시,054-550-6322,경상북도 문경시 영순면 의곡리  402-9대,36.57844613,128.229805
16499,이곡리 마을회관,경상북도 문경시,054-550-6322,경상북도 문경시 산북면 이곡리  43-6 대,36.6942269,128.2512719
16495,왕능2리마을회관,경상북도 문경시,054-550-6322,경상북도 문경시 가은읍 왕능리 248-5대,36.64503502,128.0671741
16481,상내1리 마을회관,경상북도 문경시,054-550-6322,경상북도 문경시 마성면 상내리 269대,36.67368232,128.0734351
16480,상괴1리마을회관,경상북도 문경시,054-550-6322,경상북도 문경시 가은읍 상괴리 376-8대,36.67348168,128.0134184
17113,정명1리사저동경로당,경상북도 울진군,054-789-6841,경상북도 울진군 기성면 정명리 862-5대,36.80178555,129.4310709
16520,하내1리마을회관,경상북도 문경시,054-550-6322,경상북도 문경시 마성면 하내리 647대,36.66039169,128.083218
16517,진안리마을회관,경상북도 문경시,054-550-6322,경상북도 문경시 문경읍 진안리 161-3 대,36.73971798,128.0841995
16516,지동1리 마을회관,경상북도 문경시,054-550-6322,경상북도 문경시 농암면 지동리 208-1대,36.5598737,128.052676
16504,율수1리마을회관,경상북도 문경시,054-550-6322,경상북도 문경시 농암면 율수리 220-7대,36.57651173,127.9957388
16502,위만2리마을회관,경상북도 문경시,054-550-6322,경상북도 문경시 산양면 위만리 248-2답,36.64825902,128.3057387
16500,우로1리회관,경상북도 문경시,054-550-6322,경상북도 문경시 호계면 우로리 141대,36.65173968,128.2060975
16497,요성리마을회관,경상북도 문경시,054-550-6322,경상북도 문경시 문경읍 요성리 406-4 대,36.73874864,128.1234119
16493,완장1리회관,경상북도 문경시,054-550-6322,경상북도 문경시 가은읍 완장리 126-4대,36.6745921,127.9894199
16487,수평1리마을회관,경상북도 문경시,054-550-6322,경상북도 문경시 동로면 수평리 384-4대,36.72241501,128.3060409
15707,양전1리마을회관,경상북도 고령군,054-950-7404,경상북도 고령군 개진면 양전리  870-2 대,35.719612,128.29778
1036,인안2리마을회관,경상북도 고령군,054-950-7404,경상북도 고령군 개진면 인안리  155전,35.728176,128.41294
16524,흑송리마을회관,경상북도 문경시,054-550-6322,경상북도 문경시 산북면 흑송리 175대,36.65210867,128.3413785
16522,호계리마을회관,경상북도 문경시,054-550-6322,경상북도 문경시 호계면 호계리 484-6 대,36.65564416,128.1884555
16521,하리1리마을회관,경상북도 문경시,054-550-6322,경상북도 문경시 문경읍 하리 11 도,36.73609195,128.1109449
16519,하괴2리 새마을회관,경상북도 문경시,054-550-6322,경상북도 문경시 가은읍 하괴리 785대,36.66027738,128.0336966
16518,하괴1리회관,경상북도 문경시,054-550-6322,경상북도 문경시 가은읍 하괴리 367-1대,36.66129,128.0460248
16514,죽문1리마을회관,경상북도 문경시,054-550-6322,경상북도 문경시 가은읍 죽문리 85-1대,36.66365753,128.0030534
16512,정리2리마을회관,경상북도 문경시,054-550-6322,경상북도 문경시 마성면 정리 30-3대,36.68703149,128.1066395
16509,전곡3리마을회관,경상북도 문경시,054-550-6322,경상북도 문경시 가은읍 전곡리 281-1전,36.61252803,128.0226194
971,팔산리마을회관,경상북도 고령군,054-950-7404,경상북도 고령군 운수면 팔산리  215대,35.764857,128.32174
15722,월산1리마을회관,경상북도 고령군,054-950-7404,경상북도 고령군 운수면 월산리  506대,35.764818,128.26575
819,지산3리마을회관,경상북도 고령군,054-950-7404,경상북도 고령군 대가야읍 지산리  614-5대,35.720776,128.25259
9998,신곡1리마을회관,경상북도 고령군,054-950-7404,경상북도 고령군 쌍림면 신곡리  382-1대,35.683654,128.2537
9996,속리마을회관,경상북도 고령군,054-950-7404,경상북도 고령군 우곡면 속리  214대,35.686956,128.31472
1008,상용리마을회관,경상북도 고령군,054-950-7404,경상북도 고령군 성산면 상용리  342-5대,35.784303,128.35052
979,무계리마을회관,경상북도 고령군,054-950-7404,경상북도 고령군 성산면 무계리  319대,35.778225,128.38602
16523,화산1리마을회관,경상북도 문경시,054-550-6322,경상북도 문경시 농암면 화산리  285-8 대,36.576792,127.98753
16525,흥덕1통2통마을회관,경상북도 문경시,054-550-6322,경상북도 문경시 흥덕동 663,36.608502,128.20519
16526,소야리 마을회관,경상북도 문경시,054-550-6322,경상북도 문경시 산북면 소야리 213답,36.72878401,128.276008
11406,부2리마을회관,경상북도 고령군,054-950-7404,경상북도 고령군 개진면 부리  409전,35.71095,128.42236
11403,기산리마을회관,경상북도 고령군,054-950-7404,경상북도 고령군 성산면 기산리  619-1대,35.74442,128.32992
1033,직1리마을회관,경상북도 고령군,054-950-7404,경상북도 고령군 개진면 직리  645-4 대,35.720062,128.31362
972,법리마을회관,경상북도 고령군,054-950-7404,경상북도 고령군 운수면 법리  86-1 대,35.777536,128.30908
1013,사부1리마을회관,경상북도 고령군,054-950-7404,경상북도 고령군 성산면 사부리  151-2 대,35.742647,128.31813
16316,가륜1리마을회관,경상북도 고령군,054-950-7404,경상북도 고령군 덕곡면 가륜리  553-1대,35.784699,128.21431
16322,사부2리노인회관,경상북도 고령군,054-950-7404,경상북도 고령군 성산면 사부리  230 잡,35.740922,128.31187
10022,합가2리마을회관,경상북도 고령군,054-950-7404,경상북도 고령군 쌍림면 합가리  748대,35.653011,128.21665
10018,합가1리마을회관,경상북도 고령군,054-950-7404,경상북도 고령군 쌍림면 합가리  128-1대,35.666538,128.2292
3240,덕산1리마을회관,경상북도 김천시,010-5800-7187,경상북도 김천시 대덕면 덕산리  913대,35.933324,127.90664
9994,선양경로당,경상북도 고령군,054-950-7404,경상북도 고령군 대가야읍 내곡리  876,35.695144,128.29033
11409,외2리마을회관,경상북도 고령군,054-950-7404,경상북도 고령군 대가야읍 외리  668 대,35.704924,128.27635
11407,사촌리마을회관,경상북도 고령군,054-950-7404,경상북도 고령군 우곡면 사촌리  508-1대,35.697617,128.32705
16320,봉동마을회관,경상북도 고령군,054-950-7404,경상북도 고령군 개진면 구곡리  112대,35.714663,128.39125
16318,본리1리마을회관,경상북도 고령군,054-950-7404,경상북도 고령군 덕곡면 본리리  37-2잡,35.776112,128.22511
1025,용소리마을회관,경상북도 고령군,054-950-7404,경상북도 고령군 성산면 용소리  207 대,35.77859,128.359
17133,전촌1리 마을회관,경상북도 경주시,054-779-6344,경상북도 경주시 감포읍 전촌리 532-1대,35.79285525,129.4883827
17130,노동리 마을회관,경상북도 경주시,054-779-6344,경상북도 경주시 감포읍 노동리 611-7 대,35.79386861,129.4512583
17129,나정2리 마을회관,경상북도 경주시,054-779-6344,경상북도 경주시 감포읍 나정리 11 대,35.77837984,129.4932037
3373,삼신1리경로회관,경상북도 청도군,054-370-2311,경상북도 청도군 화양읍 삼신리  308-3대,35.697775,128.71644
11405,반성1리노인회관,경상북도 고령군,054-950-7404,경상북도 고령군 덕곡면 반성리  722 대,35.770929,128.24437
947,가륜2리마을회관,경상북도 고령군,054-950-7404,경상북도 고령군 덕곡면 가륜리  96,35.793596,128.21309
11412,화암1리마을회관,경상북도 고령군,054-950-7404,경상북도 고령군 운수면 화암리  271-1 대,35.78876,128.26268
11410,월성리마을회관,경상북도 고령군,054-950-7404,경상북도 고령군 다산면 월성리  188 대,35.817796,128.42721
17136,국당1리 마을회관,경상북도 경주시,054-779-6344,경상북도 경주시 강동면 국당리 90-2대,35.99039501,129.3030706
17135,강동면 행정복지센터,경상북도 경주시,054-779-6344,경상북도 경주시 강동면 인동리 29-1대,35.9876592,129.2733867
17134,팔조리 마을회관,경상북도 경주시,054-779-6344,경상북도 경주시 감포읍 팔조리 656-11 대,35.78301456,129.4696512
17132,전동 마을회관,경상북도 경주시,054-779-6344,경상북도 경주시 감포읍 전동리 360-3대,35.79932138,129.4848638
17131,모곡마을 경로회관,경상북도 경주시,054-779-6344,경상북도 경주시 감포읍 오류리 1381-5 대,35.82655389,129.5101935
3356,유등3리경로회관,경상북도 청도군,054-370-2449,경상북도 청도군 화양읍 유등리  201-1대,35.688213,128.69951
17146,건천읍 행정복지센터,경상북도 경주시,054-779-6344,경상북도 경주시 건천읍 건천리 244-1 대,35.85003389,129.1022974
17145,호명리 마을회관,경상북도 경주시,054-779-6344,경상북도 경주시 강동면 호명리 211-1대,35.9708824,129.2499648
17144,인동1리 마을회관,경상북도 경주시,054-779-6344,경상북도 경주시 강동면 호명리 211-1대,35.9708824,129.2499541
17143,왕신1리 마을회관,경상북도 경주시,054-779-6344,경상북도 경주시 강동면 왕신리 752-3 대,35.96529464,129.2920111
17142,오금3리 회관,경상북도 경주시,054-779-6344,경상북도 경주시 강동면 오금리 232-3대,35.97197768,129.2727524
17141,안계1리 마을회관,경상북도 경주시,054-779-6344,경상북도 경주시 강동면 안계리 579-2대,36.03145291,129.2631535
17140,단구1리마을회관,경상북도 경주시,054-779-6344,경상북도 경주시 강동면 단구리 973-2 대,36.05490998,129.2495508
17139,다산2리 마을회관,경상북도 경주시,054-779-6344,경상북도 경주시 강동면 다산리 1057-1대,36.04841626,129.2450242
17138,다산1리 마을회관,경상북도 경주시,054-779-6344,경상북도 경주시 강동면 다산리 523-1대,36.04473042,129.2503803
17137,국당2리 마을회관,경상북도 경주시,054-779-6344,경상북도 경주시 강동면 국당리 751-5대,35.97561379,129.2880777
17155,내남면 복지회관,경상북도 경주시,054-779-6344,경상북도 경주시 내남면 이조리 156-2 대,35.75224787,129.1997235
17154,남산 경로당,경상북도 경주시,054-779-6344,경상북도 경주시 남산동 341대,35.79386695,129.2446937
17152,화천1리 마을회관,경상북도 경주시,054-779-6344,경상북도 경주시 건천읍 화천리 532-1 대,35.80707097,129.1435119
17151,조전2리 마을회관,경상북도 경주시,054-779-6344,경상북도 경주시 건천읍 조전리 571-14 대,35.83776268,129.0994504
17150,용명3리 마을회관,경상북도 경주시,054-779-6344,경상북도 경주시 건천읍 용명리 652대,35.8708649,129.1175449
17149,신평2리 마을회관,경상북도 경주시,054-779-6344,경상북도 경주시 건천읍 신평리 404-1대,35.86585102,129.0759506
17148,송선1리 마을공동창고,경상북도 경주시,054-779-6344,경상북도 경주시 건천읍 송선리 340-3전,35.83859165,129.0779173
17147,모량 복지회관,경상북도 경주시,054-779-6344,경상북도 경주시 건천읍 모량리 699-12 대,35.82084922,129.1256259
3484,성곡1리경로회관,경상북도 청도군,054-370-2497,경상북도 청도군 풍각면 성곡리 599-5 대,35.66020682,128.5827256
3454,화산복지회관,경상북도 청도군,054-370-2497,경상북도 청도군 풍각면 화산리 186-1 대,35.64143693,128.5563769
3510,중산1리경로당,경상북도 김천시,010-2501-5625,경상북도 김천시 대덕면 중산리  218-3 대,35.938163,127.98104
17163,상신2리마을회관,경상북도 경주시,054-779-6344,경상북도 경주시 내남면 상신리 658 대,35.74899459,129.1591311
17162,비지1리회관,경상북도 경주시,054-779-6344,경상북도 경주시 내남면 비지리 604잡,35.76896113,129.1083199
17159,박달1리마을회관,경상북도 경주시,054-779-6344,경상북도 경주시 내남면 박달리 25-3대,35.74817621,129.1278922
17157,두능경로당,경상북도 경주시,054-779-6344,경상북도 경주시 내남면 망성리 564대,35.78745306,129.1792239
16489,연천1리마을회관,경상북도 문경시,054-550-6322,경상북도 문경시 농암면 연천리  394대,36.615021,127.99645
17156,노곡1리마을회관,경상북도 경주시,054-779-6344,경상북도 경주시 내남면 노곡리 947-5대,35.73728263,129.2029196
16483,석항2리마을회관,경상북도 문경시,054-550-6322,경상북도 문경시 동로면 석항리  632 대,36.784924,128.34418
17153,고란회관,경상북도 경주시,054-779-6344,경상북도 경주시 광명동  608-1대,35.82921,129.14022
3522,덕양1리경로당,경상북도 청도군,054-370-2311,경상북도 청도군 풍각면 덕양리  1572대,35.614779,128.61506
17179,장항2리마을노인회관,경상북도 경주시,054-779-6344,경상북도 경주시 문무대왕면 장항리  366-1 대,35.792355,129.38908
17169,구길문화복지회관,경상북도 경주시,054-779-6344,경상북도 경주시 문무대왕면 구길리 574대,35.74770974,129.4630182
17168,금학경로당,경상북도 경주시,054-779-6344,경상북도 경주시 동천동 140-26대,35.84553288,129.2411612
17167,도지동 경로당,경상북도 경주시,054-779-6344,경상북도 경주시 도지동  680-11대,35.796358,129.2698
17166,월산2리회관,경상북도 경주시,054-779-6344,경상북도 경주시 내남면 월산리 1230-1 대,35.72316091,129.2022861
17165,용산마을회관,경상북도 경주시,054-779-6344,경상북도 경주시 내남면 이조리 1008-356대,35.75061943,129.2049425
17164,새마을복지회관,경상북도 경주시,054-779-6344,경상북도 경주시 내남면 망성리 214대,35.78712647,129.1919093
17160,박달2리마을회관,경상북도 경주시,054-779-6344,경상북도 경주시 내남면 박달리 1808 대,35.73113637,129.1119389
17158,명계2리회관,경상북도 경주시,054-779-6344,경상북도 경주시 내남면 명계리 809-5대,35.72444417,129.2301864
3593,안간리마을회관,경상북도 김천시,054-421-2259,경상북도 김천시 부항면 안간리  348-1 대,36.028944,127.95626
17182,배동 마을회관,경상북도 경주시,054-779-6344,경상북도 경주시 배동 766 대,35.79407171,129.204364
17181,탑마을회관,경상북도 경주시,054-779-6344,경상북도 경주시 문무대왕면 용당리 90대,35.74951985,129.4750386
17178,입천마을 복지회관,경상북도 경주시,054-779-6344,경상북도 경주시 문무대왕면 입천리 498-1 대,35.78774497,129.4221363
17173,안동1리마을회관,경상북도 경주시,054-779-6344,경상북도 경주시 문무대왕면 안동리 223대,35.80722082,129.4157075
17172,봉길리 마을회관,경상북도 경주시,054-779-6344,경상북도 경주시 문무대왕면 봉길리 13-1 대,35.74088658,129.4822301
17171,문무대왕면 복지회관,경상북도 경주시,054-779-6344,경상북도 경주시 문무대왕면 어일리 1295-2 대,35.79361502,129.4397602
17170,두산리장아곡노인정,경상북도 경주시,054-779-6344,경상북도 경주시 문무대왕면 두산리 323대,35.76144895,129.4356071
16554,고곡1리마을회관,경상북도 영덕군,7306325,경상북도 영덕군 축산면 고곡리  228-12대,36.497271,129.41261
3673,대전1리경로당,경상북도 청도군,054-370-2540,경상북도 청도군 이서면 대전리  583-2 답,35.656968,128.63404
3646,칠곡1리경로당,경상북도 청도군,054-370-2540,경상북도 청도군 이서면 칠곡리 175-3대,35.70196139,128.7013095
17177,용동2리오암마을회관,경상북도 경주시,054-779-6344,경상북도 경주시 문무대왕면 용동리 1182-6대,35.81631974,129.4297512
17176,와읍리 마을회관,경상북도 경주시,054-779-6344,경상북도 경주시 문무대왕면 와읍리 451-4 대,35.80524326,129.433009
17175,어일2리 노인정,경상북도 경주시,054-779-6344,경상북도 경주시 문무대왕면 어일리 1295-591 대,35.78032086,129.4373425
17174,어일2리 경로당,경상북도 경주시,054-779-6344,경상북도 경주시 문무대왕면 어일리 576-6 대,35.77929421,129.4460985
16590,용전리 마을회관,경상북도 영덕군,7306325,경상북도 영덕군 달산면 용전리 279-8답,36.39407496,129.2570203
16585,대부리마을회관,경상북도 영덕군,7306325,경상북도 영덕군 영덕읍 대부리 269-23 대,36.40215111,129.4218922
16582,우곡리마을회관,경상북도 영덕군,7306325,경상북도 영덕군 남정면 우곡리 226-2대,36.33237231,129.3564841
16577,천전리마을회관,경상북도 영덕군,7306325,경상북도 영덕군 영덕읍 천전리 216대,36.41197802,129.3582311
3680,칠엽2리경로당,경상북도 청도군,054-370-2311,경상북도 청도군 이서면 칠엽리  429 대,35.67425751,128.627931
3690,대곡1리경로당,경상북도 청도군,054-370-2311,경상북도 청도군 이서면 대곡리  374-4대,35.7230429,128.6988275
17185,내일1리 마을회관,경상북도 경주시,054-779-6344,경상북도 경주시 산내면 내일리 1240-1대,35.76411742,129.0496632
17184,감산복지회관,경상북도 경주시,054-779-6344,경상북도 경주시 산내면 감산리 978-1대,35.79023521,129.0546033
17183,보문 마을회관,경상북도 경주시,054-779-6344,경상북도 경주시 보문동 530-4대,35.83184216,129.2548561
3755,금광1리마을회관,경상북도 포항시,010-4646-7262,경상북도 포항시 남구 동해면 금광리  681대,35.96957281,129.4548919
16610,신양리마을회관,경상북도 영덕군,7306325,경상북도 영덕군 지품면 신양리 196-11대,36.43021347,129.3069275
16601,남정리마을회관,경상북도 영덕군,7306325,경상북도 영덕군 남정면 남정리 352-2 대,36.34523414,129.3623707
16600,남정면사무소,경상북도 영덕군,7306325,경상북도 영덕군 남정면 장사리 398-1대,36.28589894,129.3724464
16591,주응2리마을회관,경상북도 영덕군,7306325,경상북도 영덕군 달산면 주응리 240-4대,36.35899054,129.2789765
16560,신리1리마을회관,경상북도 영덕군,7306325,경상북도 영덕군 창수면 신리리 121-4대,36.58036207,129.3122741
16553,도곡1리마을회관,경상북도 영덕군,7306325,경상북도 영덕군 축산면 도곡리 133대,36.51010313,129.410781
17192,천촌마을회관,경상북도 경주시,054-779-6344,경상북도 경주시 서면 천촌리  930-1 창,35.862656,129.03411
17190,일부2리 마을회관,경상북도 경주시,054-779-6344,경상북도 경주시 산내면 일부리 2224대,35.73423636,129.0075918
17189,외칠리노인회관,경상북도 경주시,054-779-6344,경상북도 경주시 산내면 외칠리 308대,35.75705126,129.0305022
17188,신원1리 마을회관,경상북도 경주시,054-779-6344,경상북도 경주시 산내면 신원리 278 대,35.76189085,129.0102919
17187,산내면 주민자치센터,경상북도 경주시,054-779-6344,경상북도 경주시 산내면 의곡리 150-1 대,35.75760563,129.0471643
17186,내칠2리 경로당,경상북도 경주시,054-779-6344,경상북도 경주시 산내면 내칠리 1071대,35.77556998,129.0185708
16559,가산2리회관,경상북도 영덕군,7306325,경상북도 영덕군 창수면 가산리 315 대,36.56096264,129.3375679
16558,수리마을회관,경상북도 영덕군,7306325,경상북도 영덕군 창수면 수리 225 대,36.64427897,129.3069572
16556,상원리마을회관,경상북도 영덕군,7306325,경상북도 영덕군 축산면 상원리 221-1대,36.50737694,129.3992274
16555,부곡리가마실경로당,경상북도 영덕군,7306325,경상북도 영덕군 축산면 부곡리 132-1 대,36.50324803,129.3784398
16588,각리1리마을회관,경상북도 영덕군,7306325,경상북도 영덕군 병곡면 각리리 382-61대,36.56373753,129.3868433
16584,구미리마을회관,경상북도 영덕군,7306325,경상북도 영덕군 영덕읍 구미리 155대,36.43346054,129.3546172
16579,화천2리마을회관,경상북도 영덕군,7306325,경상북도 영덕군 영덕읍 화천리 422-20대,36.46336046,129.360767
16573,대진1리회관,경상북도 영덕군,7306325,경상북도 영덕군 영해면 대진리 370대,36.56240261,129.430025
16569,지품리마을회관,경상북도 영덕군,7306325,경상북도 영덕군 지품면 지품리 69 대,36.48239494,129.1821035
16568,눌곡1길마을회관,경상북도 영덕군,7306325,경상북도 영덕군 지품면 눌곡리 224-7 대,36.43889926,129.289394
16567,복곡리마을회관,경상북도 영덕군,7306325,경상북도 영덕군 지품면 복곡리 157-1 창,36.47391593,129.1976067
16565,원전리회관,경상북도 영덕군,7306325,경상북도 영덕군 지품면 원전리 409대,36.48436912,129.1888054
16561,인천2리마을회관,경상북도 영덕군,7306325,경상북도 영덕군 창수면 인천리 213-9 대,36.63803615,129.2836858
16557,인량2리회관,경상북도 영덕군,7306325,경상북도 영덕군 창수면 인량리 411대,36.55150804,129.3677582
17193,심곡마을회관,경상북도 경주시,054-779-6344,경상북도 경주시 서면 심곡리  755-5대,35.89954862,129.0547027
17199,갑산1리 회관,경상북도 경주시,054-779-6344,경상북도 경주시 안강읍 갑산리 310-4대,35.97851497,129.2261851
17198,시동회관,경상북도 경주시,054-779-6344,경상북도 경주시 시동 998-207대,35.75794533,129.2752428
17194,석장경로회관,경상북도 경주시,054-779-6344,경상북도 경주시 석장동 811대,35.86148306,129.1872002
16599,우곡리마을회관,경상북도 영덕군,7306325,경상북도 영덕군 남정면 우곡리 226-2대,36.33237231,129.3564895
16598,회3리마을회관,경상북도 영덕군,7306325,경상북도 영덕군 남정면 회리 700-5 구,36.27450642,129.3302972
16566,삼화1리마을회관,경상북도 영덕군,7306325,경상북도 영덕군 지품면 삼화리 58-1대,36.43969478,129.3313774
16564,삼화2리마을회관,경상북도 영덕군,7306325,경상북도 영덕군 지품면 삼화리 539-1 답,36.44697777,129.3231739
16562,삼계1리마을회관,경상북도 영덕군,7306325,경상북도 영덕군 창수면 삼계리 810답,36.62498219,129.3146141
3857,김전1리마을회관,경상북도 청도군,054-370-2590,경상북도 청도군 금천면 김전리 106대,35.73639716,128.8655115
16608,화전1리회관,경상북도 영덕군,7306325,경상북도 영덕군 강구면 화전리 산55-1임,36.35855396,129.3657227
16606,오포1리마을회관,경상북도 영덕군,7306325,경상북도 영덕군 강구면 오포리 353-5대,36.36394611,129.3757481
16593,대지1리마을회관,경상북도 영덕군,7306325,경상북도 영덕군 달산면 대지리 351대,36.39771522,129.3030288
16592,흥기2리회관,경상북도 영덕군,7306325,경상북도 영덕군 달산면 흥기리 502-1 대,36.37194527,129.3086861
16589,인곡리경로회관,경상북도 영덕군,7306325,경상북도 영덕군 달산면 인곡리 116대,36.40866362,129.2739313
16586,삼계리마을회관,경상북도 영덕군,7306325,경상북도 영덕군 영덕읍 삼계리 273대,36.42898398,129.4015958
16583,남산2리마을회관,경상북도 영덕군,7306325,경상북도 영덕군 영덕읍 남산리 608-2 대,36.39547459,129.3609559
16576,남산1리회관,경상북도 영덕군,7306325,경상북도 영덕군 영덕읍 남산리 232-1 대,36.392232,129.3691752
16570,벌영1리마을회관,경상북도 영덕군,7306325,경상북도 영덕군 영해면 벌영리 389-1대,36.53695758,129.4011927
1856,월곡2리마을회관,경상북도 청도군,054-370-2311,경상북도 청도군 청도읍 월곡리  210-15 대,35.625642,128.76558
2049,심천1리경로당,경상북도 칠곡군,054-979-6652,경상북도 칠곡군 지천면 심천리  439 대,35.955638,128.50406
3958,월외1리마을회관,경상북도 청송군,870-6312,경상북도 청송군 청송읍 월외리  403대,36.441683,129.10885
16633,구계마을회관,경상북도 영덕군,7306325,경상북도 영덕군 남정면 구계리 229대,36.31987244,129.3791384
16615,우곡리경로당,경상북도 영덕군,7306325,경상북도 영덕군 영덕읍 우곡리 401-3대,36.40522323,129.376456
16614,신기1리마을회관,경상북도 영덕군,7306325,경상북도 영덕군 창수면 신기리 64-6대,36.54742623,129.3470195
16611,지품면사무소,경상북도 영덕군,7306325,경상북도 영덕군 지품면 신안리 186-4대,36.44836368,129.2817433
16607,오포3리마을회관,경상북도 영덕군,7306325,경상북도 영덕군 강구면 오포리 3-90대,36.35664982,129.3867227
16603,상직2리마을회관,경상북도 영덕군,7306325,경상북도 영덕군 강구면 상직리 251-4대,36.38354496,129.3541247
16587,아곡리마을회관,경상북도 영덕군,7306325,경상북도 영덕군 병곡면 아곡리 293대,36.58373811,129.3841511
16575,성내3리마을회관,경상북도 영덕군,7306325,경상북도 영덕군 영해면 성내리 687-6답,36.53543698,129.40552
16617,금호2리마을회관,경상북도 영덕군,7306325,경상북도 영덕군 강구면 금호리 277-1대,36.38791966,129.3826692
16612,봉전2리마을회관,경상북도 영덕군,7306325,경상북도 영덕군 남정면 봉전리 302-2대,36.29715059,129.3471468
16609,금호1리경로당,경상북도 영덕군,7306325,경상북도 영덕군 강구면 금호리 700-111대,36.37364186,129.3871001
16605,상직1리노인정,경상북도 영덕군,7306325,경상북도 영덕군 강구면 상직리 251-4대,36.38356224,129.3541139
16602,하저리새마을회관,경상북도 영덕군,7306325,경상북도 영덕군 강구면 하저리 396-5대,36.39012636,129.4067038
16596,양성리마을회관,경상북도 영덕군,7306325,경상북도 영덕군 남정면 양성리 174-2대,36.2825569,129.3665979
16594,옥산1리마을회관,경상북도 영덕군,7306325,경상북도 영덕군 달산면 옥산리 122-1대,36.35858884,129.2866787
16581,매정1리마을회관,경상북도 영덕군,7306325,경상북도 영덕군 영덕읍 매정리 83-8 대,36.44503254,129.4210102
16580,화개2리마을회관,경상북도 영덕군,7306325,경상북도 영덕군 영덕읍 화개리 309-5대,36.4229409,129.3633334
16578,노물노인회관,경상북도 영덕군,7306325,경상북도 영덕군 영덕읍 노물리 39대,36.44585091,129.4342367
16629,오촌1리회관,경상북도 영덕군,7306325,경상북도 영덕군 창수면 오촌리 242-20 대,36.61198771,129.3223364
16627,신안리마을회관,경상북도 영덕군,7306325,경상북도 영덕군 지품면 신안리 94-16 대,36.44873734,129.2828362
16626,성내4리노인정,경상북도 영덕군,7306325,경상북도 영덕군 영해면 성내리 804-3대,36.53333874,129.4055003
16625,사암2리마을회관,경상북도 영덕군,7306325,경상북도 영덕군 남정면 사암리 322-3대,36.32943118,129.3110629
16624,부흥1리마을회관,경상북도 영덕군,7306325,경상북도 영덕군 남정면 부흥리 98-12답,36.29178722,129.3766979
16622,덕곡2리마을회관,경상북도 영덕군,7306325,경상북도 영덕군 영덕읍 덕곡리 115-8대,36.41236638,129.3758284
16621,남석3리마을회관,경상북도 영덕군,7306325,경상북도 영덕군 영덕읍 남석리 66-20대,36.4099579,129.3686422
16620,괴시3리경로당,경상북도 영덕군,7306325,경상북도 영덕군 영해면 괴시리 132-3대,36.5396376,129.4125053
16616,금진1리마을회관,경상북도 영덕군,7306325,경상북도 영덕군 강구면 금진리 132대,36.37730813,129.4020328
16613,금진1리마을회관,경상북도 영덕군,7306325,경상북도 영덕군 강구면 금진리 132대,36.37731677,129.4020006
17207,가곡1리마을회관,경상북도 예천군,054-650-6579,경상북도 예천군 개포면 가곡리  49-17대,36.606581,128.35567
4080,화장리 마을회관,경상북도 청송군,870-6312,경상북도 청송군 부남면 화장리  475-2 대,36.301029,129.14175
4074,양숙1리경로당,경상북도 청송군,870-6312,경상북도 청송군 부남면 양숙리  772 대,36.282355,129.12203
17206,청령마을회관,경상북도 경주시,054-779-6344,경상북도 경주시 안강읍 청령리 720-71 대,35.91782619,129.2314266
17202,노당1리 마을회관,경상북도 경주시,054-779-6344,경상북도 경주시 안강읍 노당리 316-5전,36.03752537,129.2296845
17201,근계2리 마을회관,경상북도 경주시,054-779-6344,경상북도 경주시 안강읍 근계리 867-7 잡,35.97924447,129.2106865
17200,검단2리 마을회관,경상북도 경주시,054-779-6344,경상북도 경주시 안강읍 검단리 1468-27 대,35.93268053,129.2079499
16630,오포2리마을회관,경상북도 영덕군,7306325,경상북도 영덕군 강구면 오포리 607-3대,36.35572237,129.3792573
16628,신안주민회관,경상북도 영덕군,7306325,경상북도 영덕군 지품면 신안리 94-16 대,36.4487379,129.2828277
14287,지경경로당,대구광역시 동구,053-662-4122,경상북도 경산시 와촌면 음양리 959창,35.96406906,128.7436958
4096,갈천리경로당,경상북도 청송군,870-6312,경상북도 청송군 현서면 갈천리  898-1 대,36.19225559,128.9438782
4076,두현1리경로당,경상북도 청송군,870-6312,경상북도 청송군 현서면 두현리  930-2 대,36.289606,128.92246
4084,소근리경로당,경상북도 청송군,870-6312,경상북도 청송군 현서면 두현리  173-1 전,36.265538,128.93347
17225,수렴2리마을회관,경상북도 경주시,054-779-6344,경상북도 경주시 양남면 수렴리 425-37대,35.66238956,129.4516356
17224,석촌리마을회관,경상북도 경주시,054-779-6344,경상북도 경주시 양남면 석촌리 216 대,35.70862019,129.414755
17218,상라리마을회관,경상북도 경주시,054-779-6344,경상북도 경주시 양남면 상라리 212-1 대,35.73929885,129.4380934
17208,하강경로당,경상북도 경주시,054-779-6344,경상북도 경주시 안강읍 하곡리 654-1대,35.9797819,129.1401031
17205,옥산3리 회관,경상북도 경주시,054-779-6344,경상북도 경주시 안강읍 옥산리 181대,36.00174053,129.171282
17204,사방리 노인정,경상북도 경주시,054-779-6344,경상북도 경주시 안강읍 사방리 672-2답,35.93846039,129.229716
17203,두류1리마을회관,경상북도 경주시,054-779-6344,경상북도 경주시 안강읍 두류리 1685 대,35.99123195,129.1614814
17230,다솜문화복지회관,경상북도 예천군,054-650-6579,경상북도 예천군 은풍면 우곡리  100-1 전,36.743714,128.44395
17251,은산1리서사노인회관,경상북도 예천군,054-650-6579,경상북도 예천군 은풍면 은산리  39-1 대,36.773053,128.45451
17209,갈음밭경로당,경상북도 예천군,054-650-6579,경상북도 예천군 호명면 본리  210-2대,36.590539,128.48801
17259,보덕동 행정복지센터,경상북도 경주시,054-779-6344,경상북도 경주시 천군동 168-10전,35.83456391,129.2874436
17250,활성리 경로회관(연지암),경상북도 경주시,054-779-6344,경상북도 경주시 외동읍 활성리 378종,35.75349036,129.3277956
17247,제내2리 경로회관,경상북도 경주시,054-779-6344,경상북도 경주시 외동읍 제내리 742-4대,35.70874091,129.271009
17245,외동읍 읍민체육회관,경상북도 경주시,054-779-6344,경상북도 경주시 외동읍 입실리 1344-160대,35.71391119,129.3288564
17215,상계리 마을회관,경상북도 경주시,054-779-6344,경상북도 경주시 양남면 상계리 155대,35.67015732,129.4228616
17214,나산마을회관,경상북도 경주시,054-779-6344,경상북도 경주시 양남면 나산리 205 대,35.70952009,129.4595055
17210,대성마을회관,경상북도 경주시,054-779-6344,경상북도 경주시 암곡동 1337-2도,35.85426705,129.3040853
17261,수계2리마을회관,경상북도 예천군,054-650-6579,경상북도 예천군 보문면 수계리  482-2대,36.672205,128.54438
4141,봉천1리마을회관,경상북도 김천시,054-421-2064,경상북도 김천시 남면 봉천리  1002대,36.141073,128.21691
17254,율동 마을회관,경상북도 경주시,054-779-6344,경상북도 경주시 율동 1655-1대,35.80352977,129.1830391
17238,녹동리 마을회관,경상북도 경주시,054-779-6344,경상북도 경주시 외동읍 녹동리 464 대,35.66130955,129.2836229
17229,효동1리회관,경상북도 경주시,054-779-6344,경상북도 경주시 양남면 효동리 1229대,35.74214454,129.3920198
17228,환서1리마을회관,경상북도 경주시,054-779-6344,경상북도 경주시 양남면 환서리 688대,35.6928367,129.4455863
17226,양남면 행정복지센터,경상북도 경주시,054-779-6344,경상북도 경주시 양남면 하서리 936-5대,35.67749479,129.4603894
17223,석촌리경로당,경상북도 경주시,054-779-6344,경상북도 경주시 양남면 석촌리 111대,35.71185543,129.4162087
17216,상라리노인정,경상북도 경주시,054-779-6344,경상북도 경주시 양남면 상라리 155 대,35.73148478,129.443965
17211,기구리마을회관,경상북도 경주시,054-779-6344,경상북도 경주시 양남면 기구리 242대,35.69870833,129.4208636
17258,효갈1리경로당,경상북도 예천군,054-650-6579,경상북도 예천군 풍양면 효갈리  958대,36.478121,128.27167
17244,솔경지노인회관,경상북도 예천군,054-650-6579,경상북도 예천군 은풍면 오류리  340잡,36.72451,128.43693
17253,중평경로당,경상북도 예천군,054-650-6579,경상북도 예천군 유천면 중평리  6-5대,36.664995,128.3582
17261,수계2리마을회관,경상북도 예천군,054-650-6579,경상북도 예천군 보문면 수계리  482-2대,36.672205,128.54438
4207,세장리황곡경로당,경상북도 청송군,870-6312,경상북도 청송군 진보면 세장리  59-5 대,36.57535897,129.0309414
17262,물천2리노인정,경상북도 경주시,054-779-6344,경상북도 경주시 천북면 물천리 1019-1대,35.86995908,129.2733889
17254,율동 마을회관,경상북도 경주시,054-779-6344,경상북도 경주시 율동 1655-1대,35.80352977,129.1830391
17243,신계리 마을회관,경상북도 경주시,054-779-6344,경상북도 경주시 외동읍 신계리 872-5임,35.77096322,129.3261369
17242,모화3리 경로회관,경상북도 경주시,054-779-6344,경상북도 경주시 외동읍 모화리 242대,35.67702432,129.33592
17231,개곡2리 마을회관,경상북도 경주시,054-779-6344,경상북도 경주시 외동읍 개곡리 1348-5대,35.73676036,129.3183664
17234,덕율2리경로당,경상북도 예천군,054-650-6579,경상북도 예천군 감천면 덕율리  609-24대,36.701516,128.50188
17252,용강동주민자치센터,경상북도 경주시,054-779-6344,경상북도 경주시 용강동  1316-2대,35.864233,129.22313
4218,괴정2리이무곡경로당,경상북도 청송군,870-6312,경상북도 청송군 진보면 괴정리  214-15 대,36.49284409,129.1446862
17285,상구마을회관,경상북도 경주시,054-779-6344,경상북도 경주시 현곡면 상구리 257-2대,35.87764649,129.1558245
17284,무과리복지회관,경상북도 경주시,054-779-6344,경상북도 경주시 현곡면 무과리 415 대,35.90351598,129.1712461
17275,화산3리마을회관,경상북도 경주시,054-779-6344,경상북도 경주시 천북면 화산리 1015대,35.92253326,129.2766221
17260,덕산리 마을회관,경상북도 경주시,054-779-6344,경상북도 경주시 천북면 덕산리 657-3대,35.88651578,129.2654524
17239,마능 경로당,경상북도 경주시,054-779-6344,경상북도 경주시 외동읍 북토리 520 대,35.74275478,129.2823609
17235,구어2리회관,경상북도 경주시,054-779-6344,경상북도 경주시 외동읍 구어리 185대,35.69958089,129.3280392
17233,괘릉동회관,경상북도 경주시,054-779-6344,경상북도 경주시 외동읍 괘릉리 503대,35.76382819,129.3219127
17249,은산1리새마을회관,경상북도 예천군,054-650-6579,경상북도 예천군 은풍면 은산리  166-1 대,36.76863,128.45251
16324,장기리마을회관,경상북도 고령군,054-950-7404,경상북도 고령군 대가야읍 장기리  21-4대,35.728318,128.28104
4316,부상2리마을회관,경상북도 김천시,054-421-2064,경상북도 김천시 남면 부상리  60대,36.061549,128.29823
4314,부상1리마을회관,경상북도 김천시,054-421-2064,경상북도 김천시 남면 부상리  555-63대,36.068985,128.2648
4334,운곡리마을회관,경상북도 김천시,054-421-2064,경상북도 김천시 남면 운곡리  387-2대,36.094175,128.21779
17283,내태2리 마을회관,경상북도 경주시,054-779-6344,경상북도 경주시 현곡면 래태리 217-2대,35.91339889,129.1643445
17274,화산2리마을회관,경상북도 경주시,054-779-6344,경상북도 경주시 천북면 화산리 733-2대,35.91244978,129.2887754
17273,화산1리회관,경상북도 경주시,054-779-6344,경상북도 경주시 천북면 화산리 253-2대,35.92687012,129.2890053
17270,신당1리노인정,경상북도 경주시,054-779-6344,경상북도 경주시 천북면 신당리 460-1잡,35.90135772,129.2463088
17240,모화1리 노인정,경상북도 경주시,054-779-6344,경상북도 경주시 외동읍 모화리 572 대,35.68364609,129.334434
1291,예곡리마을회관,경상북도 고령군,054-950-7404,경상북도 고령군 우곡면 예곡리  435-1 대,35.657757,128.36824
17281,하동 마을회관,경상북도 경주시,054-779-6344,경상북도 경주시 하동  622-2대,35.797733,129.3142
17288,하구2리 마을회관,경상북도 경주시,054-779-6344,경상북도 경주시 현곡면 하구리 221-1대,35.8935903,129.1661049
17287,오류1리 마을회관,경상북도 경주시,054-779-6344,경상북도 경주시 현곡면 오류리 512-4대,35.87951529,129.1952243
17286,소현1리 마을회관,경상북도 경주시,054-779-6344,경상북도 경주시 현곡면 소현리 626-5대,35.89248396,129.179648
17282,가정1리경로당,경상북도 경주시,054-779-6344,경상북도 경주시 현곡면 가정리 280대,35.90507003,129.1521983
17280,평동 경로당,경상북도 경주시,054-779-6344,경상북도 경주시 평동 386-9대,35.78349667,129.2670973
17279,재동마을회관,경상북도 경주시,054-779-6344,경상북도 경주시 충효동 1600대,35.84506431,129.1628314
17278,선도동 행정복지센터,경상북도 경주시,054-779-6344,경상북도 경주시 충효동 544-3 대,35.8437232,129.174852
17271,신당2리경로회관,경상북도 경주시,054-779-6344,경상북도 경주시 천북면 신당리 840-4대,35.88867101,129.2408509
4715,청산2리회관,경상북도 의성군,054-830-6521,경상북도 의성군 구천면 청산리  614-2,36.326539,128.42053
4741,어천2리경로회관,경상북도 청송군,870-6312,경상북도 청송군 파천면 어천리  588 답,36.483665,129.0105
4733,중평마을회관,경상북도 청송군,870-6312,경상북도 청송군 파천면 중평리  388-2답,36.45749649,129.0225294
4753,신기1리마을회관,경상북도 청송군,870-6312,경상북도 청송군 파천면 신기리  713-3대,36.48394806,129.0327243
4744,신흥2리경로당,경상북도 청송군,870-6312,경상북도 청송군 파천면 덕천리  74-3전,36.430639,129.02599
17291,와산마을회관,경상북도 경주시,054-779-6344,경상북도 경주시 효현동 870 대,35.8278365,129.1566526
5042,남양2리경로당,경상북도 청도군,054-370-2311,경상북도 청도군 매전면 남양리  521-1대,35.6495611,128.8909185
5090,매전온막복지회관,경상북도 청도군,054-370-2611,경상북도 청도군 매전면 온막리 743대,35.64093376,128.8365029
5062,상평리경로회관,경상북도 청도군,054-370-2611,경상북도 청도군 매전면 상평리 902-1대,35.70546408,128.8237761
4745,신창1리마을회관,경상북도 포항시,010-2425-3988,경상북도 포항시 남구 장기면 신창리 177-47 대,35.89385769,129.5240986
16772,길동경로당(대창면 오길리 571-1),경상북도 영천시,054-339-7987,경상북도 영천시 대창면 오길리  571-1,35.86552,128.92838
16778,부리마을회관(고경면 부리 173),경상북도 영천시,054-339-7836,경상북도 영천시 고경면 부리  173대,35.972938,129.04612
16776,보현산별빛테마마을(화북면 정각리 760-1),경상북도 영천시,054-339-7435,경상북도 영천시 화북면 정각리  760-1학,36.139238,128.99469
16771,구지장곡경로당(대창면 구지리 1247-3),경상북도 영천시,054-339-7987,경상북도 영천시 대창면 구지리  1247-3 대,35.862493,128.87905
5222,도암2리마을회관,경상북도 김천시,054-421-2127,경상북도 김천시 어모면 도암리  505 대,36.208286,128.09746
10531,기양2리마을회관,경상북도 울진군,054-789-6844,경상북도 울진군 매화면 기양리  1199-5,36.897921,129.37019
3166,추량1리마을회관,경상북도 김천시,010-3548-5348,경상북도 김천시 대덕면 추량리  298대,35.919985,127.98038
2442,덕전1리경로당,경상북도 김천시,054-421-2156,경상북도 김천시 대항면 덕전리  420-4임,36.110468,128.04944
5175,신원리노인회관,남부지방산림청 구미국유림관리소,054-712-4141,경상북도 청도군 운문면 신원리  1233대,35.684134,128.96087
5104,관하1리경로회관,경상북도 청도군,054-370-2611,경상북도 청도군 매전면 관하리 340대,35.71209237,128.8162995
17315,감천2리경로당,경상북도 영양군,054-680-6622,경상북도 영양군 영양읍 감천리  581-7대,36.620352,129.08986
17311,가곡리 마을회관,경상북도 영양군,054-680-6622,경상북도 영양군 일월면 가곡리  253-1 대,36.730942,129.08544
17375,도곡리마을회관,경상북도 영양군,054-680-6622,경상북도 영양군 일월면 도곡리  373-4 대,36.750015,129.08488
17376,동부2리마을회관,경상북도 영양군,054-680-6622,경상북도 영양군 영양읍 동부리  442-5 대,36.670143,129.11423
17377,본신리마을회관,경상북도 영양군,054-680-6622,경상북도 영양군 수비면 본신리  76 대,36.765072,129.27415
16786,안온경로당(화남면 안천리 1623),경상북도 영천시,054-339-7531,경상북도 영천시 화남면 안천리  1623 대,36.089918,128.86694
10322,예지1리마을회관,경상북도 김천시,054-421-2143,경상북도 김천시 봉산면 예지리  95대,36.147977,128.063
17312,가천리마을회관,경상북도 영양군,054-680-6622,경상북도 영양군 일월면 가천리  406-3대,36.713268,129.15992
17313,감천1리마을회관,경상북도 영양군,054-680-6622,경상북도 영양군 영양읍 감천리  758-12 대,36.63273,129.08921
17310,산포3리마을회관,경상북도 울진군,054-789-6841,경상북도 울진군 근남면 산포리 75-1 대,36.9465212,129.4172642
17380,산해3리마을회관,경상북도 영양군,054-680-6622,경상북도 영양군 입암면 산해리  818 대,36.595977,129.05478
17382,삼지1리마을회관,경상북도 영양군,054-680-6622,경상북도 영양군 영양읍 삼지리  312-2대,36.666584,129.12809
17385,수하2리마을회관,경상북도 영양군,054-680-6622,경상북도 영양군 수비면 수하리  401-1 대,36.8249,129.25981
17386,신구2리마을회관,경상북도 영양군,054-680-6622,경상북도 영양군 입암면 신구리  264-2대,36.600578,129.0867
17378,산운리새마을회관,경상북도 영양군,054-680-6622,경상북도 영양군 청기면 산운리  127,36.715931,129.07354
17317,관기2리마을회관,경상북도 김천시,010-7158-0041,경상북도 김천시 대덕면 관기리  238-2대,35.917918,127.97094
17321,광기2리마을회관,경상북도 김천시,010-6760-1730,경상북도 김천시 감천면 광기리  268-3 대,36.068099,128.13706
17381,산해4리마을회관,경상북도 영양군,054-680-6622,경상북도 영양군 입암면 산해리 1008-2 대,36.59242286,129.0364773
16826,명전보건진료소,경상북도 문경시,054-550-6322,경상북도 문경시 동로면 명전길 13,36.85436135,128.2819078
5390,안룡1리회관,남부지방산림청 구미국유림관리소,054-712-4141,경상북도 상주시 이안면 안용리  307 대,36.593927,128.13119
17391,요원2리마을회관,경상북도 영양군,054-680-6622,경상북도 영양군 석보면 요원리  67-2 대,36.578627,129.20524
17395,장파경로당,경상북도 영양군,054-680-6622,경상북도 영양군 수비면 죽파리  417-6 대,36.72622,129.22487
17396,정족1리마을회관,경상북도 영양군,054-680-6622,경상북도 영양군 청기면 정족리  1111-1대,36.680241,129.05799
17389,신평리마을회관,경상북도 영양군,054-680-6622,경상북도 영양군 석보면 신평리  174 대,36.542329,129.16121
17390,연당1리마을회관,경상북도 영양군,054-680-6622,경상북도 영양군 입암면 연당리  379대,36.611451,129.06932
17392,용화1리마을회관,경상북도 영양군,054-680-6622,경상북도 영양군 일월면 용화리 37-1 대,36.7920927,129.1525603
17388,신원2리마을회관,경상북도 영양군,054-680-6622,경상북도 영양군 수비면 신원리 165 대,36.75473851,129.2213589
52,우산2리마을회관,경상북도 상주시,054-537-8419,경상북도 상주시 외서면 우산리  208-9대,36.46552246,128.0630655
54,계산2동마을회관,경상북도 상주시,054-537-8631,경상북도 상주시 계산동  312-1 대,36.426497,128.16516
5458,화남면행정복지센터,남부지방산림청 구미국유림관리소,054-712-4141,경상북도 상주시 화남면 평온리  187-1대,36.44832362,127.9055726
17397,주곡2리마을회관,경상북도 영양군,054-680-6622,경상북도 영양군 일월면 주곡리  28-1 대,36.71076,129.10855
17401,택전1리새마을회관,경상북도 영양군,054-680-6622,경상북도 영양군 석보면 택전리  366학,36.538282,129.16231
17402,토곡1리마을회관,경상북도 영양군,054-680-6622,경상북도 영양군 청기면 토곡리  353대,36.682604,129.03663
17406,화천1리마을회관,경상북도 영양군,054-680-6622,경상북도 영양군 영양읍 화천리  879-5대,36.645175,129.17104
16812,계지리마을경로회관(청통면 계지리 120),경상북도 영천시,054-339-7133,경상북도 영천시 청통면 계지리  120 대,36.009245,128.82332
17329,금곡내기경로당,경상북도 김천시,010-9814-1109,경상북도 김천시 증산면 금곡리  285-2대,35.877345,128.04389
17325,광명2리마을회관,경상북도 김천시,010-6478-9734,경상북도 김천시 구성면 광명리  144-3 대,36.056853,128.0818
17328,교전경로당,경상북도 김천시,010-8262-3547,경상북도 김천시 감문면 남곡리  251-1 대,36.210713,128.14129
17326,교동경로당,경상북도 김천시,010-9776-4411,경상북도 김천시 교동  458대,36.13894,128.09512
17398,주남리마을회관,경상북도 영양군,054-680-6622,경상북도 영양군 석보면 주남리 450-14 대,36.56143426,129.146923
17404,현1리마을회관,경상북도 영양군,054-680-6622,경상북도 영양군 영양읍 현리  295-1 대,36.653531,129.11863
17405,화랑용수경로당,경상북도 영양군,054-680-6622,경상북도 영양군 수비면 발리리  109-1 대,36.781061,129.20167
17403,토구리마을회관,경상북도 영양군,054-680-6622,경상북도 영양군 청기면 토구리  169-1 대,36.707743,129.04562
17333,도곡2리마을회관,경상북도 김천시,010-4310-2759,경상북도 김천시 지례면 도곡리  193-1 잡,35.970597,128.0239
17330,금평2리마을회관,경상북도 김천시,010-6478-9734,경상북도 김천시 구성면 금평리  655-1 대,36.021551,128.06632
17331,다남4리마을회관,경상북도 김천시,010-7479-0620,경상북도 김천시 어모면 다남리  552구,36.172209,128.15131
17332,대신2리마을회관,경상북도 김천시,010-7393-6514,경상북도 김천시 아포읍 대신리  1154-3대,36.153274,128.19487
6170,대동배2리마을회관,경상북도 포항시,010-8669-8261,경상북도 포항시 남구 호미곶면 대동배리  50-1대,36.065731,129.54018
6173,대동배1리마을회관,경상북도 포항시,010-8876-9196,경상북도 포항시 남구 호미곶면 대동배리  393대,36.056978,129.53275
65,교촌1리 경로당,경상북도 상주시,054-537-8013,경상북도 상주시 함창읍 교촌리 226 대,36.57619279,128.1576392
6161,남원2리회관,경상북도 칠곡군,054-979-6652,경상북도 칠곡군 동명면 남원리  175-42 대,36.01213,128.58628
17410,방전리마을회관,경상북도 영양군,054-680-6622,경상북도 영양군 입암면 방전리  395-3 대,36.555786,129.08602
17411,병옥리마을회관,경상북도 영양군,054-680-6622,경상북도 영양군 입암면 병옥리  367-9대,36.565566,129.07899
17412,섬촌리마을회관,경상북도 영양군,054-680-6622,경상북도 영양군 일월면 섬촌리  616 창,36.706206,129.14061
17338,문의2리회관,경상북도 김천시,010-7158-0041,경상북도 김천시 대덕면 문의리  262-2 대,35.879442,127.94109
17339,사등2리마을회관,경상북도 김천시,010-3205-2659,경상북도 김천시 부항면 사등리  683-3 대,35.989952,127.95852
17336,도평1리마을회관,경상북도 김천시,010-6760-1730,경상북도 김천시 감천면 도평리  465-11대,36.061179,128.12528
17334,도명리마을회관,경상북도 김천시,010-8262-3547,경상북도 김천시 감문면 도명리  560-2대,36.209808,128.13227
17413,송하리마을회관,경상북도 영양군,054-680-6622,경상북도 영양군 수비면 송하리 365-2대,36.70080839,129.1920995
5438,신곡2리회관(미실),경상북도 김천시,010-350-87280,경상북도 김천시 조마면 신곡리  1023-9전,35.981542,128.09401
17416,당리자시목마을회관,경상북도 영양군,054-680-6622,경상북도 영양군 청기면 당리  414-1 대,36.765184,129.05815
2523,금송2리마을회관,경상북도 김천시,054-421-2183,경상북도 김천시 감천면 금송리  523-2잡,36.08711,128.13344
17344,석정마을회관,경상북도 김천시,010-7158-0041,경상북도 김천시 대덕면 가례리  265-1 대,35.954973,127.98354
17342,상좌원마을회관,경상북도 김천시,010-6478-9734,경상북도 김천시 구성면 상좌원리  646 대,36.034971,128.04375
17348,신왕2리회관,경상북도 김천시,054-421-2159,경상북도 김천시 조마면 신왕리  723-1대,36.027436,128.1335
17343,서부리마을회관,경상북도 김천시,054-421-2074,경상북도 김천시 개령면 서부리  306 대,36.163825,128.18033
17314,감문면복지회관,경상북도 김천시,010-8262-3547,경상북도 김천시 감문면 보광리  400-1 대,36.213967,128.18158
17345,송천4리마을회관,경상북도 김천시,010-7393-6514,경상북도 김천시 아포읍 송천리  1387-16대,36.148755,128.28213
17417,주곡리새마을회관,경상북도 영양군,054-680-6622,경상북도 영양군 일월면 주곡리 179-2대,36.72005442,129.0983462
17415,오리리새마을회관,경상북도 영양군,054-680-6622,경상북도 영양군 일월면 오리리 111-3 전,36.74296702,129.1369819
17353,예서마을회관,경상북도 김천시,010-7158-0041,경상북도 김천시 대덕면 대리  690대,35.875383,127.93004
17351,어전2리마을회관,경상북도 김천시,010-3205-2659,경상북도 김천시 부항면 어전리  675-2대,35.983287,127.91801
17359,장자동경로당,경상북도 김천시,010-3205-2659,경상북도 김천시 부항면 사등리  761 대,35.984884,127.96151
17358,작내마을회관,경상북도 김천시,010-6478-9734,경상북도 김천시 구성면 작내리  163-2대,36.015563,128.02112
17355,은기3리마을회관,경상북도 김천시,010-7479-0620,경상북도 김천시 어모면 은기리  493-2대,36.19741,128.08624
17352,연명마을회관,경상북도 김천시,010-8406-1787,경상북도 김천시 농소면 연명리  348-5대,36.078933,128.19953
17354,월곡4리경로당,경상북도 김천시,010-8406-1787,경상북도 김천시 농소면 월곡리  1018대,36.101835,128.16587
135,개운2동마을회관,경상북도 상주시,054-537-8571,경상북도 상주시 개운동  396대,36.387198,128.12643
105,대포1리마을회관,경상북도 상주시,054-537-8300,경상북도 상주시 모서면 대포리  142-6대,36.356321,128.01393
110,덕곡1리마을회관,경상북도 상주시,054-537-8267,경상북도 상주시 모동면 덕곡리  499-1 대,36.327286,127.98762
17367,당리새마을회관,경상북도 영양군,054-680-6622,경상북도 영양군 청기면 당리  648-8대,36.75528,129.0528
17362,금학리새마을회관,경상북도 영양군,054-680-6622,경상북도 영양군 입암면 금학리  240-4대,36.630233,129.02556
17364,기포리새마을회관,경상북도 영양군,054-680-6622,경상북도 영양군 청기면 기포리  271 대,36.726488,129.03867
138,묵상리새마을회관,경상북도 상주시,054-537-8061,경상북도 상주시 사벌국면 묵상리  1114-51 전,36.490517,128.2378
141,문창1리마을회관,경상북도 상주시,010-537-8507,경상북도 상주시 이안면 문창리  751 대,36.583076,128.12725
17365,지례면복지회관,경상북도 김천시,010-4310-2759,경상북도 김천시 지례면 상부리  642대,35.984452,128.02758
17366,태촌2리완동마을회관,경상북도 김천시,010-8262-3547,경상북도 김천시 감문면 태촌리  496-1대,36.202652,128.22376
17360,중왕1리마을회관,경상북도 김천시,010-7479-0620,경상북도 김천시 어모면 중왕리  533대,36.17884,128.11811
17370,황산경로당,경상북도 김천시,010-8701-7232,경상북도 김천시 지좌동  709-2도,36.116737,128.13688
10216,호리마을회관,경상북도 포항시,010-9494-0712,경상북도 포항시 북구 신광면 호리  425대,36.132035,129.29203
17492,보손2리마을회관,경상북도 칠곡군,054-979-6510,경상북도 칠곡군 북삼읍 보손리  606대,36.052653,128.31565
17493,금호리경로당,경상북도 칠곡군,054-979-6510,경상북도 칠곡군 지천면 금호리  493-7 대,35.945489,128.44174
17496,완정경로당,경상북도 칠곡군,054-979-6510,경상북도 칠곡군 지천면 연화리  384 대,35.971833,128.44557
16858,매원1리경로당,경상북도 칠곡군,054-979-6510,경상북도 칠곡군 왜관읍 매원리  337 답,35.995581,128.43652
17929,고곡리마을회관,경상북도 안동시,054-840-4433,경상북도 안동시 임하면 고곡리 169 창,36.49369778,128.8609064
17927,감애1리경로당,경상북도 안동시,054-840-4084,경상북도 안동시 와룡면 감애리 276-6대,36.66041004,128.7737302
17923,가곡1리마을회관,경상북도 안동시,054-840-4234,경상북도 안동시 풍천면 가곡리 399-2임,36.57232986,128.5267647
157,북장리마을회관,경상북도 상주시,054-537-8237,경상북도 상주시 내서면 북장리  487-70 대,36.421692,128.0617
17257,토함정 경로당,경상북도 경주시,054-779-6344,경상북도 경주시 진현동  624-1 대,35.786846,129.3257
17368,향천1리마을회관,경상북도 김천시,010-5191-6557,경상북도 김천시 대항면 향천리  605대,36.123934,128.02105
17499,관호1리회관,경상북도 칠곡군,054-979-6510,경상북도 칠곡군 약목면 관호리  245 대,36.017478,128.38507
17495,"송정리(원곡,도당)결로당",경상북도 칠곡군,054-979-6510,경상북도 칠곡군 지천면 송정리  1395 대,35.962596,128.47436
17494,낙산2리경로당,경상북도 칠곡군,054-979-6510,경상북도 칠곡군 지천면 낙산리  371-5 대,35.932756,128.53255
17497,금암3리경로당,경상북도 칠곡군,054-979-6510,경상북도 칠곡군 동명면 금암리  442 대,35.988406,128.55465
17930,고란리경로당,경상북도 안동시,054-840-4484,경상북도 안동시 길안면 고란리 255 대,36.40230979,128.93345
17928,검암1리경로당,경상북도 안동시,054-840-4335,경상북도 안동시 남후면 검암리 907-1대,36.53899297,128.664966
17926,갈전2리경로당,경상북도 안동시,054-840-4533,경상북도 안동시 임동면 갈전리  439 대,36.570403,128.9641
17925,개곡리회관,경상북도 안동시,054-840-4335,경상북도 안동시 남후면 개곡리 304-1대,36.5352106,128.6672444
17924,가구1리경로당,경상북도 안동시,054-840-4084,경상북도 안동시 와룡면 가구리 597-1 대,36.61624966,128.7760713
17462,대촌1리경로당,경상북도 영주시,639-7611,경상북도 영주시 봉현면 대촌리 282전,36.84558715,128.5209111
17498,남원2리경로당,경상북도 칠곡군,054-979-6510,경상북도 칠곡군 동명면 남원리  202-1 대,36.01189,128.58641
6105,도경1리마을회관,경상북도 의성군,054-830-6521,경상북도 의성군 금성면 도경리  845-1 대,36.239965,128.64328
18218,신흥2리경로당,경상북도 의성군,054-830-6521,경상북도 의성군 춘산면 신흥리  1115-1 대,36.23478061,128.843412
9892,입석리경로당(화북면 입석리 583-3),경상북도 영천시,054-339-7435,경상북도 영천시 화북면 입석리  583-3 대,36.131763,128.95337
10371,임포2리회관(북안면 임포리 228-1),경상북도 영천시,054-339-7935,경상북도 영천시 북안면 임포리  228-1대,35.918763,129.01224
17526,덕리마을회관,경상북도 청송군,870-6312,경상북도 청송군 청송읍 덕리 287-4 대,36.43408413,129.0475582
17466,두월1리경노회관,경상북도 영주시,639-7454,경상북도 영주시 이산면 두월리 173 대,36.80635054,128.7194318
17465,두전4리가천경로당,경상북도 영주시,639-7541,경상북도 영주시 장수면 두전리 131-1 대,36.80126627,128.5872193
17464,두전2리 노인회관,경상북도 영주시,639-7541,경상북도 영주시 장수면 두전리 1033-1대,36.79089045,128.5769381
17463,동명경로당,경상북도 영주시,639-7571,경상북도 영주시 안정면 내줄리 392-6 잡,36.83888434,128.5622479
17500,복성1리회관,경상북도 칠곡군,054-979-6510,경상북도 칠곡군 약목면 복성리  970 대,36.032507,128.36524
17508,송산1리 경로당,경상북도 칠곡군,054-979-6510,경상북도 칠곡군 동명면 송산리  158 대,35.985398,128.54688
17501,석전4리마을회관,경상북도 칠곡군,054-979-6510,경상북도 칠곡군 왜관읍 석전리  747-11 대,35.999036,128.40203
6109,수정리마을회관,경상북도 의성군,054-830-6521,경상북도 의성군 금성면 수정리  649대,36.248329,128.7082
222,신오보건진료소,경상북도 상주시,054-537-8124,경상북도 상주시 낙동면 신오리  873잡,36.33088,128.21472
17542,부일2리경로당,경상북도 청송군,870-6312,경상북도 청송군 주왕산면 부일리 363-4 대,36.36814932,129.1435112
17540,라리경로당,경상북도 청송군,870-6312,경상북도 청송군 주왕산면 라리 147-3답,36.31416205,129.203298
17527,청운리마을회관,경상북도 청송군,870-6312,경상북도 청송군 청송읍 청운리 1433 대,36.3977119,129.0706729
17469,오동마을경로당,경상북도 영주시,639-7480,경상북도 영주시 평은면 오운리 1355-1 대,36.71695252,128.7144713
17467,명암정경로당,경상북도 영주시,639-7712,경상북도 영주시 부석면 우곡리 170-6 대,36.95585392,128.6601303
17502,오평1리 마을회관,경상북도 칠곡군,054-979-6510,경상북도 칠곡군 북삼읍 오평리  1340 대,36.052375,128.37217
17509,송학마을회관,경상북도 칠곡군,054-979-6510,경상북도 칠곡군 가산면 송학리  235-1 전,36.104718,128.52036
17546,인지리세곡경로당,경상북도 청송군,870-6312,경상북도 청송군 현동면 인지리 225-10대,36.3006361,129.0138776
17545,월정리경로당,경상북도 청송군,870-6312,경상북도 청송군 현서면 월정리 541-4대,36.20585624,128.9073083
17544,양숙1리마을회관,경상북도 청송군,870-6312,경상북도 청송군 부남면 양숙리 773-1 대,36.28263993,129.1223903
17543,신점1리경로당,경상북도 청송군,870-6312,경상북도 청송군 주왕산면 신점리 794 대,36.34971382,129.1134984
10195,학야리마을회관,경상북도 포항시,010-2301-1794,경상북도 포항시 북구 기계면 학야리  453대,36.053168,129.19854
10189,문성리마을회관,경상북도 포항시,010-3806-7679,경상북도 포항시 북구 기계면 문성리  329대,36.063691,129.19297
10186,계전리마을회관,경상북도 포항시,010-9881-0110,경상북도 포항시 북구 기계면 계전리  141-1대,36.102129,129.20876
221,신안마을회관,경상북도 상주시,054-537-8267,경상북도 상주시 모동면 용호리  132-1대,36.322306,127.95805
17504,송산3리회관,경상북도 칠곡군,054-979-6510,경상북도 칠곡군 동명면 송산리  1391 대,36.008775,128.51341
17503,연호1리상납실 경로당,경상북도 칠곡군,054-979-6510,경상북도 칠곡군 지천면 연호리  637 대,35.916948,128.50416
17559,화장리경로당,경상북도 청송군,870-6312,경상북도 청송군 부남면 화장리 532-8 대,36.30184892,129.1422066
17552,신가부실경로당,경상북도 청송군,870-6312,경상북도 청송군 현서면 천천리 655-8 대,36.25932784,128.9041038
17549,경암경로당,경상북도 청송군,870-6312,경상북도 청송군 부남면 중기리 1066-1 대,36.27460934,129.1520183
17548,주산지경로당,경상북도 청송군,870-6312,경상북도 청송군 주왕산면 주산지리 950 답,36.35820218,129.1617398
17533,감은2리(한거리)경로당,경상북도 청송군,870-6312,경상북도 청송군 안덕면 감은리 649대,36.29371308,128.9392066
17531,감연3리마을회관,경상북도 청송군,870-6312,경상북도 청송군 부남면 감연리  573대,36.34450702,129.0525464
6168,용산2리마을회관,경상북도 포항시,010-3534-3210,경상북도 포항시 남구 오천읍 용산리  113-6대,35.943256,129.40784
6164,문충1리마을회관,경상북도 포항시,010-3518-3424,경상북도 포항시 남구 오천읍 문충리  160-6대,35.931788,129.3986
17505,상어경로당,경상북도 칠곡군,054-979-6510,경상북도 칠곡군 동명면 송산리  1119 대,35.998125,128.52497
17506,석우1리마을회관,경상북도 칠곡군,054-979-6510,경상북도 칠곡군 가산면 석우리  614-5 대,36.101964,128.54495
240,연원동구서원마을회관,경상북도 상주시,054-537-8571,경상북도 상주시 연원동  601대,36.428881,128.13021
17550,지리경로당,경상북도 청송군,870-6312,경상북도 청송군 주왕산면 지리 359 대,36.36940354,129.0798804
17536,구천장기경로회관,경상북도 청송군,870-6312,경상북도 청송군 부남면 구천리 759-5대,36.31159026,129.101036
17535,구천리마을회관,경상북도 청송군,870-6312,경상북도 청송군 부남면 구천리 823-4대,36.31143429,129.1055046
17474,일원노인회관,경상북도 영주시,639-7571,경상북도 영주시 안정면 일원리 38-1대,36.84309706,128.582068
17473,옥대1리경로당,경상북도 영주시,639-1467,경상북도 영주시 단산면 옥대리 238-3 전,36.95143079,128.620059
6165,항사리마을회관,경상북도 포항시,010-3105-9191,경상북도 포항시 남구 오천읍 항사리  87-13 대,35.929467,129.38349
237,양촌8통마을회관,경상북도 상주시,054-537-8851,경상북도 상주시 양촌동  717-4대,36.353403,128.14902
17507,행정1리마을회관,경상북도 칠곡군,054-979-6510,경상북도 칠곡군 기산면 행정리  1077-1 대,35.963197,128.36278
6187,낙정2리경로당,경상북도 의성군,054-830-6521,경상북도 의성군 단밀면 낙정리  649-2 대,36.351933,128.30381
17560,월매리마을회관,경상북도 청송군,870-6312,경상북도 청송군 현동면 월매리 357-1 대,36.23108894,129.0185245
17557,하의송락경로당,경상북도 청송군,870-6312,경상북도 청송군 주왕산면 하의리 383-8 대,36.38064256,129.1192202
17555,하의질부경로당,경상북도 청송군,870-6312,경상북도 청송군 주왕산면 하의리 188-3 전,36.3835144,129.1273975
4731,덕천1리경로당,경상북도 청송군,870-6312,경상북도 청송군 파천면 덕천리  207-2 대,36.437528,129.02781
17539,덕성리마을회관,경상북도 청송군,870-6312,경상북도 청송군 안덕면 덕성리 448-4 대,36.26561585,128.9544897
17475,지동2리마을회관,경상북도 영주시,639-7641,경상북도 영주시 순흥면 지동리 188-56 대,36.89013497,128.5865412
6199,홍계리경로당,경상북도 포항시,010-3828-7987,경상북도 포항시 남구 대송면 홍계리  286 대,35.948324,129.33238
6180,구룡포7리마을회관,경상북도 포항시,010-4511-9760,경상북도 포항시 남구 구룡포읍 구룡포리 10-10 대,35.99831861,129.5663118
6254,세촌2리마을회관,경상북도 의성군,054-830-6521,경상북도 의성군 단촌면 세촌리  142답,36.441258,128.68305
245,예의1리마을회관,경상북도 상주시,054-537-8419,경상북도 상주시 외서면 예의리  67-4 대,36.488253,128.00352
17564,대전2리회관,경상북도 청송군,870-6312,경상북도 청송군 부남면 대전리 579-4대,36.34136894,129.0631878
17563,생초전경로당,경상북도 청송군,870-6312,경상북도 청송군 현서면 두현리 1108 대,36.28283026,128.9157834
17562,도트막경로당,경상북도 청송군,870-6312,경상북도 청송군 현서면 화목리 250-2 대,36.27114108,128.8804778
17561,명당2리마을회관,경상북도 청송군,870-6312,경상북도 청송군 안덕면 명당리 412-1 답,36.29049043,128.9592332
17558,화목리죽곡경로당,경상북도 청송군,870-6312,경상북도 청송군 현서면 화목리 9-11 대,36.27530505,128.8912621
17478,산내들 관광농원,남부지방산림청 울진국유림관리소,054-780-3942,경상북도 울진군 금강송면 소광리 429-1 잡,36.96292177,129.2120057
17477,가흥2동행정복지센터,경상북도 영주시,639-7974,경상북도 영주시 가흥동 479-7대,36.82931138,128.6117965
250,흔평2리마을회관,경상북도 상주시,054-537-8207,경상북도 상주시 외남면 흔평리  181 대,36.36907933,128.0926434
17574,아사리회관,경상북도 경산시,053-804-7450,경상북도 경산시 진량읍 아사리  225대,35.866159,128.86794
17571,문거2리경로당,경상북도 청송군,870-6312,경상북도 청송군 안덕면 문거리 759-1 대,36.30255739,128.9876533
17569,천천2리마을회관,경상북도 청송군,870-6312,경상북도 청송군 현서면 천천리 771-5 답,36.26561151,128.9020815
17568,대전1리경로당,경상북도 청송군,870-6312,경상북도 청송군 부남면 대전리 92-1대,36.34500944,129.0636665
17567,괴정2리경로당,경상북도 청송군,870-6312,경상북도 청송군 진보면 괴정리 357-4 답,36.49588693,129.1334487
17566,직동경로당,경상북도 청송군,870-6312,경상북도 청송군 안덕면 성재리 347-4대,36.25226913,128.9655033
17565,손달경로당,경상북도 청송군,870-6312,경상북도 청송군 현동면 인지리 443 대,36.3141435,129.0005104
17482,광품2리 마을회관,남부지방산림청 울진국유림관리소,054-780-3942,경상북도 울진군 온정면 광품리 583-7대,36.72249616,129.3919541
17480,광비 경로당,남부지방산림청 울진국유림관리소,054-780-3942,경상북도 봉화군 소천면 분천리 70-1 대,36.94238948,129.1064493
3050,조룡2리마을회관(아랫세제),경상북도 김천시,010-3814-1533,경상북도 김천시 대덕면 조룡리  791 대,35.950945,127.9444
264,우산1리마을회관,경상북도 상주시,054-537-8419,경상북도 상주시 외서면 우산리  104-1전,36.487347,128.07019
10553,임오동행정복지센터,경상북도 구미시,054-480-7738,경상북도 구미시 임은동  371-4대,36.08925,128.3693
17581,용암2리마을회관,경상북도 성주군,054-930-7852,경상북도 성주군 벽진면 용암리 213-2 대,36.02075085,128.1827829
17579,도남1리마을회관,경상북도 성주군,054-930-7805,경상북도 성주군 대가면 도남리 50 대,35.90192375,128.1811463
17572,괴정2리경로회관,경상북도 청송군,870-6312,경상북도 청송군 진보면 괴정리 434-2대,36.49653703,129.1276967
17570,중평경로당,경상북도 청송군,870-6312,경상북도 청송군 파천면 중평리  388-2답,36.45748344,129.0225189
17485,토종작물 테마공원,남부지방산림청 울진국유림관리소,054-780-3944,경상북도 울진군 온정면 조금리 375 잡,36.69554659,129.3383242
17483,전곡리 꿀벌농장,남부지방산림청 울진국유림관리소,054-780-3942,경상북도 울진군 금강송면 전곡리 86전,36.97187604,129.1140224
290,이화1리마을회관,경상북도 상주시,054-537-8178,경상북도 상주시 공성면 이화리  43-1,36.27463476,128.0913334
272,운평리마을회관,경상북도 상주시,054-537-8124,경상북도 상주시 낙동면 운평리  319-1 대,36.371888,128.20463
6326,가산1리노인회관,경상북도 칠곡군,054-979-6652,경상북도 칠곡군 가산면 가산리  1050 대,36.043223,128.59572
6309,학명리마을회관,경상북도 칠곡군,054-979-6652,경상북도 칠곡군 동명면 학명리  365-5대,36.022755,128.54759
6325,음지리경로당,경상북도 의성군,054-830-6521,경상북도 의성군 사곡면 음지리  817대,36.303517,128.7866
9993,대곡2리마을회관,경상북도 고령군,054-950-7404,경상북도 고령군 우곡면 대곡리  757-7 대,35.664539,128.32539
962,신간2리마을회관,경상북도 고령군,054-950-7404,경상북도 고령군 운수면 신간리  298-1 전,35.802205,128.3209
3784,신원리마을회관,경상북도 청도군,054-370-2311,경상북도 청도군 운문면 오진리  1232-5번지,35.707159,128.97582
10535,행곡2리마을회관,경상북도 울진군,054-789-6844,경상북도 울진군 근남면 행곡리  825답,36.972208,129.3655
10527,매화1리마을회관,경상북도 울진군,054-789-6844,경상북도 울진군 매화면 매화리 1148-8전,36.91054681,129.3806151
10510,온정1리마을회관,경상북도 울진군,054-789-6844,경상북도 울진군 온정면 온정리 308-5전,36.71110481,129.3427632
6438,KT길곡분기국사,남부지방산림청 울진국유림관리소,054-780-3942,경상북도 울진군 매화면 길곡리 156-1대,36.83147391,129.343314
15641,고곡2리마을회관,경상북도 고령군,054-950-7404,경상북도 고령군 쌍림면 고곡리  590-7 대,35.701482,128.2395
10561,옥성면종합복지회관,경상북도 구미시,054-480-5892,경상북도 구미시 옥성면 주아리  155-4대,36.29561479,128.2786184
10562,문성1리마을회관,경상북도 구미시,054-480-5892,경상북도 구미시 고아읍 문성리  27-10답,36.16361863,128.3477217
10559,다복경로당,경상북도 구미시,054-480-5892,경상북도 구미시 봉곡동  229-6대,36.15155676,128.3127431
6526,서면사무소,남부지방산림청 울진국유림관리소,054-780-3942,경상북도 울진군 금강송면 삼근리 412-2대,36.93553358,129.2472534
6496,금강송면복지회관,남부지방산림청 울진국유림관리소,054-780-3942,경상북도 울진군 금강송면 삼근리 217-3대,36.93462029,129.2487179
6492,서면삼근2리동회관,남부지방산림청 울진국유림관리소,054-780-3942,경상북도 울진군 금강송면 삼근리 736-4대,36.93812776,129.230114
6486,구미노인종합복지관,남부지방산림청 구미국유림관리소,054-712-4141,경상북도 구미시 원평동  460-2대,36.12330555,128.3299746
6473,갈면보건진료소,남부지방산림청 울진국유림관리소,054-780-3942,경상북도 울진군 매화면 갈면리 462답,36.86451092,129.346109
6465,금천3리마을회관,남부지방산림청 울진국유림관리소,054-780-3942,경상북도 울진군 온정면 금천리 594전,36.70446871,129.3750712
15653,고탄리마을회관,경상북도 고령군,054-950-7404,경상북도 고령군 성산면 고탄리  205-2 대,35.760876,128.35436
5474,화동중학교,남부지방산림청 구미국유림관리소,054-712-4141,경상북도 상주시 화동면 이소리  323 학,36.387894,127.958
6602,길곡리마을회관,남부지방산림청 울진국유림관리소,054-780-3942,경상북도 울진군 매화면 길곡리  321,36.822342,129.34191
5486,용유1리마을회관,남부지방산림청 구미국유림관리소,054-712-4141,경상북도 상주시 화북면 용유리  347-4대,36.56038798,127.92118
6429,황점마을회관,남부지방산림청 구미국유림관리소,054-712-4141,경상북도 김천시 증산면 황점리  583대,35.85709299,128.0468223
5451,평온1리마을회관,남부지방산림청 구미국유림관리소,054-712-4141,경상북도 상주시 화남면 평온리  196-5대,36.45069121,127.9065146
5353,인평3동마을회관,남부지방산림청 구미국유림관리소,054-712-4141,경상북도 상주시 인평동  129-18 대,36.39960273,128.1781874
5468,문의2리회관,남부지방산림청 구미국유림관리소,054-712-4141,경상북도 김천시 대덕면 문의리  262-2 대,35.87939391,127.9410637
5460,문의2리회관,남부지방산림청 구미국유림관리소,054-712-4141,경상북도 김천시 대덕면 문의리  262-2 대,35.879376,127.94097
4970,송학마을회관,남부지방산림청 구미국유림관리소,054-712-4141,경상북도 칠곡군 가산면 송학리  235-2 대,36.10458849,128.5203326
15673,송림1리마을회관,경상북도 고령군,054-950-7404,경상북도 고령군 쌍림면 송림리  164-4 대,35.680224,128.22036
15672,산당리마을회관,경상북도 고령군,054-950-7404,경상북도 고령군 쌍림면 산당리  234-3 대,35.678362,128.2094
15666,본관2리마을회관,경상북도 고령군,054-950-7404,경상북도 고령군 대가야읍 본관리  147-7 대,35.756314,128.28004
818,화북면행정복지센터,경상북도 상주시,054-537-8391,경상북도 상주시 화북면 중벌리  604-1대,36.601535,127.82825
10627,무수2리경로당,경상북도 구미시,054-480-7267,경상북도 구미시 무을면 무수리  1015-1 답,36.26754961,128.1886556
10631,상림삼덕새마을회관,경상북도 구미시,054-480-7389,경상북도 구미시 장천면 상림리 670-11답,36.15488967,128.4912878
6659,한농복구회 한농교육관,남부지방산림청 울진국유림관리소,054-780-3942,경상북도 울진군 금강송면 왕피리 668대,36.88795797,129.2772727
5565,상오1리마을회관,남부지방산림청 구미국유림관리소,054-712-4141,경상북도 상주시 화북면 상오리  527-1 창,36.54318699,127.9209887
5494,서재경로당,남부지방산림청 구미국유림관리소,054-712-4141,경상북도 상주시 화북면 상오리  120-1 대,36.52657677,127.9377012
5413,신왕1리마을회관,남부지방산림청 구미국유림관리소,054-712-4141,경상북도 김천시 조마면 신왕리  1022대,36.016014,128.13449
18225,창길2리경로당,경상북도 의성군,054-830-6521,경상북도 의성군 안평면 창길리  820대,36.394373,128.56983
18220,위중2리마을회관,경상북도 의성군,054-830-6521,경상북도 의성군 단밀면 위중리  910-8대,36.364887,128.38741
6099,도경2리마을회관,경상북도 의성군,054-830-6521,경상북도 의성군 금성면 도경리  418대,36.238624,128.65191
18233,구성1리경로당,경상북도 의성군,054-830-6521,경상북도 의성군 옥산면 구성리 444-5 대,36.39318649,128.8096162
18230,윤암1리경노회관,경상북도 의성군,054-830-6521,경상북도 의성군 점곡면 윤암리 1028-1대,36.38355843,128.7746304
18228,구암2리노인정,경상북도 의성군,054-830-6521,경상북도 의성군 점곡면 구암리 267대,36.3706507,128.7558685
18227,상화2리경로당,경상북도 의성군,054-830-6521,경상북도 의성군 단촌면 상화리 771-1 잡,36.40003873,128.7078818
18226,관덕3리회관,경상북도 의성군,054-830-6521,경상북도 의성군 단촌면 관덕리 231대,36.43029411,128.7063745
17931,고상리경로당,경상북도 안동시,054-840-4335,경상북도 안동시 남후면 고상리 84 대,36.51493826,128.6160767
15696,신촌리노인회관,경상북도 고령군,054-950-7404,경상북도 고령군 쌍림면 신촌리  537-1전,35.670375,128.18646
18224,월촌경로당,경상북도 의성군,054-830-6521,경상북도 의성군 안평면 신월리  635 대,36.361181,128.6317
7357,석탑1리마을회관,경상북도 의성군,054-830-6521,경상북도 의성군 안평면 석탑리  963대,36.388427,128.62793
6145,달제1리경로당,경상북도 의성군,054-830-6521,경상북도 의성군 다인면 달제리  1453-5,36.47808902,128.3869929
18139,산제2리마을회관,경상북도 의성군,054-830-6521,경상북도 의성군 비안면 산제리  1090-1대,36.348289,128.54621
10046,안실회관,경상북도 의성군,054-830-6521,경상북도 의성군 봉양면 화전리  877-2 대,36.311142,128.56547
18136,만천2리경로당,경상북도 의성군,054-830-6521,경상북도 의성군 금성면 만천리  907대,36.297593,128.69789
6134,도경3리마을회관,경상북도 의성군,054-830-6521,경상북도 의성군 금성면 도경리  620-15대,36.221569,128.64525
18229,사촌3리마을회관,경상북도 의성군,054-830-6521,경상북도 의성군 점곡면 사촌리 184-1대,36.42559244,128.7619645
17932,고천1리경로당,경상북도 안동시,054-840-4533,경상북도 안동시 임동면 고천리 366-5대,36.55598546,128.9637667
4181,하고산경로당,경상북도 청송군,870-6312,경상북도 청송군 진보면 추현리  83-2 대,36.556793,129.00314
18258,대평2리마을회관,남부지방산림청 구미국유림관리소,054-712-4141,경상북도 청도군 운문면 방음리 산195임,35.67981751,128.943576
18223,쌍호리경로당,경상북도 의성군,054-830-6521,경상북도 의성군 안사면 쌍호리  839잡,36.50873,128.42133
10034,학미2리경로당,경상북도 의성군,054-830-6521,경상북도 의성군 금성면 학미리  527-2대,36.273316,128.69929
6141,명덕2리경로당,경상북도 의성군,054-830-6521,경상북도 의성군 금성면 명덕리  833 대,36.263201,128.65346
18234,신계1리경로당,경상북도 의성군,054-830-6521,경상북도 의성군 옥산면 신계리 379-2 전,36.43050687,128.8209942
18231,입암경노회관,경상북도 의성군,054-830-6521,경상북도 의성군 옥산면 입암리 845대,36.40249567,128.8024823
17941,광음2리경로당,경상북도 안동시,054-840-4335,경상북도 안동시 남후면 광음리 311-3 대,36.50340902,128.6654593
17934,관음절경로당,경상북도 안동시,054-840-4044,경상북도 안동시 풍산읍 죽전리 510-1 대,36.64290325,128.5946508
17933,고하리경로당,경상북도 안동시,054-840-4335,경상북도 안동시 남후면 고하리 685-1대,36.52711766,128.6290262
4200,신촌1리 마을회관,경상북도 청송군,870-6312,경상북도 청송군 진보면 신촌리  69-3 전,36.50444145,129.1188984
17582,장학리경로당,경상북도 성주군,054-930-7552,경상북도 성주군 선남면 장학리  277-4 대,35.886038,128.30214
18261,월계리회관,남부지방산림청 구미국유림관리소,054-712-4141,경상북도 김천시 구성면 월계리  223,36.015202,127.98599
18259,대평2리회관,남부지방산림청 구미국유림관리소,054-712-4141,경상북도 고령군 운수면 대평리 903대,35.78593471,128.2793278
7360,창길1리복지회관,경상북도 의성군,054-830-6521,경상북도 의성군 안평면 창길리  1006답,36.389156,128.57799
6083,청산1리마을회관,경상북도 의성군,054-830-6521,경상북도 의성군 구천면 청산리  177-5대,36.310366,128.42298
18140,장춘2리마을회관,경상북도 의성군,054-830-6521,경상북도 의성군 비안면 장춘리  94대,36.324762,128.51804
18235,실업1리마을회관,경상북도 의성군,054-830-6521,경상북도 의성군 옥산면 실업리 960-1임,36.33731473,128.7987309
17937,광연리마을회관,경상북도 안동시,054-840-4284,경상북도 안동시 일직면 광연리 114-1 대,36.44478848,128.6791841
17935,광덕1리노인정,경상북도 안동시,054-840-4234,경상북도 안동시 풍천면 광덕리 352-2대,36.5434733,128.5072807
1030,생리마을회관,경상북도 고령군,054-950-7404,경상북도 고령군 개진면 생리  274-3대,35.718638,128.41115
16038,소성리마을회관,경상북도 성주군,054-930-7903,경상북도 성주군 초전면 소성리  145 대,36.026595,128.2416
18171,용계리경로당,경상북도 성주군,054-930-7602,경상북도 성주군 용암면 용계리  279-1대,35.808669,128.36162
7343,구하령회관,경상북도 의성군,054-830-6521,경상북도 의성군 안평면 하령리  528-3대,36.411185,128.56687
6143,덕미1리경로당,경상북도 의성군,054-830-6521,경상북도 의성군 다인면 덕미리  854대,36.48317596,128.3393929
18247,양곤부녀노인정,경상북도 의성군,054-830-6521,경상북도 의성군 다인면 양서리 665대,36.50797905,128.3563602
18239,화전3리마을회관,경상북도 의성군,054-830-6521,경상북도 의성군 사곡면 화전리 1166대,36.2865847,128.7697254
18238,토현리마을회관,경상북도 의성군,054-830-6521,경상북도 의성군 사곡면 토현리 772대,36.30372294,128.7370195
18237,신감1리마을회관,경상북도 의성군,054-830-6521,경상북도 의성군 사곡면 신감리 650 대,36.31529545,128.7626377
18236,공정2리경로당,경상북도 의성군,054-830-6521,경상북도 의성군 사곡면 공정리 197대,36.28339129,128.8652799
17942,교리마을회관,경상북도 안동시,054-840-4187,경상북도 안동시 서후면 교리 225-1대,36.5883013,128.668945
16022,대성리마을회관,경상북도 성주군,054-930-7602,경상북도 성주군 용암면 사곡리  455 대,35.834563,128.36638
7355,기도1리경로당,경상북도 의성군,054-830-6521,경상북도 의성군 안평면 기도리  445,36.37459926,128.5667612
7358,기도2리경로당,경상북도 의성군,054-830-6521,경상북도 의성군 안평면 기도리  228대,36.381876,128.57499
18245,삼분노인회관,경상북도 의성군,054-830-6521,경상북도 의성군 다인면 삼분리 1173-1,36.42424498,128.4061834
18242,삼산1리동회관,경상북도 의성군,054-830-6521,경상북도 의성군 봉양면 삼산리 738-4대,36.27653215,128.624508
18241,사부1리마을회관,경상북도 의성군,054-830-6521,경상북도 의성군 봉양면 사부리 755대,36.32203066,128.5838041
18240,문흥3길노인회관,경상북도 의성군,054-830-6521,경상북도 의성군 봉양면 문흥리 479대,36.32297432,128.6373143
17944,구룡리장따리경로당,경상북도 안동시,054-840-4585,경상북도 안동시 예안면 구룡리 458 대,36.65065887,128.928166
17943,구룡리마을회관,경상북도 안동시,054-840-4585,경상북도 안동시 예안면 구룡리 701-1 대,36.64766785,128.9184352
15725,저전리보건진료소,경상북도 고령군,054-950-7404,경상북도 고령군 대가야읍 저전리  470대,35.753662,128.23074
15982,광산3리마을회관,경상북도 성주군,054-930-7752,경상북도 성주군 금수면 광산리  697-1 대,35.914347,128.17312
7318,안사2리마을회관,경상북도 의성군,054-830-6521,경상북도 의성군 안사면 안사리  산131-3,36.436804,128.46413
18250,신안2리경로당,경상북도 의성군,054-830-6521,경상북도 의성군 안평면 신안리 955대,36.34800666,128.6132275
7394,도동4리마을회관,경상북도 의성군,054-830-6521,경상북도 의성군 의성읍 도동리  1012-3,36.34002153,128.7063356
18246,새주막(봉정2리)경로당,경상북도 의성군,054-830-6521,경상북도 의성군 다인면 봉정리 298-1 답,36.48358748,128.3884945
18244,풍리2리마을회관,경상북도 의성군,054-830-6521,경상북도 의성군 봉양면 풍리리 1092잡,36.29025827,128.6245638
18243,신평리마을회관,경상북도 의성군,054-830-6521,경상북도 의성군 봉양면 신평리 561-14대,36.28120038,128.5652139
17947,구수2리오름실경로당,경상북도 안동시,054-840-4484,경상북도 안동시 길안면 구수리 660-1전,36.46536497,128.9362957
17945,구미리마을회관,경상북도 안동시,054-840-4384,경상북도 안동시 남선면 구미리 232-7대,36.52363498,128.7678047
15713,원송리마을회관,경상북도 고령군,054-950-7404,경상북도 고령군 덕곡면 원송리  98-1 대,35.791258,128.20573
6148,봉정1리경로당,경상북도 의성군,054-830-6521,경상북도 의성군 다인면 봉정리  811-4 대,36.492303,128.38667
10032,장국1리마을회관,경상북도 의성군,054-830-6521,경상북도 의성군 구천면 장국리  36-1대,36.333864,128.41794
18253,소감리노인회관,경상북도 의성군,054-830-6521,경상북도 의성군 사곡면 신감리 767대,36.32934795,128.7650342
7393,원당2리마을회관,경상북도 의성군,054-830-6521,경상북도 의성군 의성읍 원당리  1005대,36.348624,128.66374
7395,업1리우두경로당,경상북도 의성군,054-830-6521,경상북도 의성군 의성읍 업리  1046-5 대,36.380328,128.68257
18248,상광경로당,경상북도 의성군,054-830-6521,경상북도 의성군 다인면 덕미리 794대,36.4794489,128.3410898
17954,남후면행정복지센터,경상북도 안동시,054-840-4335,경상북도 안동시 남후면 무릉리 372-2대,36.52360862,128.69
17949,국곡간평경로당,경상북도 안동시,054-840-4284,경상북도 안동시 일직면 국곡리 739-6 대,36.48976883,128.597443
17948,구호리경로당,경상북도 안동시,054-840-4234,경상북도 안동시 풍천면 구호리 581-2 대,36.50703678,128.462933
3209,동경마을회관,경상북도 청도군,054-370-2311,경상북도 청도군 운문면 지촌리  358-2대,35.76817141,128.9723424
7361,석탑2리마을회관,경상북도 의성군,054-830-6521,경상북도 의성군 안평면 석탑리  410답,36.380819,128.6391
7304,중율2리경로당,경상북도 의성군,054-830-6521,경상북도 의성군 신평면 중율리  579 대,36.496625,128.50952
4725,실업2리경로당,경상북도 의성군,054-830-6521,경상북도 의성군 옥산면 실업리  167-1잡,36.322961,128.80725
10043,송내리마을회관,경상북도 의성군,054-830-6521,경상북도 의성군 점곡면 송내리  714잡,36.435849,128.72661
17971,망천2리마을회관,경상북도 안동시,054-840-4533,경상북도 안동시 임동면 망천리 107-3대,36.55757514,128.8828355
17964,동부리경로당,경상북도 안동시,054-840-4635,경상북도 안동시 도산면 동부리 247-2 대,36.704094,128.8165737
17962,도곡리경로당,경상북도 안동시,054-840-4084,경상북도 안동시 와룡면 도곡리 939-3전,36.5997787,128.8311233
17957,녹전면행복피움센터,경상북도 안동시,054-840-4684,경상북도 안동시 녹전면 신평리 729-3 잡,36.74296963,128.7742491
17955,노리모노골경로당,경상북도 안동시,054-840-4044,경상북도 안동시 풍산읍 노리 432-1 대,36.59658611,128.6229167
17951,금계리경로당,경상북도 안동시,054-840-4234,경상북도 안동시 풍천면 금계리 243-5대,36.50714983,128.527237
7644,옥정1리경로당,경상북도 의성군,054-830-6521,경상북도 의성군 춘산면 옥정리  392-5대,36.239397,128.81706
18249,효선2리경로당,경상북도 의성군,054-830-6521,경상북도 의성군 춘산면 효선리 457-2 대,36.27303596,128.7780069
7647,효선1리경로당,경상북도 의성군,054-830-6521,경상북도 의성군 춘산면 효선리  943-1 대,36.26538538,128.7619804
7641,대사1리경로당,경상북도 의성군,054-830-6521,경상북도 의성군 춘산면 대사리  635-1대,36.246117,128.82234
17966,마령1리마을회관,경상북도 안동시,054-840-4533,경상북도 안동시 임동면 마령리 산192-4 임,36.58362592,128.9366648
17961,대곡1리마을회관,경상북도 안동시,054-840-4533,경상북도 안동시 임동면 대곡리 1043대,36.6368683,128.9785647
17958,녹전초등학교원천분교장,경상북도 안동시,054-840-4684,경상북도 안동시 녹전면 원천리 261-1학,36.79109045,128.7570202
17956,녹래리경로당,경상북도 안동시,054-840-4684,경상북도 안동시 녹전면 녹래리  212-1대,36.729898,128.7521
17953,길안초등학교길송분교장,경상북도 안동시,054-840-4484,경상북도 안동시 길안면 송사리 100-8학,36.36898774,128.928747
17952,금곡리마을회관,경상북도 안동시,054-840-4484,경상북도 안동시 길안면 금곡리 388-13 대,36.3853959,128.8922158
6088,운곡경로회관,경상북도 의성군,054-830-6521,경상북도 의성군 금성면 운곡리  324-2대,36.286614,128.72014
18141,가음면노인회관,경상북도 의성군,054-830-6521,경상북도 의성군 가음면 가산리  879대,36.232398,128.72741
10047,옥정4리경로당,경상북도 의성군,054-830-6521,경상북도 의성군 춘산면 옥정리  559대,36.229632,128.81474
17969,만음1리마을회관,경상북도 안동시,054-840-4484,경상북도 안동시 길안면 만음리 850대,36.43372251,128.8950044
17968,만운2리평지경로당,경상북도 안동시,054-840-4044,경상북도 안동시 풍산읍 만운리 600-9 대,36.60760268,128.579607
17967,막곡1리경로당,경상북도 안동시,054-840-4044,경상북도 안동시 풍산읍 막곡리 산80임,36.56756412,128.6679266
17965,라소리노인회관,경상북도 안동시,054-840-4084,경상북도 안동시 와룡면 라소리 734-1 대,36.6632426,128.8147401
17963,동락경로당,경상북도 안동시,054-840-4890,경상북도 안동시 안기동 230-23대,36.57891888,128.717407
17960,대곡1리경로당,경상북도 안동시,054-840-4484,경상북도 안동시 길안면 대곡리 788대,36.47356513,128.958823
17959,단호2리마을회관,경상북도 안동시,054-840-4335,경상북도 안동시 남후면 단호리 973-1대,36.55873026,128.6095195
18000,신세동경로당,경상북도 안동시,054-840-4724,경상북도 안동시 신세동 94-33대,36.5659269,128.7384653
17987,새이전경로당,경상북도 안동시,054-840-4684,경상북도 안동시 녹전면 서삼리 604-5 대,36.69940021,128.744049
17981,배방리모듬이경로당,경상북도 안동시,054-840-4484,경상북도 안동시 길안면 배방리 246-5 창,36.44667771,128.9629196
17979,미두리경로당,경상북도 안동시,054-840-4890,경상북도 안동시 이천동 142-3 대,36.59284995,128.7187587
17977,묵계1리마을회관,경상북도 안동시,054-840-4484,경상북도 안동시 길안면 묵계리 721-17 대,36.41619667,128.913939
17976,무릉1리경로당,경상북도 안동시,054-840-4335,경상북도 안동시 남후면 무릉리 164-1대,36.51767878,128.6811255
17974,명진1리경로당,경상북도 안동시,054-840-4284,경상북도 안동시 일직면 명진리 430-8 대,36.43129153,128.6366213
17973,명리경로당,경상북도 안동시,054-840-4187,경상북도 안동시 서후면 명리 465-7잡,36.5901404,128.6479984
17972,망호2리노인회관,경상북도 안동시,054-840-4284,경상북도 안동시 일직면 망호리 125-1대,36.46297677,128.6715003
17970,만음2리마을회관,경상북도 안동시,054-840-4484,경상북도 안동시 길안면 만음리 134대,36.4421223,128.8994127
7346,박곡1리회관,경상북도 의성군,054-830-6521,경상북도 의성군 안평면 박곡리  759-3대,36.378093,128.59133
18024,월전리경로당,경상북도 안동시,054-840-4134,경상북도 안동시 북후면 월전리 545-4대,36.68715731,128.6523827
17998,신석2리마을회관,경상북도 안동시,054-840-4384,경상북도 안동시 남선면 신석리 809-1대,36.53523172,128.7737847
17996,수하2리경로당,경상북도 안동시,054-840-4985,경상북도 안동시 수하동 287대,36.54000221,128.6916013
17990,성곡리마을회관,경상북도 안동시,054-840-4187,경상북도 안동시 서후면 성곡리 521 대,36.62658919,128.6525875
17989,서후면복지회관,경상북도 안동시,054-840-4187,경상북도 안동시 서후면 성곡리 130-4 대,36.61651729,128.6634613
17988,서당골경로당,경상북도 안동시,054-840-4134,경상북도 안동시 북후면 도촌리 781-6 대,36.66195335,128.6863589
17984,산야2리노인정,경상북도 안동시,054-840-4084,경상북도 안동시 와룡면 산야리 173-2 대,36.6146236,128.8237387
17983,북후면옹천3리회관,경상북도 안동시,054-840-4134,경상북도 안동시 북후면 옹천리 542 대,36.6855284,128.7004612
17975,명진1리덕동경로당,경상북도 안동시,054-840-4284,경상북도 안동시 일직면 명진리 179-5 대,36.42979058,128.6461465
7377,전흥2리마을회관,경상북도 의성군,054-830-6574,경상북도 의성군 옥산면 전흥리  191대,36.369407,128.83922
7387,오로2리마을회관,경상북도 의성군,054-830-6521,경상북도 의성군 의성읍 오로리  420-10대,36.327287,128.70491
18027,의촌리경로당,경상북도 안동시,054-840-4635,경상북도 안동시 도산면 의촌리 68-3대,36.71789506,128.8501696
18001,신안경로당,경상북도 안동시,054-840-4734,경상북도 안동시 신안동 37대,36.57402419,128.733237
17999,신성1리경로당,경상북도 안동시,054-840-4234,경상북도 안동시 풍천면 신성리 905-2 대,36.51855006,128.4531208
17994,송천논골경로당,경상북도 안동시,054-840-4770,경상북도 안동시 송천동 488 대,36.53952849,128.7963526
17993,송천경로당,경상북도 안동시,054-840-4770,경상북도 안동시 송천동 708-1 대,36.54272383,128.7907038
17992,송사1리마을회관,경상북도 안동시,054-840-4484,경상북도 안동시 길안면 송사리 57-14 잡,36.36490166,128.9290807
17991,송리1리경로당,경상북도 안동시,054-840-4234,경상북도 안동시 일직면 송리리 265 대,36.48357055,128.6397753
4071,송천1리마을회관,경상북도 김천시,054-421-2017,경상북도 김천시 아포읍 송천리  60-1,36.15885,128.28943
7392,중리3리마을회관,경상북도 의성군,054-830-6521,경상북도 의성군 의성읍 중리리  291-15 대,36.363688,128.72565
18017,운산리마을회관,경상북도 안동시,054-840-4284,경상북도 안동시 일직면 운산리 63-4 대,36.47381642,128.6592713
18012,오미1리회관,경상북도 안동시,054-840-4044,경상북도 안동시 풍산읍 오미리 263대,36.59698312,128.5216795
18010,오대1리경로당,경상북도 안동시,054-840-4433,경상북도 안동시 임하면 오대리 135-8 대,36.47946778,128.8934797
18009,예안면복지회관,경상북도 안동시,054-840-4585,경상북도 안동시 예안면 정산리 675-12대,36.66265447,128.8836555
18008,어담리마을회관,경상북도 안동시,054-840-4234,경상북도 안동시 풍천면 어담리 261-2대,36.49385729,128.56502
18007,양의골경로당,경상북도 안동시,054-840-4890,경상북도 안동시 이천동 281대,36.60589139,128.7202491
18004,신평1리방하경로당,경상북도 안동시,054-840-4684,경상북도 안동시 녹전면 신평리 1091-1잡,36.74950802,128.7630057
18003,신전리경로당,경상북도 안동시,054-840-4134,경상북도 안동시 북후면 신전리 418-2대,36.67156426,128.6354959
17995,수곡리경로당,경상북도 안동시,054-840-4533,경상북도 안동시 임동면 수곡리 470-8대,36.55488202,128.923259
18028,이송천마을회관,경상북도 안동시,054-840-4187,경상북도 안동시 서후면 이송천리 413대,36.61155561,128.6907265
18026,의일2리마을회관,경상북도 안동시,054-840-4635,경상북도 안동시 도산면 의일리 158대,36.72593702,128.8053761
18025,위1리마을회관,경상북도 안동시,054-840-4533,경상북도 안동시 임동면 위리 501-3대,36.61475076,128.9486166
18021,원천리경로당,경상북도 안동시,054-840-4635,경상북도 안동시 도산면 원천리 606-1대,36.7332063,128.8757416
18020,원천2리초당경로당,경상북도 안동시,054-840-4684,경상북도 안동시 녹전면 원천리 753-2 대,36.78966449,128.7530741
18019,원천2리경로당,경상북도 안동시,054-840-4684,경상북도 안동시 녹전면 원천리 823-46대,36.78756101,128.7406244
18018,원리회관,경상북도 안동시,054-840-4284,경상북도 안동시 일직면 원리 182 대,36.45811691,128.6556445
18015,우무실마을회관,경상북도 안동시,054-840-4084,경상북도 안동시 와룡면 감애리 120-1대,36.67491394,128.7786942
18014,용상3구경로당,경상북도 안동시,054-840-4770,경상북도 안동시 용상동 449-7대,36.55116145,128.7671369
7439,도곡3리마을회관,경상북도 김천시,054-421-2242,경상북도 김천시 지례면 도곡리  690-4 대,35.969723,128.01327
18045,평팔1리회관,경상북도 안동시,054-840-4284,경상북도 안동시 일직면 평팔리 415-8대,36.43628864,128.6223699
18043,태자1리경로당,경상북도 안동시,054-840-4635,경상북도 안동시 도산면 태자리 462-7대,36.7773376,128.843937
18041,태1리마을회관,경상북도 안동시,054-840-4084,경상북도 안동시 와룡면 태리 109-13 대,36.61450852,128.7633361
18040,치이골경로당,경상북도 안동시,054-840-4734,경상북도 안동시 안막동 63-5잡,36.57585429,128.7349917
18033,주진2리경로당,경상북도 안동시,054-840-4585,경상북도 안동시 예안면 주진리 288-4 대,36.665404,128.8552777
18032,주계리경로당,경상북도 안동시,054-840-4084,경상북도 안동시 와룡면 주계리 537대,36.63304968,128.8006193
18030,인금1리경로당,경상북도 안동시,054-840-4234,경상북도 안동시 풍천면 인금리 482-7 대,36.52254398,128.5569777
18029,인계노인회관,경상북도 안동시,054-840-4585,경상북도 안동시 예안면 인계리 392-5대,36.6942315,128.9192053
18023,월곡초등학교삼계분교장,경상북도 안동시,054-840-4585,경상북도 안동시 예안면 삼계리 277학,36.7191,128.9254893
18022,원호1리경로당,경상북도 안동시,054-840-4284,경상북도 안동시 일직면 원호리 187대,36.4843883,128.656416
18050,현애리마을회관,경상북도 안동시,054-840-4044,경상북도 안동시 풍산읍 현애리 379-2 대,36.6216013,128.537762
18048,하회1리마을회관,경상북도 안동시,054-840-4234,경상북도 안동시 풍천면 하회리 829잡,36.54040226,128.524088
18047,하리1리마을회관,경상북도 안동시,054-840-4335,경상북도 안동시 풍산읍 하리리 71-2대,36.5712041,128.5775265
18044,태장2리화원경로당,경상북도 안동시,054-840-4187,경상북도 안동시 서후면 태장리 815-5 대,36.64565761,128.6665577
18042,태곡리마을회관,경상북도 안동시,054-840-4585,경상북도 안동시 예안면 태곡리 696 대,36.6805779,128.8989143
18039,추목리노인정,경상북도 안동시,054-840-4433,경상북도 안동시 임하면 추목리 330전,36.48896327,128.8123665
18038,천지2리산하리마을회관,경상북도 안동시,054-840-4484,경상북도 안동시 길안면 천지리 95-4 대,36.45834298,128.9027555
18037,지리경로당,경상북도 안동시,054-840-4533,경상북도 안동시 임동면 지리 270-14 대,36.50850718,128.9871572
18035,죽전리경로당,경상북도 안동시,054-840-4044,경상북도 안동시 풍산읍 죽전리 793-1 대,36.63990389,128.590485
18034,죽송리경로당,경상북도 안동시,054-840-4684,경상북도 안동시 녹전면 죽송리 497-5대,36.7319281,128.7636897
18052,현하리마을회관,경상북도 안동시,054-840-4484,경상북도 안동시 길안면 현하리 148-1 과,36.46114349,128.8835332
18051,현하2리경로당,경상북도 안동시,054-840-4484,경상북도 안동시 길안면 현하리 606-20대,36.43840113,128.867069
7621,백현2리마을주민회관,경상북도 구미시,054-480-5892,경상북도 구미시 산동읍 백현리  420 답,36.20402762,128.4709958
7628,봉한2리마을회관,경상북도 구미시,054-480-5892,경상북도 구미시 고아읍 봉한리  911-26대,36.17997357,128.3485485
7627,4공단노인정,경상북도 구미시,054-480-5892,경상북도 구미시 옥계동  742-7대,36.1369309,128.423618
5156,능치2리경로당,경상북도 김천시,054-421-2127,경상북도 김천시 어모면 능치리  1056-5대,36.245157,128.04228
5100,덕산리곰태노인정,경상북도 청도군,054-370-2611,경상북도 청도군 매전면 덕산리  919-1 전,35.68989,128.79681
7630,다곡1리마을회관,경상북도 구미시,054-480-7329,경상북도 구미시 도개면 다곡리 842-2 대,36.28690818,128.3678175
7626,금산1리새마을회관,경상북도 구미시,054-480-7365,경상북도 구미시 해평면 금산리 186-3 대,36.20722476,128.4208577
5096,용산리경로회관,경상북도 청도군,054-370-2611,경상북도 청도군 매전면 용산리 844-1대,35.65320695,128.8293969
1924,칠곡군보훈회관,경상북도 칠곡군,054-979-6509,경상북도 칠곡군 왜관읍 석전리  795-12 대,36.000236,128.39747
10547,비산3통자죽리마을회관,경상북도 구미시,054-480-5892,경상북도 구미시 비산동  482답,36.12085,128.37605
7638,동변3리마을회관,경상북도 의성군,054-830-6521,경상북도 의성군 점곡면 동변리  1229-110 대,36.422548,128.77886
7636,동변1리마을회관,경상북도 의성군,054-830-6521,경상북도 의성군 점곡면 동변리  620-6전,36.438248,128.78829
10373,횡계리마을회관(화북면 횡계리 176),경상북도 영천시,054-339-7435,경상북도 영천시 화북면 횡계리  176 대,36.114229,128.94929
10549,송산리마을회관,경상북도 구미시,054-480-5892,경상북도 구미시 산동읍 송산리  290-5전,36.22102773,128.4797768
10548,덕촌1리마을회관,경상북도 구미시,054-480-5892,경상북도 구미시 옥성면 덕촌리  600-3대,36.25597698,128.2512718
10550,창림리마을회관,경상북도 구미시,054-480-5892,경상북도 구미시 해평면 창림리  153-3대,36.22918291,128.3968708
6184,석병1리마을회관,경상북도 포항시,010-3827-5152,경상북도 포항시 남구 구룡포읍 석병리  881-2 대,36.012451,129.57676
1903,마일2리복지회관,경상북도 청도군,054-370-2563,경상북도 청도군 운문면 마일리 1295대,35.81976313,128.992137
10552,진평동경로당,경상북도 구미시,054-480-7784,경상북도 구미시 진평동  291-7대,36.101133,128.42084
9929,청정2리노인정(고경면 청정리 569-7),경상북도 영천시,054-339-7836,경상북도 영천시 고경면 청정리  569-7 대,35.983021,129.10518
10551,신동새마을회관,경상북도 구미시,054-480-7755,경상북도 구미시 신동  458-1대,36.098785,128.46341
10554,오태2동마을회관,경상북도 구미시,054-480-7738,경상북도 구미시 오태동  산14임,36.07076,128.36496
10564,습례1리새마을회관,경상북도 구미시,054-480-5892,경상북도 구미시 선산읍 습례리  401-2 대,36.21355202,128.2599075
10801,남양1리골마경로당,경상북도 청도군,054-370-2626,경상북도 청도군 매전면 남양리  1917전,35.656084,128.87573
214,신곡1리마을회관,경상북도 상주시,054-537-8178,경상북도 상주시 공성면 신곡리  339대,36.272428,128.03279
277,노류2리경로당,경상북도 상주시,054-537-8237,경상북도 상주시 내서면 노류리  664-2대,36.37310339,128.0294358
10563,오로1리 마을회관,경상북도 구미시,054-480-7092,경상북도 구미시 고아읍 오로리 734-19 구,36.21700145,128.3151243
10555,구포동마을회관,경상북도 구미시,054-480-7809,경상북도 구미시 구포동 328-1 대,36.13189957,128.4296793
2153,구덕리경로회관,경상북도 칠곡군,054-979-6652,경상북도 칠곡군 동명면 구덕리  216-1 대,35.981952,128.57269
2044,송정리회관,경상북도 칠곡군,054-979-6652,경상북도 칠곡군 지천면 송정리  529-4 답,35.951877,128.47159
2051,옥포마을회관,경상북도 칠곡군,054-979-6652,경상북도 칠곡군 지천면 연호리  222-2 대,35.91647,128.51035
1891,금남마을회관경로당,경상북도 칠곡군,054-979-6652,경상북도 칠곡군 왜관읍 금남리  498-8대,35.920965,128.41146
2149,가천리경로당,경상북도 칠곡군,054-979-6652,경상북도 칠곡군 동명면 가천리  156-4대,36.010144,128.54425
1936,아곡리노인회관(안찔경로당),경상북도 칠곡군,054-979-6652,경상북도 칠곡군 왜관읍 아곡리  508 대,36.009624,128.42102
1898,금산리마을회관,경상북도 칠곡군,054-979-6652,경상북도 칠곡군 왜관읍 금산리  808 대,35.960866,128.39886
3349,가례리마을회관,경상북도 김천시,010-3807-1557,경상북도 김천시 대덕면 가례리  584-1 대,35.94818,127.98786
3879,사전1리경로회관,경상북도 청도군,054-370-2311,경상북도 청도군 금천면 사전리  305-1대,35.713537,128.8851
3840,박곡리새마을회관,경상북도 청도군,054-370-2590,경상북도 청도군 금천면 박곡리  976-1대,35.66833707,128.9174603
4235,신성1리경로당,경상북도 청송군,870-6312,경상북도 청송군 안덕면 신성리  360-7대,36.316634,128.98809
4232,장전1리마을회관,경상북도 청송군,870-6312,경상북도 청송군 안덕면 장전리  751-9 대,36.292641,128.9691
4236,성재리새마을회관,경상북도 청송군,870-6312,경상북도 청송군 안덕면 성재리  519-1대,36.2527116,128.9605307
4238,신기1리경로회관,경상북도 청송군,870-6312,경상북도 청송군 파천면 신기리  650대,36.482152,129.0334
4219,명당3리마을회관,경상북도 청송군,870-6312,경상북도 청송군 안덕면 명당리  156-17답,36.300646,128.96236
4678,소로2리경로당,경상북도 봉화군,054-679-5422,경상북도 봉화군 춘양면 소로리  343-7대,36.937943,128.93492
4605,동양경로당,경상북도 봉화군,054-679-5223,경상북도 봉화군 봉성면 동양리  454-20 대,36.913642,128.79117
4603,금봉2리경로당,경상북도 봉화군,054-679-5223,경상북도 봉화군 봉성면 금봉리  225-4 대,36.939229,128.78948
4600,오록2리경로당,경상북도 봉화군,054-679-5123,경상북도 봉화군 물야면 오록리  436-8대,36.977301,128.73511
4006,두곡리회관,경상북도 청도군,054-370-2611,경상북도 청도군 매전면 두곡리 750-1 대,35.70694546,128.7951401
2019,어로1리마을회관,경상북도 칠곡군,054-979-6652,경상북도 칠곡군 북삼읍 어로리  277-5 대,36.045642,128.33174
5168,현리2리마을회관,경상북도 의성군,054-830-6521,경상북도 의성군 가음면 현리리  1062-1대,36.224603,128.74737
5179,현리1리 마을회관,경상북도 의성군,054-830-6521,경상북도 의성군 가음면 현리리  404-1대,36.205028,128.76473
4707,오로1리마을회관,경상북도 의성군,054-830-6521,경상북도 의성군 의성읍 오로리  82,36.323084,128.71758
5308,옥율1리마을회관,경상북도 김천시,054-421-2127,경상북도 김천시 어모면 옥율리  496대,36.170482,128.1026
4716,정천1리마을회관,경상북도 포항시,010-7245-8873,경상북도 포항시 남구 장기면 정천리  491 대,35.94871183,129.4479454
89,평지2리마을회관,경상북도 상주시,054-537-8237,경상북도 상주시 내서면 평지리  67대,36.39653976,128.0465903
10802,지전1리할머니경로당,경상북도 청도군,054-370-2626,경상북도 청도군 매전면 지전리 457대,35.60996205,128.812148
5323,조룡2리마을회관,남부지방산림청 구미국유림관리소,054-712-4141,경상북도 김천시 대덕면 조룡리  791 대,35.95089489,127.9445106
4996,구촌리동산마을회관,경상북도 청도군,054-370-2611,경상북도 청도군 매전면 구촌리 489 대,35.60520249,128.8182267
162,산현1리회관,경상북도 상주시,054-537-8178,경상북도 상주시 공성면 산현리  878-6 대,36.280857,128.09321
85,내곡2리마을회관,경상북도 상주시,054-537-8124,경상북도 상주시 낙동면 내곡리  328-4 대,36.379615,128.23783
91,노류리배골마을회관,경상북도 상주시,054-537-8237,경상북도 상주시 내서면 노류리  862대,36.358606,128.04752
160,사산2리마을회관,경상북도 상주시,054-537-8361,경상북도 상주시 화서면 사산리  363-2대,36.416838,127.91343
97,달천2리마을회관,경상북도 상주시,054-537-8361,경상북도 상주시 화서면 달천리  189-2 대,36.434646,127.92879
156,부원2동경로당,경상북도 상주시,054-537-8602,경상북도 상주시 부원동  252잡,36.450411,128.15537
121,두곡1리마을회관,경상북도 상주시,054-537-8447,경상북도 상주시 은척면 두곡리  658-22 대,36.57088579,128.0830405
128,득수2리마을회관,경상북도 상주시,054-537-8300,경상북도 상주시 모서면 득수리  184-3 대,36.33527894,127.902511
94,능암1리마을회관,경상북도 상주시,054-537-8237,경상북도 상주시 내서면 능암리  70대,36.40881203,128.0920912
5627,대방2리회관(성궁),경상북도 김천시,010-9370-3536,경상북도 김천시 조마면 대방리  536대,36.000827,128.13119
6204,생송2리경로회관,경상북도 의성군,054-830-6521,경상북도 의성군 단밀면 생송리  797대,36.361778,128.33079
2858,하강2리마을회관,경상북도 김천시,054-421-2217,경상북도 김천시 구성면 하강리  940-4 대,36.079736,128.07882
10213,우각1리마을회관,경상북도 포항시,010-3518-3570,경상북도 포항시 북구 신광면 우각리  102대,36.104624,129.26348
252,외서면행정복지센터,경상북도 상주시,054-537-8419,경상북도 상주시 외서면 가곡리  101-1 대,36.4791471,128.1080799
184,우산2리(노루목)마을회관,경상북도 상주시,054-537-8419,경상북도 상주시 외서면 우산리  280-17 대,36.4625181,128.0407806
224,신촌1리마을회관,경상북도 상주시,054-537-8207,경상북도 상주시 외남면 신촌리  367-2대,36.35086979,128.0816367
163,삼덕리마을회관,경상북도 상주시,054-537-8061,경상북도 상주시 사벌국면 삼덕리  680,36.44484042,128.2285254
183,인평3동마을회관,경상북도 상주시,054-537-8691,경상북도 상주시 인평동  129-18 대,36.39967571,128.1782095
10791,소천1리경로당,경상북도 청도군,054-370-2587,경상북도 청도군 금천면 소천리 1327-2잡,35.74409568,128.9046782
2870,평양1리노인회관,경상북도 청도군,054-370-2437,경상북도 청도군 청도읍 평양리 696잡,35.59140546,128.7318391
6215,봉암리동산경로당,경상북도 칠곡군,054-979-6652,경상북도 칠곡군 동명면 봉암리  811-19 대,35.972092,128.54958
260,용포리마을회관,경상북도 상주시,054-537-8124,경상북도 상주시 낙동면 용포리  503-1대,36.322982,128.20002
10470,갈면리마을회관,경상북도 울진군,054-789-6844,경상북도 울진군 매화면 갈면리  479-2대,36.86476222,129.345843
6189,후동리마을회관,경상북도 포항시,010-3511-5835,경상북도 포항시 남구 구룡포읍 후동리  270-1대,35.987901,129.53061
6198,장동3리마을회관,경상북도 포항시,010-3545-4615,경상북도 포항시 남구 대송면 장동리  398-1 대,35.958313,129.34556
6175,강사2리마을회관,경상북도 포항시,010-5504-4364,경상북도 포항시 남구 호미곶면 강사리  562대,36.048872,129.57686
262,우기1리마을회관,경상북도 상주시,054-537-8447,경상북도 상주시 은척면 우기리  707-1 대,36.53942584,128.061963
284,음지마경로당,경상북도 상주시,054-537-8178,경상북도 상주시 공성면 우하리  377-2 대,36.2843523,128.0329405
10473,광품2리마을회관,경상북도 울진군,054-789-6844,경상북도 울진군 온정면 광품리  583-7대,36.722573,129.39197
10472,고성2리마을회관,경상북도 울진군,054-789-6844,경상북도 울진군 울진읍 고성리 528-3 대,37.00314844,129.3832087
285,이소2리마을회관,경상북도 상주시,054-537-8328,경상북도 상주시 화동면 이소리  589-8대,36.393922,127.94565
288,이촌리경로당,경상북도 상주시,054-537-8419,경상북도 상주시 외서면 이촌리  12-2 대,36.502707,128.0688
287,이안면행정복지센터,경상북도 상주시,054-537-8507,경상북도 상주시 이안면 양범리  281-1대,36.579254,128.14596
282,양범3리마을회관,경상북도 상주시,054-537-8507,경상북도 상주시 이안면 양범리  836-5대,36.56228831,128.1201457
293,인창1리마을회관,경상북도 상주시,054-537-8178,경상북도 상주시 공성면 인창리  343-6대,36.312229,128.07842
10484,읍남1리마을회관,경상북도 울진군,054-789-6844,경상북도 울진군 울진읍 읍남리  439 대,36.980762,129.39466
10483,읍남2리마을회관,경상북도 울진군,054-789-6844,경상북도 울진군 울진읍 읍남리  238-5 대,36.983482,129.404
10482,온양1리마을회관,경상북도 울진군,054-789-6844,경상북도 울진군 울진읍 온양리  337-4대,37.015114,129.41322
10480,신림리마을회관,경상북도 울진군,054-789-6844,경상북도 울진군 울진읍 신림리  238-1 대,37.004723,129.34392
10478,대흥리마을회관,경상북도 울진군,054-789-6844,경상북도 울진군 울진읍 대흥리  73-13 대,36.970029,129.32253
6346,다부1리회관,경상북도 칠곡군,054-979-6652,경상북도 칠곡군 가산면 다부리  329-3 대,36.046235,128.51912
6313,자락리마을회관,경상북도 의성군,054-830-6521,경상북도 의성군 비안면 자락리  277-1대,36.36809005,128.5132575
331,중벌1리마을회관,경상북도 상주시,054-537-8391,경상북도 상주시 화북면 중벌리  599 대,36.602982,127.82775
10522,망양2리마을회관,경상북도 울진군,054-789-6844,경상북도 울진군 기성면 망양리  301-2대,36.851809,129.42661
10523,다천1리마을회관,경상북도 울진군,054-789-6844,경상북도 울진군 기성면 다천리  507-1대,36.792368,129.41261
10485,정림1리마을회관,경상북도 울진군,054-789-6844,경상북도 울진군 울진읍 정림리  610대,37.025339,129.35068
10486,정림2리마을회관,경상북도 울진군,054-789-6844,경상북도 울진군 울진읍 정림리  217-5대,37.034576,129.35482
10507,삼율3리마을회관,경상북도 울진군,054-789-6844,경상북도 울진군 후포면 삼율리  608대,36.689303,129.43552
10503,금음1리마을회관,경상북도 울진군,054-789-6844,경상북도 울진군 후포면 금음리  154 대,36.668023,129.43358
10505,금음4리마을회관,경상북도 울진군,054-789-6844,경상북도 울진군 후포면 금음리  381대,36.64483,129.42307
6366,학산1리마을회관,경상북도 칠곡군,054-979-6652,경상북도 칠곡군 가산면 학산리  694 답,36.053773,128.49481
6385,노석2리마을회관,경상북도 칠곡군,054-979-6652,경상북도 칠곡군 기산면 노석리  310 답,35.962928,128.38773
6404,행정2리마을회관,경상북도 칠곡군,054-979-6652,경상북도 칠곡군 기산면 행정리  110-1 대,35.97088,128.3835
6384,노석1리경로당,경상북도 칠곡군,054-979-6652,경상북도 칠곡군 기산면 노석리  477-6 대,35.953029,128.38505
10558,화조리노인정,경상북도 구미시,054-480-5892,경상북도 구미시 선산읍 화조리  580-1구,36.23888,128.31337
10557,남실경로당,경상북도 구미시,054-480-5892,경상북도 구미시 장천면 금산리  242-4 대,36.16088201,128.5266276
10546,아래머들경로당,경상북도 구미시,054-480-7389,경상북도 구미시 장천면 묵어리  1138 대,36.14130987,128.4931287
10534,행곡1리마을회관,경상북도 울진군,054-789-6844,경상북도 울진군 근남면 행곡리  23-1대,36.971736,129.3774
10536,수곡2리마을회관,경상북도 울진군,054-789-6844,경상북도 울진군 근남면 수곡리 715-5대,36.95960178,129.3489334
6475,갈면리마을회관,남부지방산림청 울진국유림관리소,054-780-3942,경상북도 울진군 매화면 갈면리 479-2대,36.86469981,129.3457012
10624,옥관1리새마을회관,경상북도 구미시,054-480-5892,경상북도 구미시 옥성면 옥관리  433-2 대,36.33917422,128.2642399
6662,후포해양경비안전센터,남부지방산림청 울진국유림관리소,054-780-3942,경상북도 울진군 후포면 후포리 623-79잡,36.68066585,129.4537265
5128,금천리회관,남부지방산림청 구미국유림관리소,054-712-4141,경상북도 청도군 매전면 금천리  1188-4대,35.72371796,128.8079863
5576,화서면행정복지센터,남부지방산림청 구미국유림관리소,054-712-4141,경상북도 상주시 화서면 신봉리  176-2대,36.44543111,127.9514285
6598,선구리마을회관,남부지방산림청 울진국유림관리소,054-780-3942,경상북도 울진군 온정면 선구리 550-3대,36.75113982,129.3378771
5283,공성농공단지복지회관,남부지방산림청 구미국유림관리소,054-712-4141,경상북도 상주시 공성면 평천리  1073대,36.28564217,128.1148087
5208,오진리복지회관,남부지방산림청 구미국유림관리소,054-712-4141,경상북도 청도군 운문면 오진리  439-2 대,35.71215896,128.9752346
5294,금송2리마을회관,남부지방산림청 구미국유림관리소,054-712-4141,경상북도 김천시 감천면 금송리  523-2잡,36.08706415,128.1335318
6555,온정1리경로당,남부지방산림청 울진국유림관리소,054-780-3942,경상북도 울진군 온정면 온정리 308-5전,36.71110455,129.342756
6500,신림리경로당,남부지방산림청 울진국유림관리소,054-780-3942,경상북도 울진군 울진읍 신림리 238-1 대,37.00466091,129.3437646
528,송월리마을회관,경상북도 예천군,054-650-6579,경상북도 예천군 은풍면 송월리  104-21대,36.749814,128.4281
779,청상리마을회관,경상북도 상주시,054-537-8150,경상북도 상주시 청리면 청상리  758-14전,36.326037,128.15605
10626,오가2리노인회관,경상북도 구미시,054-480-7267,경상북도 구미시 무을면 오가리  416-1 대,36.26691007,128.171089
10628,설곡새마을회관,경상북도 구미시,054-480-7389,경상북도 구미시 장천면 오로리 1395-1 대,36.17486199,128.5180093
6771,선구보건진료소,남부지방산림청 울진국유림관리소,054-780-3942,경상북도 울진군 온정면 선구리 554-2 대,36.75139327,129.3367212
6764,다천보건진료소,남부지방산림청 울진국유림관리소,054-780-3942,경상북도 울진군 기성면 다천리 938-1대,36.78887502,129.3985273
6752,삼율3리새마을회관,남부지방산림청 울진국유림관리소,054-780-3942,경상북도 울진군 후포면 삼율리 608대,36.6892766,129.4355338
6721,삼근초등학교,남부지방산림청 울진국유림관리소,054-780-3942,경상북도 울진군 금강송면 삼근리 403학,36.93522055,129.2462664
6720,금강송면보건지소,남부지방산림청 울진국유림관리소,054-780-3942,경상북도 울진군 금강송면 삼근리 376-1 대,36.93425579,129.2471139
6695,산림생태관리센터,남부지방산림청 울진국유림관리소,054-780-3942,경상북도 울진군 금강송면 소광리 산29-6 임,37.01970026,129.2153674
7349,박곡3리마을회관,경상북도 의성군,054-830-6521,경상북도 의성군 안평면 박곡리  366대,36.388015,128.60596
7348,대사2리경로당,경상북도 의성군,054-830-6521,경상북도 의성군 안평면 대사리  582-3,36.34593828,128.5774151
7302,청운1리마을회관,경상북도 의성군,054-830-6521,경상북도 의성군 신평면 청운리  143 대,36.490221,128.48767
7362,감계2리경로당,경상북도 의성군,054-830-6521,경상북도 의성군 옥산면 감계리  640-8전,36.357783,128.79731
781,청하2리마을회관,경상북도 상주시,054-537-8150,경상북도 상주시 청리면 청하리  560대,36.329796,128.13382
4195,신촌1리원골경로당,경상북도 청송군,870-6312,경상북도 청송군 진보면 신촌리  491-17 대,36.511392,129.11396
6940,봉곡1리마을회관,경상북도 김천시,054-421-2041,경상북도 김천시 농소면 봉곡리  1108대,36.068693,128.17589
10723,진복1리 마을회관,경상북도 울진군,054-789-6844,경상북도 울진군 근남면 진복리 92대,36.92989641,129.4164087
6789,전내마을반장님댁,남부지방산림청 울진국유림관리소,054-780-3942,경상북도 울진군 금강송면 전곡리 301 대,36.9607157,129.0941469
6788,길곡리힐링센터,남부지방산림청 울진국유림관리소,054-780-3942,경상북도 울진군 매화면 길곡리 423 학,36.81915854,129.3434562
4641,소천리경로당,경상북도 봉화군,054-679-5344,경상북도 봉화군 법전면 소천리  520대,36.905023,128.93797
7624,지산2동노인회관,경상북도 구미시,054-480-5892,경상북도 구미시 지산동  853-149구,36.14681177,128.3480894
7629,내예리새마을회관,경상북도 구미시,054-480-7092,경상북도 구미시 고아읍 내예리  304-4대,36.185562,128.2905
7444,신평1리마을회관,경상북도 김천시,054-421-2242,경상북도 김천시 지례면 신평리  627-4 대,35.962044,128.0748
7452,이전마을회관,경상북도 김천시,054-421-2242,경상북도 김천시 지례면 이전리  383 대,35.964183,128.08971
7631,봉곡1리새마을회관,경상북도 구미시,054-480-7041,경상북도 구미시 선산읍 봉곡리  235 대,36.24931061,128.264795
7623,황상12통경로당,경상북도 구미시,054-480-7752,경상북도 구미시 황상동  203-3대,36.11531426,128.4250207
7620,교리노인회관,경상북도 구미시,054-480-7041,경상북도 구미시 선산읍 교리 788-1대,36.25042656,128.3022205
7618,선기2동노인회관,경상북도 구미시,054-480-7516,경상북도 구미시 선기동 747-119천,36.13297133,128.2992292
5088,남양1동노인회관,경상북도 청도군,054-370-2611,경상북도 청도군 매전면 남양리 1422 답,35.66059144,128.880026
2157,금암4리회관,경상북도 칠곡군,054-979-6652,경상북도 칠곡군 동명면 금암리  1326-3대,36.004574,128.55127
2021,인평3리회관,경상북도 칠곡군,054-979-6652,경상북도 칠곡군 북삼읍 인평리  136-2 답,36.071414,128.34356
2024,망정1리마을회관,경상북도 칠곡군,054-979-6652,경상북도 칠곡군 석적읍 망정리  831 임,36.039963,128.44309
6287,송산2리마을회관,경상북도 칠곡군,054-979-6652,경상북도 칠곡군 동명면 송산리  563 대,35.993947,128.54176
2151,웃갓골경로당,경상북도 칠곡군,054-979-6509,경상북도 칠곡군 동명면 가천리  725 대,36.025646,128.53022
1914,석전2리마을회관,경상북도 칠곡군,054-979-6652,경상북도 칠곡군 왜관읍 석전리  437-2 대,36.00341,128.41066
6282,구미리마을회관,경상북도 의성군,054-830-6521,경상북도 의성군 봉양면 구미리  343-5 대,36.311359,128.60034
5154,순호3리회관,경상북도 의성군,054-830-6521,경상북도 의성군 가음면 순호리  933-3대,36.205318,128.71375
7646,빙계2리마을회관,경상북도 의성군,054-830-6521,경상북도 의성군 춘산면 빙계리  591,36.23989,128.77074
1910,구미리경로회관,경상북도 청도군,054-370-2437,경상북도 청도군 청도읍 구미리 160 대,35.63614996,128.759044
6387,봉산2리경로회관,경상북도 칠곡군,054-979-6652,경상북도 칠곡군 기산면 봉산리  665-1 대,35.991671,128.33998
7307,왜가리생태관,경상북도 의성군,054-830-6521,경상북도 의성군 신평면 중율리  150 학,36.484522,128.52791
9947,대전2동 마을회관(대전동595-4),경상북도 영천시,054-330-7262,경상북도 영천시 대전동  595-5대,35.980716,128.91088
2353,장평노인회관,경상북도 김천시,054-421-2299,경상북도 김천시 증산면 평촌리  236-3 대,35.896459,128.02064
3147,내감리마을회관,경상북도 김천시,010-9778-3303,경상북도 김천시 대덕면 내감리  425 대,35.901179,127.90614
2931,광명1리 마을회관,경상북도 김천시,054-421-2217,경상북도 김천시 구성면 광명리  713-7 대,36.040249,128.07266
5167,옥계2리 경로당,경상북도 김천시,054-421-2127,경상북도 김천시 어모면 옥계리  589-7대,36.231825,128.08424
2571,김천다수초등학교,경상북도 김천시,054-421-2405,경상북도 김천시 다수동  143학,36.125864,128.07631
3037,운산2리경로회관,경상북도 청도군,054-370-2311,경상북도 청도군 청도읍 운산리  1104-2전,35.675762,128.77521
2946,원정2리회관,경상북도 청도군,054-370-2437,경상북도 청도군 청도읍 원정리 598대,35.64817178,128.7566842
3419,관터마을회관(관기1리),경상북도 김천시,010-3453-3224,경상북도 김천시 대덕면 관기리  738-9대,35.917062,127.96104
3609,월곡리마을회관,경상북도 김천시,054-421-2259,경상북도 김천시 부항면 월곡리  576-7,35.986664,127.94035
3248,음지리마을회관,경상북도 청도군,054-370-2311,경상북도 청도군 청도읍 음지리  235-1대,35.586596,128.73897
3420,신당2리마을회관,경상북도 청도군,054-370-2478,경상북도 청도군 각남면 신당리  398-1대,35.636528,128.65075
3592,남산1리경로당,경상북도 청도군,054-370-2517,경상북도 청도군 각북면 남산리  289-19대,35.688584,128.58978
3650,신촌2리경로회관,경상북도 청도군,054-370-2540,경상북도 청도군 이서면 신촌리 486대,35.69859529,128.6766027
3633,문수리경로당,경상북도 청도군,054-370-2540,경상북도 청도군 이서면 문수리  440대,35.69323231,128.6581332
3284,사2리경로회관,경상북도 청도군,054-370-2478 ,경상북도 청도군 각남면 사리 1377-91대,35.61195577,128.6599574
3261,부야1리회관,경상북도 청도군,054-370-2437,경상북도 청도군 청도읍 부야리 417-2도,35.66648464,128.7802999
3232,금곡리경로회관,경상북도 청도군,054-370-2611,경상북도 청도군 매전면 금곡리 664-3대,35.68059888,128.8659634
2034,포남2리경로회관,경상북도 칠곡군,054-979-6652,경상북도 칠곡군 석적읍 포남리  890-1 답,36.041803,128.41796
2035,포남1리마을회관,경상북도 칠곡군,054-979-6652,경상북도 칠곡군 석적읍 포남리  338 대,36.050731,128.41722
1966,숭오2리마을회관,경상북도 칠곡군,054-979-6652,경상북도 칠곡군 북삼읍 숭오리  1103 대,36.065984,128.31574
2057,황학리경로당,경상북도 칠곡군,054-979-6652,경상북도 칠곡군 지천면 황학리  413-2 대,36.021039,128.48211
1972,숭오3리경로당,경상북도 칠곡군,054-979-6652,경상북도 칠곡군 북삼읍 숭오리  1462-10 대,36.068133,128.33133
4010,내룡한소밭경로당,경상북도 청송군,870-6312,경상북도 청송군 주왕산면 내룡리  151-1대,36.319599,129.20679
3943,송생리후평경로당,경상북도 청송군,870-6312,경상북도 청송군 청송읍 송생리  563-2 대,36.39033512,129.0890493
3782,임곡1리마을회관,경상북도 포항시,010-8570-3561,경상북도 포항시 남구 동해면 임곡리  597대,35.99300105,129.4562043
3709,철담경로회관,경상북도 청도군,054-370-2540,경상북도 청도군 이서면 문수리  241대,35.694958,128.6637
3662,귀일 경로회관,경상북도 청도군,054-370-2540,경상북도 청도군 이서면 수야리 1131대,35.68818217,128.6419397
4019,상평리마을회관,경상북도 청송군,870-6312,경상북도 청송군 주왕산면 상평리  200-1대,36.364313,129.07923
4133,진고마을회관,경상북도 청송군,870-6312,경상북도 청송군 현동면 개일리  130 대,36.26143553,129.0231564
3975,이촌2리회관,경상북도 청송군,870-6312,경상북도 청송군 진보면 이촌리  383-2 대,36.51874058,129.0310875
4120,월매경로당,경상북도 청송군,870-6312,경상북도 청송군 현동면 월매리  358 대,36.231476,129.01885
4119,하속1리경로당,경상북도 청송군,870-6312,경상북도 청송군 부남면 하속리  149-1대,36.31462174,129.0992548
4127,대전2리경로당,경상북도 청송군,870-6312,경상북도 청송군 부남면 대전리  582대,36.34231348,129.0628557
4220,괴정1리마을회관,경상북도 청송군,870-6312,경상북도 청송군 진보면 괴정리  656-2 대,36.48708005,129.1192696
4093,대신3리마을회관,경상북도 김천시,054-421-2017,경상북도 김천시 아포읍 대신리  561-3전,36.153356,128.20504
4103,인3리마을회관,경상북도 김천시,054-421-2017,경상북도 김천시 아포읍 인리  114대,36.17127,128.25866
4077,제석2리마을회관,경상북도 김천시,054-421-2017,경상북도 김천시 아포읍 제석리  889대,36.148504,128.23232
4330,송곡1리마을회관,경상북도 김천시,054-421-2064,경상북도 김천시 남면 송곡리  313-14 대,36.089328,128.23698
4215,기곡리경로당,경상북도 청송군,870-6312,경상북도 청송군 진보면 기곡리  229 답,36.53777,128.98808
4222,문거1리경로당,경상북도 청송군,870-6312,경상북도 청송군 안덕면 문거리  258-18대,36.27842159,129.0046022
4214,노래1리경로당,경상북도 청송군,870-6312,경상북도 청송군 안덕면 노래리  94-1 대,36.34965358,129.0215853
4185,감은2리(샛돔)경로당,경상북도 청송군,870-6312,경상북도 청송군 안덕면 감은리  573 대,36.28931027,128.9402265
4662,분천4리경로당,경상북도 봉화군,054-679-5523,경상북도 봉화군 소천면 분천리  1173-16대,36.926988,129.05544
4652,현동1리경로당,경상북도 봉화군,054-679-5723,경상북도 봉화군 재산면 현동리  1408대,36.815967,128.96014
4592,개단4리경로당,경상북도 봉화군,054-679-5123,경상북도 봉화군 물야면 개단리  1505-8대,36.954492,128.74296
4590,가평1리경로당,경상북도 봉화군,054-679-5123,경상북도 봉화군 물야면 가평리  247-3 대,36.946562,128.73532
4580,교촌경로당,경상북도 봉화군,054-674-9990,경상북도 봉화군 봉화읍 내성리  183-8 대,36.887599,128.73779
9901,월곡1리경로당(화남면 월곡리 642-2),경상북도 영천시,054-339-7531,경상북도 영천시 화남면 월곡리  642-2답,36.101982,128.88131
4737,소티맥이경로당,경상북도 청송군,870-6312,경상북도 청송군 파천면 옹점리  111과,36.47299092,129.0761293
4728,관2리경로당,경상북도 청송군,870-6312,경상북도 청송군 파천면 관리  807-4전,36.44576243,129.0328437
5246,옥율2리경로당,경상북도 김천시,054-421-2127,경상북도 김천시 어모면 옥율리  204-2대,36.176247,128.10649
4732,대곡리마을회관,경상북도 포항시,010-6325-3415,경상북도 포항시 남구 장기면 대곡리  226-4 임,35.936821,129.47096
5077,창평2리경로당,남부지방산림청 구미국유림관리소,054-712-4141,경상북도 칠곡군 지천면 창평리  252-1대,35.98318088,128.4919137
5071,매원초등학교,남부지방산림청 구미국유림관리소,054-712-4141,경상북도 칠곡군 왜관읍 매원리  496-1 학,35.99477186,128.4295626
4646,동면1리경로당,경상북도 봉화군,054-679-5723,경상북도 봉화군 재산면 동면리  1996-8대,36.799349,128.99472
4645,남면리경로당,경상북도 봉화군,054-679-5723,경상북도 봉화군 재산면 남면리  645-15대,36.78599,128.95935
4631,하눌1리경로당,경상북도 봉화군,054-679-5923,경상북도 봉화군 상운면 하눌리  1214대,36.861567,128.76782
9975,생곡리마을회관,경상북도 구미시,054-480-7041,경상북도 구미시 선산읍 생곡리  278-4답,36.271366,128.32859
9904,도일리마을회관(자양면 도일길 348-2),경상북도 영천시,054-339-7633,경상북도 영천시 자양면 도일리  348-2 대,36.110338,129.0828
9912,보현1리회관(자양면 보현리 688),경상북도 영천시,054-339-7633,경상북도 영천시 자양면 보현리  688대,36.132854,129.04608
9970,소재리마을회관,경상북도 구미시,054-480-5892,경상북도 구미시 선산읍 소재리  50-4대,36.23245306,128.240712
9974,도개2리경로당,경상북도 구미시,054-480-5892,경상북도 구미시 도개면 도개리  413-2 대,36.28876733,128.3601354
9968,인덕1리마을회관,경상북도 구미시,054-480-5892,경상북도 구미시 산동읍 인덕리  332대,36.16428575,128.460308
9973,신기리마을회관,경상북도 구미시,054-480-7041,경상북도 구미시 선산읍 신기리 153-3 대,36.28230481,128.3265402
9972,죽장1리마을회관,경상북도 구미시,054-480-7041,경상북도 구미시 선산읍 죽장리 1123-19대,36.24117745,128.2812635
9971,죽장2리마을회관,경상북도 구미시,054-480-7041,경상북도 구미시 선산읍 죽장리 616-5대,36.2423799,128.2725424
5386,은자골마을 지역활성화센터,남부지방산림청 구미국유림관리소,054-712-4141,경상북도 상주시 은척면 황령리  736 학,36.53101174,128.0033112
9981,형남경로당,경상북도 구미시,054-480-7092,경상북도 구미시 형곡동  699-4 대,36.10604075,128.3316377
9984,하송경로당,경상북도 구미시,054-480-5892,경상북도 구미시 선산읍 포상리  1148-5대,36.25130257,128.2391233
9969,예강1동새마을회관,경상북도 구미시,054-480-5892,경상북도 구미시 고아읍 예강리  706-98대,36.199794,128.33871
9980,상모모로실경로당,경상북도 구미시,054-480-5892,경상북도 구미시 상모동  220-1 대,36.08648462,128.3492778
9982,외예리경로당,경상북도 구미시,054-480-5892,경상북도 구미시 고아읍 외예리  475-5대,36.18305882,128.2828239
9988,구평1동경로당,경상북도 구미시,054-480-7299,경상북도 구미시 구평동  980 대,36.09119553,128.4443495
9987,옥관1리새문정자경로당,경상북도 구미시,054-480-7299,경상북도 구미시 옥성면 옥관리  433-2 대,36.33925029,128.264252
9979,횡산리마을회관,경상북도 구미시,054-480-7092,경상북도 구미시 고아읍 횡산리 43-3대,36.19399775,128.2850898
9978,독동리마을회관,경상북도 구미시,054-480-7041,경상북도 구미시 선산읍 독동리 464 답,36.24185951,128.3270593
9976,북산2리마을회관,경상북도 구미시,054-480-7041,경상북도 구미시 선산읍 북산리 610-6 대,36.21720945,128.26489
10033,구련2리경로당,경상북도 의성군,054-830-6521,경상북도 의성군 금성면 구련리  716답,36.270672,128.64193
10037,병방리마을회관,경상북도 의성군,054-830-6521,경상북도 의성군 단촌면 병방리  315 대,36.427016,128.7163
9913,신방리마을회관(자양면 신방리 763-8),경상북도 영천시,054-339-7633,경상북도 영천시 자양면 신방리  763-8 대,36.068022,129.07562
9914,신방2리경로당(자양면 신방리 526-1),경상북도 영천시,054-339-7633,경상북도 영천시 자양면 신방리  526-1,36.068902,129.08157
9985,파산리마을회관,경상북도 구미시,054-480-5892,경상북도 구미시 고아읍 파산리  212-1대,36.20839548,128.307754
9986,원2리노인회관,경상북도 구미시,054-480-5892,경상북도 구미시 무을면 원리  334-6 대,36.24734818,128.2068045
9977,송곡1리마을회관,경상북도 구미시,054-480-5892,경상북도 구미시 해평면 송곡리  771-1대,36.22608989,128.3829031
2322,금곡리마을회관,경상북도 김천시,054-421-2299,경상북도 김천시 증산면 금곡리  835대,35.879583,128.03594
2323,대성1리마을회관,경상북도 김천시,054-421-2156,경상북도 김천시 대항면 대성리  503-1대,36.067798,128.01335
10170,용한1리마을회관,경상북도 포항시,010-8578-6439,경상북도 포항시 북구 흥해읍 용한리  535 대,36.111491,129.42563
9919,보현2리노인정(자양면 보현리 1162),경상북도 영천시,054-339-7633,경상북도 영천시 자양면 보현리  1162대,36.135257,129.03407
9920,자양면복지회관(자양면 성곡리 552-2),경상북도 영천시,054-339-7633,경상북도 영천시 자양면 성곡리  552-2,36.078682,129.01877
5237,구례2리마을회관,경상북도 김천시,054-421-2127,경상북도 김천시 어모면 구례리  632-1대,36.222625,128.10238
2208,황점마을회관,경상북도 김천시,054-421-2299,경상북도 김천시 증산면 황점리  583대,35.857136,128.04679
10110,광덕1리마을회관,경상북도 김천시,054-421-2097,경상북도 김천시 감문면 광덕리  906-1대,36.236769,128.19973
2347,부항리마을회관,경상북도 김천시,054-421-2299,경상북도 김천시 증산면 부항리  428-1대,35.923086,128.01943
5546,강곡2리마을회관,경상북도 김천시,010-4804-7427,경상북도 김천시 조마면 강곡리  750대,36.028761,128.08447
10144,신안4리회관(외신),경상북도 김천시,010-4505-3364,경상북도 김천시 조마면 신안리 507-1대,36.06483112,128.1078227
10108,신풍경로당,경상북도 김천시,54212097,경상북도 김천시 감문면 덕남리 836-2대,36.21070655,128.2207253
10107,탄동마을회관,경상북도 김천시,054-421-2097,경상북도 김천시 감문면 광덕리 415 대,36.21807521,128.2058054
10149,장암2리회관(도암),경상북도 김천시,010-5383-0683,경상북도 김천시 조마면 장암리  310-2대,36.045933,128.09676
10178,학천2리마을회관,경상북도 포항시,010-8623-6015,경상북도 포항시 북구 흥해읍 학천리  224 대,36.075962,129.32701
10159,대련3리마을회관,경상북도 포항시,054-240-7353,경상북도 포항시 북구 흥해읍 대련리  1132-26 대,36.046224,129.32094
10233,고현1리마을회관,경상북도 포항시,054-240-7353,경상북도 포항시 북구 청하면 고현리  402대,36.164446,129.32997
10242,감곡리마을회관,경상북도 포항시,054-240-7353,경상북도 포항시 북구 죽장면 감곡리  328-1대,36.144651,129.12189
10156,금장2리마을회관,경상북도 포항시,010-7508-7298,경상북도 포항시 북구 흥해읍 금장리  184-1 대,36.128804,129.37436
10155,금장1리마을회관,경상북도 포항시,010-7508-7298,경상북도 포항시 북구 흥해읍 금장리  683-13대,36.134602,129.36231
10238,가사리마을회관,경상북도 포항시,054-240-7354,경상북도 포항시 북구 죽장면 가사리  608-4대,36.193395,129.14968
10228,우현경로당,경상북도 포항시,054-240-7354,경상북도 포항시 북구 우현동 94-15대,36.0493471,129.3619714
10152,장암3리회관(예동),경상북도 김천시,010-4558-0346,경상북도 김천시 조마면 장암리 95 대,36.05584803,128.108363
10258,합덕1리마을회관,경상북도 포항시,054-240-7354,경상북도 포항시 북구 죽장면 합덕리  272-11 대,36.201676,129.0964
10293,우목리마을회관,경상북도 포항시,010-8578-6439,경상북도 포항시 북구 흥해읍 우목리  107대,36.097077,129.42802
10234,서정1리마을회관,경상북도 포항시,054-240-7354,경상북도 포항시 북구 청하면 서정리  589-1대,36.191045,129.31114
10248,상사리마을회관,경상북도 포항시,054-240-7354,경상북도 포항시 북구 죽장면 상사리  626-1 대,36.253234,129.10877
10244,매현1리마을회관,경상북도 포항시,054-240-7353,경상북도 포항시 북구 죽장면 매현리  714-1대,36.172455,129.11207
10166,매산리마을회관,경상북도 포항시,010-6565-0565,경상북도 포항시 북구 흥해읍 매산리  182-1대,36.112547,129.30952
10236,만석2리마을회관,경상북도 포항시,054-240-7353,경상북도 포항시 북구 신광면 만석리  229 대,36.160587,129.27576
10167,덕장1리마을회관,경상북도 포항시,010-4635-8835,경상북도 포항시 북구 흥해읍 덕장리  1025-17대,36.134247,129.33438
10160,덕성1리마을회관,경상북도 포항시,010-4635-8835,경상북도 포항시 북구 흥해읍 덕성리  533대,36.149928,129.3053
10158,대련1리마을회관,경상북도 포항시,010-3003-6366,경상북도 포항시 북구 흥해읍 대련리  661전,36.046722,129.31262
6349,다부2리마을회관,경상북도 칠곡군,054-979-6652,경상북도 칠곡군 가산면 다부리  741-5 대,36.035661,128.5148
6382,복성4리마을회관,경상북도 칠곡군,054-979-6652,경상북도 칠곡군 약목면 복성리  693-1 대,36.039183,128.36032
6354,석우2리경로당,경상북도 칠곡군,054-979-6652,경상북도 칠곡군 가산면 석우리  1015 대,36.102539,128.53745
6359,김남정경로당,경상북도 칠곡군,054-979-6652,경상북도 칠곡군 가산면 용수리  157-1 대,36.065115,128.60793
6054,양지리마을회관,경상북도 의성군,054-830-6521,경상북도 의성군 가음면 양지리  330대,36.229926,128.73712
6272,풍리3리마을회관,경상북도 의성군,054-830-6521,경상북도 의성군 봉양면 풍리리  284-19 대,36.303389,128.65355
6319,오상1리경로회관,경상북도 의성군,054-830-6521,경상북도 의성군 사곡면 오상리  237대,36.31903477,128.7518297
7208,탑정1리마을회관,경상북도 포항시,010-4180-8599,경상북도 포항시 북구 기북면 탑정리  745-1답,36.156248,129.1863
6192,구평2리마을회관,경상북도 포항시,010-3796-6546,경상북도 포항시 남구 구룡포읍 구평리  31-3대,35.94676219,129.5371897
6195,구룡포2리마을회관,경상북도 포항시,010-3505-9113,경상북도 포항시 남구 구룡포읍 구룡포리  825-1대,35.99290011,129.5496284
6383,각산1리회관,경상북도 칠곡군,054-979-6652,경상북도 칠곡군 기산면 각산리  679-9 대,35.996839,128.32489
6369,학하1리회관,경상북도 칠곡군,054-979-6652,경상북도 칠곡군 가산면 학하리  83-3 대,36.101803,128.48841
6367,고남리경로당,경상북도 칠곡군,054-979-6652,경상북도 칠곡군 가산면 학하리  1256-3 대,36.094934,128.47769
6444,대흥리마을회관,남부지방산림청 울진국유림관리소,054-780-3942,경상북도 울진군 울진읍 대흥리  73-13 대,36.970034,129.32255
5129,국립운문산자연휴양림,남부지방산림청 구미국유림관리소,054-712-4141,경상북도 청도군 운문면 신원리  산29-6임,35.65379765,129.0033729
5098,박곡리새마을회관(박곡리동회관),남부지방산림청 구미국유림관리소,054-712-4141,경상북도 청도군 금천면 박곡리  976-2전,35.6680964,128.9180544
4977,송산3길 상어동경로회,남부지방산림청 구미국유림관리소,054-712-4141,경상북도 칠곡군 동명면 송산리  1117 대,35.99800418,128.5249682
6435,덕인2리마을회관,남부지방산림청 울진국유림관리소,054-780-3942,경상북도 울진군 온정면 덕인리 805-2대,36.68793286,129.3913625
